id,franchise_id,franchise_name,restaurant_franchise_id,country,city,lat,lng,geohash
197568495625,10,The Golden Spoon,24784,US,Decatur,34.578,-87.021,dn4h
17179869242,59,Azalea Cafe,10902,FR,Paris,48.861,2.368,u09t
214748364826,27,The Corner Cafe,92040,US,Rapid City,44.08,-103.25,9xyd
154618822706,51,The Pizzeria,41484,AT,Vienna,48.213,16.413,u2ed
163208757312,65,Chef's Corner,96638,GB,London,51.495,-0.191,gcpu
68719476763,28,The Spicy Pickle,77517,US,Grayling,44.657,-84.744,dpgw
223338299419,28,The Spicy Pickle,36937,US,Oswego,43.452,-76.532,dr9x
240518168650,75,Greenhouse Cafe,93164,NL,Amsterdam,52.37,4.897,u173
128849018936,57,The Yellow Submarine,5679,FR,Paris,48.872,2.335,u09w
197568495635,20,The Brasserie,24784,US,Jeffersonville,39.616,-83.612,dph9
68719476768,33,The Blue Elephant,77517,IT,Milan,45.479,9.146,u0nd
51539607582,31,Bistro 42,6934,IT,Milan,45.444,9.153,u0nd
94489280554,43,The Food House,95399,FR,Paris,48.867,2.329,u09t
206158430215,8,The Green Olive,53370,US,Haltom City,32.789,-97.28,9vff
154618822657,2,Bella Cucina,41484,US,Fort Pierce,27.412,-80.391,dhyg
17179869217,34,The Tasty Treat,10902,US,Green Bay,44.476,-88.077,dpcm
8589934633,42,The Daily Scoop,12630,FR,Paris,48.854,2.343,u09t
240518168596,21,The Lazy Daisy,93164,US,Mendenhall,39.86,-75.646,dr44
171798691906,67,Crimson and Clover,65939,NL,Amsterdam,52.361,4.894,u173
42949673022,63,Cafe Paris,89646,GB,London,51.508,-0.107,gcpv
223338299416,25,The Cozy Cafe,36937,US,Great Barrington,42.238,-73.335,dreb
85899345943,24,The Fisherman's Catch,18952,ES,Barcelona,41.385,2.174,sp3e
55,56,The Waffle House,47732,FR,Paris,48.887,2.3,u09w
231928234012,29,The Olive Branch,33573,IT,Milan,45.472,9.078,u0n6
171798691866,27,The Corner Cafe,65939,IT,Milan,45.452,9.167,u0nd
266287972381,30,The Wine Cellar,11263,US,Chicago,41.797,-87.723,dp3t
8589934629,38,Cafe Viva,12630,AT,Vienna,48.204,16.389,u2ed
34359738401,34,The Tasty Treat,50333,AT,Vienna,48.201,16.359,u2ed
111669149720,25,The Cozy Cafe,84488,ES,Barcelona,41.384,2.171,sp3e
42949673016,57,The Yellow Submarine,89646,FR,Paris,48.876,2.294,u09w
188978561059,36,Blue Ocean Grill,3642,US,Kennebunkport,43.363,-70.477,drty
25769803787,12,The Wooden Spoon,72230,US,Napa,38.283,-122.289,9qc1
120259084327,40,Crimson Cafe,59829,FR,Paris,48.857,2.331,u09t
249108103222,55,The Steak House,55897,FR,Paris,48.85,2.345,u09t
25769803795,20,The Brasserie,72230,ES,Barcelona,41.385,2.179,sp3e
34359738395,28,The Spicy Pickle,50333,IT,Milan,45.47,9.195,u0nd
111669149696,1,Savoria,84488,US,Port Aransas,27.831,-97.065,9ufy
77309411331,4,The Blue Plate,78190,US,San Antonio,29.532,-98.56,9v3b
240518168626,51,The Pizzeria,93164,AT,Vienna,48.164,16.322,u2e9
214748364817,18,The Harvest Room,92040,ES,Barcelona,41.37,2.171,sp3e
249108103199,32,The Orange Peeler,55897,ES,Barcelona,41.389,2.173,sp3e
42949673007,48,The Local Cafe,89646,AT,Vienna,48.213,16.383,u2ed
17179869255,72,Flamingo Cafe,10902,GB,London,51.505,-0.148,gcpv
257698037821,62,Cafe Luminoso,26468,GB,London,51.48,-0.01,gcpu
154618822735,80,The Market Cafe,41484,NL,Amsterdam,52.363,4.88,u173
94489280558,47,The Juicy Burger,95399,FR,Paris,48.872,2.332,u09w
17179869198,15,The Pearl Kitchen,10902,US,Mariposa,37.487,-119.967,9qdt
266287972411,60,Big City Grill,11263,US,Celina,48.875,2.342,u09w
60129542151,8,The Green Olive,71555,US,Colton,34.02,-117.338,9qh9
231928234016,33,The Blue Elephant,33573,US,Umatilla,45.921,-119.289,c25j
85899345986,67,Crimson and Clover,18952,NL,Amsterdam,52.35,4.877,u173
214748364878,79,The Huckleberry Cafe,92040,NL,Amsterdam,52.365,4.88,u173
137438953513,42,The Daily Scoop,11038,FR,Paris,48.843,2.405,u09t
249108103180,13,The Firehouse,55897,US,Clinton,36.163,-84.085,dnkj
120259084322,35,Basilica Bistro,59829,AT,Vienna,48.2,16.355,u2ed
128849018881,2,Bella Cucina,5679,US,Clanton,32.803,-86.587,djf6
146028888075,12,The Wooden Spoon,70611,US,Burlington,36.07,-79.495,dnrm
103079215117,14,The Gourmet Garden,4340,US,Victorville,34.507,-117.326,9qhs
214748364807,8,The Green Olive,92040,US,Santa Barbara,34.44,-119.738,9q4g
111669149700,5,The Hungry Hippo,84488,US,Tucson,32.22,-110.877,9t9p
257698037804,45,The Green Bean,26468,FR,Paris,48.827,2.291,u09t
111669149750,55,The Steak House,84488,GB,London,51.492,-0.278,gcpu
146028888140,77,Harvest Kitchen,70611,GB,London,51.501,-0.116,gcpu
146028888101,38,Cafe Viva,70611,US,Bangor,44.791,-68.81,drzn
77309411381,54,The Spice House,78190,FR,Paris,48.884,2.333,u09w
34359738416,49,The Olive Tree,50333,FR,Paris,48.864,2.352,u09t
197568495639,24,The Fisherman's Catch,24784,US,Indiana,40.62,-79.13,dppx
146028888145,82,The Palate,70611,GB,London,51.517,-0.136,gcpv
223338299433,42,The Daily Scoop,36937,FR,Paris,48.875,2.301,u09w
214748364864,65,Chef's Corner,92040,FR,Paris,48.897,2.343,u09w
188978561074,51,The Pizzeria,3642,AT,Vienna,48.213,16.38,u2ed
197568495676,61,Blue Water Bistro,24784,FR,Paris,48.866,2.309,u09t
85899345983,64,Chateau de Cuisine,18952,GB,London,51.521,-0.092,gcpv
137438953491,20,The Brasserie,11038,US,Erie,42.071,-80.039,dprp
128849018922,43,The Food House,5679,US,Moses Lake,47.104,-119.311,c275
188978561025,2,Bella Cucina,3642,US,Palm Harbor,28.115,-82.74,dhvp
223338299446,55,The Steak House,36937,GB,London,51.517,-0.118,gcpv
240518168605,30,The Wine Cellar,93164,ES,Barcelona,41.39,2.136,sp3e
68719476799,64,Chateau de Cuisine,77517,NL,Amsterdam,52.377,4.898,u173
249108103228,61,Blue Water Bistro,55897,FR,Paris,48.884,2.331,u09w
128849018928,49,The Olive Tree,5679,FR,Paris,48.841,2.33,u09t
154618822677,22,The Red Pepper,41484,ES,Barcelona,41.381,2.181,sp3e
146028888130,67,Crimson and Clover,70611,FR,Paris,48.872,2.324,u09w
85899345930,11,The Flaming Wok,18952,US,Mount Airy,36.487,-80.746,dnqx
188978561061,38,Cafe Viva,3642,US,Fryeburg,44.016,-70.981,drvd
146028888090,27,The Corner Cafe,70611,ES,Barcelona,41.387,2.167,sp3e
206158430248,41,The Daily Bread,53370,IT,Milan,45.452,9.176,u0nd
25769803824,49,The Olive Tree,72230,AT,Vienna,48.209,16.354,u2ed
197568495686,71,Fire and Spice,24784,FR,Paris,48.88,2.329,u09w
111669149702,7,Cafe Roma,84488,US,Montgomery,32.328,-86.338,djdx
51539607567,16,The Spice Tree,6934,US,Mount Sterling,39.974,-90.758,9zp7
257698037818,59,Azalea Cafe,26468,FR,Paris,48.874,2.302,u09w
146028888124,61,Blue Water Bistro,70611,FR,Paris,48.848,2.349,u09t
8589934661,70,Earth and Vine,12630,NL,Amsterdam,52.351,4.873,u173
171798691899,60,Big City Grill,65939,GB,London,51.517,-0.15,gcpv
206158430286,79,The Huckleberry Cafe,53370,GB,London,51.506,-0.146,gcpv
214748364841,42,The Daily Scoop,92040,AT,Vienna,48.222,16.357,u2ed
249108103171,4,The Blue Plate,55897,US,Abbeville,31.552,-85.284,dje7
103079215163,60,Big City Grill,4340,FR,Paris,48.875,2.319,u09w
25769803829,54,The Spice House,72230,FR,Paris,48.868,2.331,u09w
111669149748,53,The Red Rooster,84488,US,Terre Haute,51.296,6.558,u1he
25,26,The Silver Spoon,47732,US,Crescent City,41.748,-124.203,9prt
223338299417,26,The Silver Spoon,36937,US,Freeport,42.279,-89.634,dp82
8589934650,59,Azalea Cafe,12630,GB,London,51.495,-0.184,gcpu
214748364844,45,The Green Bean,92040,FR,Paris,48.84,2.303,u09t
154618822668,13,The Firehouse,41484,US,Gatlinburg,35.755,-83.457,dnke
171798691856,17,The Rustic Table,65939,ES,Barcelona,41.386,2.161,sp3e
103079215175,72,Flamingo Cafe,4340,GB,London,51.516,-0.12,gcpv
38,39,Cinnamon Grill,47732,IT,Milan,45.478,9.209,u0nd
103079215178,75,Greenhouse Cafe,4340,NL,Amsterdam,52.35,4.891,u173
180388626503,72,Flamingo Cafe,7531,NL,Amsterdam,52.37,4.889,u173
51539607560,9,The Grill House,6934,US,Telluride,37.936,-107.813,9wer
231928234033,50,The Pancake House,33573,GB,London,51.505,-0.088,gcpv
85899345932,13,The Firehouse,18952,US,Lebanon,37.659,-92.668,9ywn
17179869261,78,The Hot Spot,10902,GB,London,51.516,-0.062,gcpv
249108103231,64,Chateau de Cuisine,55897,GB,London,51.51,-0.13,gcpv
94489280556,45,The Green Bean,95399,FR,Paris,48.868,2.333,u09w
206158430220,13,The Firehouse,53370,US,Glasgow,36.985,-85.934,dndf
77309411380,53,The Red Rooster,78190,FR,Paris,48.882,2.282,u09w
180388626476,45,The Green Bean,7531,FR,Paris,48.86,2.309,u09t
60129542189,46,The Italian Table,71555,FR,Paris,48.857,2.332,u09t
257698037826,67,Crimson and Clover,26468,GB,London,51.512,-0.138,gcpv
206158430280,73,Fresh Harvest,53370,GB,London,51.495,-0.182,gcpu
94489280538,27,The Corner Cafe,95399,ES,Barcelona,41.394,2.16,sp3e
154618822733,78,The Hot Spot,41484,GB,London,51.522,-0.143,gcpv
103079215148,45,The Green Bean,4340,US,Woodburn,45.152,-122.884,c208
146028888084,21,The Lazy Daisy,70611,US,Englewood,39.567,-104.868,9xj3
51539607561,10,The Golden Spoon,6934,US,Napa,38.315,-122.276,9qc1
94489280535,24,The Fisherman's Catch,95399,ES,Barcelona,41.39,2.142,sp3e
266287972385,34,The Tasty Treat,11263,US,Mccall,44.911,-116.098,9rvr
257698037771,12,The Wooden Spoon,26468,US,Lake Lure,35.452,-82.172,dnm9
266287972380,29,The Olive Branch,11263,US,Coudersport,41.773,-78.021,dr2t
223338299422,31,Bistro 42,36937,IT,Milan,45.465,9.19,u0nd
180388626469,38,Cafe Viva,7531,AT,Vienna,48.195,16.346,u2ed
111669149729,34,The Tasty Treat,84488,US,Hill City,43.944,-103.535,9xy3
85899345977,58,A Tasty Bite,18952,GB,London,51.514,-0.183,gcpv
180388626480,49,The Olive Tree,7531,FR,Paris,48.868,2.337,u09w
60129542156,13,The Firehouse,71555,US,Millington,35.367,-89.887,dn21
17179869250,67,Crimson and Clover,10902,GB,London,51.495,-0.187,gcpu
42949672973,14,The Gourmet Garden,89646,US,Stockton,37.956,-121.328,9q9x
249108103169,2,Bella Cucina,55897,US,Sarasota,27.3,-82.45,dhv7
197568495659,44,The French Kitchen,24784,AT,Vienna,48.176,16.42,u2ed
206158430208,1,Savoria,53370,US,Annapolis,15.499,-88.038,d4c2
60129542144,1,Savoria,71555,US,Mont Belvieu,20.875,-86.868,d5dn
223338299415,24,The Fisherman's Catch,36937,ES,Barcelona,41.402,2.212,sp3e
34359738380,13,The Firehouse,50333,US,New Stanton,40.22,-79.606,dppk
111669149734,39,Cinnamon Grill,84488,AT,Vienna,48.194,16.367,u2ed
51539607554,3,Spice Bazaar,6934,US,Gonzales,30.226,-90.921,9vr7
154618822661,6,The Daily Grind,41484,US,Millbrook,32.46,-86.384,djf8
266287972384,33,The Blue Elephant,11263,US,Appleton,44.3,-88.371,dpch
120259084345,58,A Tasty Bite,59829,GB,London,51.508,-0.138,gcpv
34359738429,62,Cafe Luminoso,50333,GB,London,51.499,-0.137,gcpu
214748364811,12,The Wooden Spoon,92040,US,Milford,39.184,-84.267,dnun
60129542205,62,Cafe Luminoso,71555,GB,London,51.518,-0.123,gcpv
163208757283,36,Blue Ocean Grill,96638,US,Holland,42.786,-86.107,dpdg
146028888069,6,The Daily Grind,70611,US,Leesville,31.145,-93.263,9vt9
223338299428,37,Cafe Crepe,36937,AT,Vienna,48.257,16.403,u2ed
231928234005,22,The Red Pepper,33573,ES,Barcelona,41.413,2.209,sp3e
197568495674,59,Azalea Cafe,24784,FR,Paris,48.864,2.361,u09t
197568495681,66,City Bites,24784,FR,Paris,48.872,2.344,u09w
180388626445,14,The Gourmet Garden,7531,US,Mount Vernon,38.311,-88.949,dnb9
35,36,Blue Ocean Grill,47732,IT,Milan,45.457,9.192,u0nd
231928234018,35,Basilica Bistro,33573,US,Coeur D Alene,47.664,-116.903,c2kz
188978561085,62,Cafe Luminoso,3642,FR,Paris,48.87,2.291,u09w
266287972435,84,The Pink Door,11263,NL,Amsterdam,52.366,4.893,u173
154618822727,72,Flamingo Cafe,41484,GB,London,51.508,-0.132,gcpv
249108103179,12,The Wooden Spoon,55897,US,Bryson City,35.42,-83.462,dnk9
60129542173,30,The Wine Cellar,71555,ES,Barcelona,41.386,2.167,sp3e
197568495627,12,The Wooden Spoon,24784,US,Southern Pines,35.16,-79.41,dnr8
214748364876,77,Harvest Kitchen,92040,NL,Amsterdam,52.336,4.874,u173
25769803800,25,The Cozy Cafe,72230,ES,Barcelona,41.395,2.143,sp3e
103079215162,59,Azalea Cafe,4340,FR,Paris,48.875,2.287,u09w
197568495687,72,Flamingo Cafe,24784,FR,Paris,48.885,2.33,u09w
42949673008,49,The Olive Tree,89646,AT,Vienna,48.22,16.326,u2ed
146028888065,2,Bella Cucina,70611,US,Eden,9.486,100.065,w1xj
17179869193,10,The Golden Spoon,10902,US,Portales,34.181,-103.346,9wnd
60129542163,20,The Brasserie,71555,US,Elkridge,39.184,-76.756,dqcq
45,46,The Italian Table,47732,AT,Vienna,48.21,16.372,u2ed
103079215125,22,The Red Pepper,4340,US,Raton,36.91,-104.442,9wt9
18,19,The Tasting Room,47732,US,Kearney,40.683,-99.085,9z1x
42949673004,45,The Green Bean,89646,AT,Vienna,48.194,16.346,u2ed
103079215127,24,The Fisherman's Catch,4340,US,Alexandria,38.805,-77.045,dqch
8589934594,3,Spice Bazaar,12630,US,Los Angeles,33.998,-118.421,9q5c
206158430264,57,The Yellow Submarine,53370,FR,Paris,48.835,2.321,u09t
154618822699,44,The French Kitchen,41484,US,Danforth,45.707,-67.858,f2ps
188978561040,17,The Rustic Table,3642,US,Hanford,36.32,-119.656,9q6y
111669149755,60,Big City Grill,84488,GB,London,51.517,-0.129,gcpv
128849018910,31,Bistro 42,5679,US,Warren,41.836,-79.169,dprw
60129542196,53,The Red Rooster,71555,FR,Paris,48.874,2.301,u09w
51539607605,54,The Spice House,6934,GB,London,51.505,-0.105,gcpv
180388626491,60,Big City Grill,7531,GB,London,51.507,-0.152,gcpv
154618822719,64,Chateau de Cuisine,41484,GB,London,51.494,-0.176,gcpu
77309411343,16,The Spice Tree,78190,US,Marion,36.868,-81.414,dnw1
257698037802,43,The Food House,26468,AT,Vienna,48.235,16.422,u2ed
171798691872,33,The Blue Elephant,65939,IT,Milan,45.499,9.166,u0nd
103079215153,50,The Pancake House,4340,AT,Vienna,48.197,16.386,u2ed
111669149717,22,The Red Pepper,84488,US,Bloomington,40.487,-89.035,dp0w
77309411346,19,The Tasting Room,78190,US,Livermore,37.701,-121.814,9q9q
214748364872,73,Fresh Harvest,92040,GB,London,51.512,-0.076,gcpv
214748364860,61,Blue Water Bistro,92040,FR,Paris,48.875,2.341,u09w
223338299425,34,The Tasty Treat,36937,IT,Milan,45.486,9.204,u0nd
163208757315,68,Delish Cafe,96638,GB,London,51.513,-0.181,gcpv
103079215116,13,The Firehouse,4340,US,Santa Barbara,34.41,-119.693,9q4g
249108103192,25,The Cozy Cafe,55897,US,New York,40.76,-73.978,dr5r
206158430295,88,The Royal Cafe,53370,NL,Amsterdam,52.365,4.893,u173
8589934599,8,The Green Olive,12630,US,Nashville,36.079,-86.955,dn6j
17179869226,43,The Food House,10902,AT,Vienna,48.191,16.317,u2ed
188978561024,1,Savoria,3642,US,Beaumont,20.454,-87.274,d59u
42949673013,54,The Spice House,89646,FR,Paris,48.87,2.329,u09w
68719476780,45,The Green Bean,77517,FR,Paris,48.872,2.298,u09w
249108103195,28,The Spicy Pickle,55897,ES,Barcelona,41.377,2.146,sp3e
146028888095,32,The Orange Peeler,70611,US,Gooding,42.945,-114.713,9rwk
206158430266,59,Azalea Cafe,53370,FR,Paris,48.845,2.375,u09t
206158430261,54,The Spice House,53370,AT,Vienna,48.206,16.371,u2ed
257698037803,44,The French Kitchen,26468,AT,Vienna,48.239,16.429,u2ed
25769803781,6,The Daily Grind,72230,US,Studio City,34.145,-118.412,9q5f
214748364820,21,The Lazy Daisy,92040,ES,Barcelona,41.39,2.149,sp3e
17179869215,32,The Orange Peeler,10902,US,Fairmont,43.676,-94.446,9zub
77309411329,2,Bella Cucina,78190,US,Bowling Green,27.598,-81.824,dhvv
188978561066,43,The Food House,3642,IT,Milan,45.495,9.142,u0nd
171798691848,9,The Grill House,65939,US,Gustine,37.112,-121.016,9q9g
68719476738,3,Spice Bazaar,77517,US,Orlando,28.482,-81.456,djn4
163208757269,22,The Red Pepper,96638,US,Normal,40.514,-88.953,dp0w
128849018907,28,The Spicy Pickle,5679,ES,Barcelona,41.404,2.214,sp3e
25769803833,58,A Tasty Bite,72230,FR,Paris,48.878,2.287,u09w
42949673027,68,Delish Cafe,89646,GB,London,51.524,-0.081,gcpv
77309411371,44,The French Kitchen,78190,FR,Paris,48.85,2.342,u09t
231928234009,26,The Silver Spoon,33573,US,Gorham,44.393,-71.125,drvk
128849018941,62,Cafe Luminoso,5679,GB,London,51.457,-0.206,gcpu
77309411335,8,The Green Olive,78190,US,Anaheim,33.797,-117.915,9qh0
214748364874,75,Greenhouse Cafe,92040,GB,London,51.521,-0.123,gcpv
206158430293,86,The Porch Cafe,53370,NL,Amsterdam,52.345,4.925,u179
266287972434,83,The Pantry,11263,NL,Amsterdam,52.365,4.897,u173
42949672982,23,The Hungry Pig,89646,ES,Barcelona,41.393,2.193,sp3e
51539607574,23,The Hungry Pig,6934,ES,Barcelona,41.391,2.166,sp3e
120259084310,23,The Hungry Pig,59829,ES,Barcelona,41.394,2.156,sp3e
146028888077,14,The Gourmet Garden,70611,US,Branson,36.651,-93.267,9yt8
68719476748,13,The Firehouse,77517,US,Santa Cruz,36.965,-122.021,9q94
94489280550,39,Cinnamon Grill,95399,US,Lynnwood,47.841,-122.298,c290
17179869243,60,Big City Grill,10902,FR,Paris,48.866,2.33,u09t
197568495655,40,Crimson Cafe,24784,IT,Milan,45.482,9.176,u0nd
146028888109,46,The Italian Table,70611,IT,Milan,45.484,9.208,u0nd
231928234025,42,The Daily Scoop,33573,FR,Paris,48.85,2.289,u09t
257698037814,55,The Steak House,26468,FR,Paris,48.867,2.327,u09t
257698037823,64,Chateau de Cuisine,26468,GB,London,51.494,-0.143,gcpu
120259084318,31,Bistro 42,59829,IT,Milan,45.475,9.206,u0nd
240518168586,11,The Flaming Wok,93164,US,Marina Del Rey,33.987,-118.454,9q5c
197568495642,27,The Corner Cafe,24784,ES,Barcelona,41.379,2.17,sp3e
34359738424,57,The Yellow Submarine,50333,FR,Paris,48.885,2.304,u09w
7,8,The Green Olive,47732,US,Batesville,34.309,-89.923,dn05
34359738422,55,The Steak House,50333,FR,Paris,48.876,2.325,u09w
206158430230,23,The Hungry Pig,53370,US,Somerset,40.551,-74.545,dr4y
197568495654,39,Cinnamon Grill,24784,IT,Milan,45.481,9.192,u0nd
94489280557,46,The Italian Table,95399,FR,Paris,48.868,2.353,u09w
188978561055,32,The Orange Peeler,3642,US,North Kingstown,41.621,-71.458,drmh
85899345969,50,The Pancake House,18952,FR,Paris,48.869,2.297,u09w
231928234028,45,The Green Bean,33573,FR,Paris,48.862,2.35,u09t
146028888073,10,The Golden Spoon,70611,US,Florence,34.266,-79.731,dnp6
240518168624,49,The Olive Tree,93164,US,Wheeler,45.69,-123.882,c0pg
197568495666,51,The Pizzeria,24784,FR,Paris,48.843,2.367,u09t
154618822707,52,The Red Door,41484,FR,Paris,48.833,2.288,u09t
103079215137,34,The Tasty Treat,4340,ES,Barcelona,41.411,2.212,sp3e
34359738382,15,The Pearl Kitchen,50333,US,New York,40.768,-73.985,dr5r
128849018880,1,Savoria,5679,US,New Orleans,29.962,-90.066,9vrf
77309411388,61,Blue Water Bistro,78190,GB,London,51.495,-0.119,gcpu
68719476775,40,Crimson Cafe,77517,AT,Vienna,48.204,16.336,u2ed
120259084301,14,The Gourmet Garden,59829,US,Stockton,38.006,-121.351,9qc8
257698037822,63,Cafe Paris,26468,GB,London,51.492,-0.22,gcpu
94489280517,6,The Daily Grind,95399,US,Chattanooga,34.995,-85.226,dn5r
51539607570,19,The Tasting Room,6934,ES,Barcelona,41.379,2.143,sp3e
163208757319,72,Flamingo Cafe,96638,GB,London,51.522,-0.132,gcpv
188978561062,39,Cinnamon Grill,3642,IT,Milan,45.461,9.181,u0nd
188978561045,22,The Red Pepper,3642,US,Sedalia,38.713,-93.28,9yvs
17179869189,6,The Daily Grind,10902,US,Ruidoso,33.352,-105.674,9tuv
25769803842,67,Crimson and Clover,72230,GB,London,51.542,-0.17,gcpv
197568495653,38,Cafe Viva,24784,IT,Milan,45.479,9.195,u0nd
51539607593,42,The Daily Scoop,6934,FR,Paris,48.847,2.371,u09t
214748364836,37,Cafe Crepe,92040,IT,Milan,45.487,9.202,u0nd
180388626451,20,The Brasserie,7531,ES,Barcelona,41.389,2.167,sp3e
249108103207,40,Crimson Cafe,55897,US,Utica,42.629,-83.011,dpsf
103079215165,62,Cafe Luminoso,4340,GB,London,51.493,-0.178,gcpu
103079215124,21,The Lazy Daisy,4340,US,Navajo Dam,36.892,-107.603,9we3
42949673010,51,The Pizzeria,89646,FR,Paris,48.85,2.34,u09t
68719476787,52,The Red Door,77517,GB,London,51.509,-0.136,gcpv
180388626490,59,Azalea Cafe,7531,GB,London,51.505,-0.095,gcpv
77309411337,10,The Golden Spoon,78190,US,Calhoun,34.47,-84.914,dn5s
85899345972,53,The Red Rooster,18952,FR,Paris,48.872,2.322,u09w
128849018900,21,The Lazy Daisy,5679,ES,Barcelona,41.381,2.18,sp3e
34359738433,66,City Bites,50333,GB,London,51.512,-0.105,gcpv
42949672962,3,Spice Bazaar,89646,US,Ruidoso,33.313,-105.637,9tuv
223338299421,30,The Wine Cellar,36937,IT,Milan,45.459,9.069,u0n6
146028888143,80,The Market Cafe,70611,GB,London,51.512,-0.306,gcpv
25769803808,33,The Blue Elephant,72230,US,Clinton Township,42.623,-82.866,dpt4
128849018944,65,Chef's Corner,5679,GB,London,51.494,-0.183,gcpu
60129542208,65,Chef's Corner,71555,GB,London,51.529,-0.123,gcpv
42949673023,64,Chateau de Cuisine,89646,GB,London,51.514,-0.132,gcpv
257698037769,10,The Golden Spoon,26468,US,Hesperia,34.428,-117.384,9qhe
42949672997,38,Cafe Viva,89646,IT,Milan,45.469,9.187,u0nd
34359738406,39,Cinnamon Grill,50333,AT,Vienna,48.211,16.379,u2ed
249108103239,72,Flamingo Cafe,55897,GB,London,51.527,-0.283,gcpv
188978561031,8,The Green Olive,3642,US,Roanoke,32.979,-97.169,9vfg
214748364813,14,The Gourmet Garden,92040,US,Keyser,39.439,-78.971,dppb
154618822729,74,Garden of Eatin',41484,GB,London,51.512,-0.15,gcpv
17179869262,79,The Huckleberry Cafe,10902,GB,Fitzrovia,51.529,-0.137,gcpv
51539607563,12,The Wooden Spoon,6934,US,Troy,38.735,-89.914,dnbh
171798691858,19,The Tasting Room,65939,ES,Barcelona,41.4,2.13,sp3e
17179869224,41,The Daily Bread,10902,US,Clatskanie,46.102,-123.199,c20q
25769803845,70,Earth and Vine,72230,NL,Amsterdam,52.368,4.895,u173
266287972393,42,The Daily Scoop,11263,AT,Vienna,48.202,16.372,u2ed
206158430262,55,The Steak House,53370,AT,Vienna,48.214,16.38,u2ed
51539607600,49,The Olive Tree,6934,FR,Paris,48.873,2.344,u09w
171798691857,18,The Harvest Room,65939,ES,Barcelona,41.392,2.155,sp3e
17179869187,4,The Blue Plate,10902,US,El Paso,31.751,-106.343,9tsk
231928233990,7,Cafe Roma,33573,US,Crossville,35.964,-84.981,dn7s
171798691901,62,Cafe Luminoso,65939,GB,London,51.52,-0.126,gcpv
154618822717,62,Cafe Luminoso,41484,FR,Paris,48.887,2.359,u09w
266287972396,45,The Green Bean,11263,AT,Vienna,48.226,16.36,u2ed
68719476797,62,Cafe Luminoso,77517,GB,London,51.526,-0.083,gcpv
68719476760,25,The Cozy Cafe,77517,US,Laconia,43.526,-71.469,drtp
103079215134,31,Bistro 42,4340,US,Stone Creek,41.084,1.154,sp2c
128849018908,29,The Olive Branch,5679,US,Port Clinton,41.513,-82.934,dpmh
68719476740,5,The Hungry Hippo,77517,US,Tallulah,32.385,-91.199,9vz0
231928233984,1,Savoria,33573,US,Edinburg,26.334,-98.248,9udj
266287972421,70,Earth and Vine,11263,GB,London,51.498,-0.164,gcpu
8589934641,50,The Pancake House,12630,FR,Paris,48.881,2.295,u09w
214748364823,24,The Fisherman's Catch,92040,ES,Barcelona,41.398,2.189,sp3e
197568495675,60,Big City Grill,24784,FR,Paris,48.865,2.328,u09t
206158430221,14,The Gourmet Garden,53370,US,Richmond,37.566,-77.475,dq8v
42949673002,43,The Food House,89646,US,Port Angeles,48.105,-123.374,c283
25769803786,11,The Flaming Wok,72230,US,Alamosa,37.475,-105.895,9wst
188978561056,33,The Blue Elephant,3642,US,Elkhart,41.735,-85.977,dp6v
257698037778,19,The Tasting Room,26468,US,Cheyenne,41.119,-104.849,9xm3
128849018901,22,The Red Pepper,5679,ES,Barcelona,41.383,2.16,sp3e
249108103178,11,The Flaming Wok,55897,US,Tucumcari,35.172,-103.714,9wq0
42949672971,12,The Wooden Spoon,89646,US,Silverton,37.81,-107.664,9wer
85899345937,18,The Harvest Room,18952,US,Columbia,39.176,-76.847,dqcq
188978561038,15,The Pearl Kitchen,3642,US,Fayetteville,35.076,-78.961,dnpz
128849018913,34,The Tasty Treat,5679,US,Saranac Lake,44.305,-74.337,drgh
188978561096,73,Fresh Harvest,3642,GB,London,51.508,-0.142,gcpv
85899345941,22,The Red Pepper,18952,ES,Barcelona,41.38,2.141,sp3e
188978561075,52,The Red Door,3642,AT,Vienna,48.215,16.376,u2ed
68719476743,8,The Green Olive,77517,US,Atlanta,33.792,-84.398,dn5b
51539607569,18,The Harvest Room,6934,US,Palmerton,40.81,-75.651,dr60
206158430219,12,The Wooden Spoon,53370,US,Abbeville,36.623,-4.501,eysb
34359738403,36,Blue Ocean Grill,50333,AT,Vienna,48.206,16.355,u2ed
223338299447,56,The Waffle House,36937,GB,Paddington,51.519,-0.166,gcpv
85899345966,47,The Juicy Burger,18952,FR,Paris,48.846,2.279,u09t
146028888108,45,The Green Bean,70611,IT,Milan,45.483,9.203,u0nd
25769803790,15,The Pearl Kitchen,72230,US,Langhorne,40.189,-74.925,dr4s
60129542200,57,The Yellow Submarine,71555,GB,London,51.504,-0.086,gcpv
42949673028,69,Dragonfly Cafe,89646,GB,London,51.529,-0.168,gcpv
240518168609,34,The Tasty Treat,93164,ES,Barcelona,41.411,2.136,sp3e
103079215110,7,Cafe Roma,4340,US,Sierra Vista,31.555,-110.282,9t9e
77309411396,69,Dragonfly Cafe,78190,NL,Amsterdam,52.374,4.875,u173
17179869210,27,The Corner Cafe,10902,ES,Barcelona,41.401,2.179,sp3e
85899345978,59,Azalea Cafe,18952,GB,London,51.514,-0.091,gcpv
206158430223,16,The Spice Tree,53370,US,San Francisco,37.784,-122.411,9q8y
197568495629,14,The Gourmet Garden,24784,US,Perry,36.288,-97.33,9y6y
197568495617,2,Bella Cucina,24784,US,Fort Lauderdale,26.086,-80.372,dhwu
17179869212,29,The Olive Branch,10902,US,Kenosha,42.625,-87.829,dp9d
163208757279,32,The Orange Peeler,96638,ES,Barcelona,41.391,2.142,sp3e
25769803782,7,Cafe Roma,72230,US,Prescott Valley,34.586,-112.327,9w0h
197568495643,28,The Spicy Pickle,24784,ES,Barcelona,41.39,2.166,sp3e
103079215128,25,The Cozy Cafe,4340,US,Chantilly,38.898,-77.432,dqbv
231928234001,18,The Harvest Room,33573,ES,Barcelona,41.389,2.166,sp3e
137438953501,30,The Wine Cellar,11038,IT,Milan,45.484,9.199,u0nd
180388626457,26,The Silver Spoon,7531,US,Fond Du Lac,43.755,-88.476,dpc0
223338299427,36,Blue Ocean Grill,36937,AT,Vienna,48.208,16.355,u2ed
257698037765,6,The Daily Grind,26468,US,Coronado,32.687,-117.181,9mu9
120259084297,10,The Golden Spoon,59829,US,Long Beach,33.789,-118.189,9q5b
266287972373,22,The Red Pepper,11263,ES,Barcelona,41.386,2.126,sp3e
111669149727,32,The Orange Peeler,84488,US,Boone,42.035,-93.876,9zmp
146028888087,24,The Fisherman's Catch,70611,ES,Barcelona,41.379,2.179,sp3e
77309411366,39,Cinnamon Grill,78190,AT,Vienna,48.195,16.367,u2ed
68719476744,9,The Grill House,77517,US,Statesville,35.807,-80.881,dnq7
206158430251,44,The French Kitchen,53370,IT,Milan,45.483,9.204,u0nd
214748364849,50,The Pancake House,92040,FR,Paris,48.851,2.338,u09t
42949672990,31,Bistro 42,89646,US,Riverton,43.045,-108.381,9xdu
266287972423,72,Flamingo Cafe,11263,GB,London,51.502,-0.154,gcpu
103079215107,4,The Blue Plate,4340,US,Montgomery,30.404,-95.634,9v7u
60129542145,2,Bella Cucina,71555,US,Princeville,22.226,-159.481,87yw
214748364833,34,The Tasty Treat,92040,IT,Milan,45.459,9.18,u0nd
120259084294,7,Cafe Roma,59829,US,Meridian,32.35,-88.692,djbb
17179869223,40,Crimson Cafe,10902,IT,Milan,45.471,9.197,u0nd
188978561072,49,The Olive Tree,3642,AT,Vienna,48.207,16.377,u2ed
180388626454,23,The Hungry Pig,7531,US,Woodstock,42.303,-88.433,dp90
154618822710,55,The Steak House,41484,FR,Paris,48.855,2.292,u09t
17179869265,82,The Palate,10902,NL,Amsterdam,52.378,4.897,u173
34359738427,60,Big City Grill,50333,GB,London,51.492,-0.162,gcpu
214748364803,4,The Blue Plate,92040,US,Sandersville,33.007,-82.806,djv5
77309411360,33,The Blue Elephant,78190,IT,Milan,45.469,9.191,u0nd
214748364819,20,The Brasserie,92040,ES,Barcelona,41.389,2.136,sp3e
214748364847,48,The Local Cafe,92040,FR,Paris,48.849,2.37,u09t
34359738370,3,Spice Bazaar,50333,US,New Orleans,30.045,-89.96,dj24
240518168611,36,Blue Ocean Grill,93164,US,Manassas,41.679,8.915,spqm
42949673006,47,The Juicy Burger,89646,AT,Vienna,48.2,16.364,u2ed
85899345931,12,The Wooden Spoon,18952,US,Petersburg,37.23,-77.393,dq8g
85899345980,61,Blue Water Bistro,18952,GB,London,51.518,-0.144,gcpv
85899345952,33,The Blue Elephant,18952,US,Ontario,44.026,-116.944,9ruf
206158430209,2,Bella Cucina,53370,US,Mobile,20.683,-101.381,9exv
257698037796,37,Cafe Crepe,26468,IT,Milan,45.533,9.171,u0ne
25769803831,56,The Waffle House,72230,FR,Paris,48.873,2.305,u09w
85899345988,69,Dragonfly Cafe,18952,NL,Amsterdam,52.392,4.911,u176
111669149758,63,Cafe Paris,84488,NL,Amsterdam Zuidoost,52.31,4.942,u179
163208757268,21,The Lazy Daisy,96638,US,Columbus,40.115,-83.015,dphu
154618822662,7,Cafe Roma,41484,US,Tatum,33.382,-103.395,9tym
163208757290,43,The Food House,96638,IT,Milan,45.474,9.224,u0nd
266287972361,10,The Golden Spoon,11263,US,Marina,36.684,-121.792,9q92
171798691894,55,The Steak House,65939,GB,London,51.502,0.0,gcpu
197568495640,25,The Cozy Cafe,24784,US,Oskaloosa,41.324,-92.646,9zq5
163208757306,59,Azalea Cafe,96638,FR,Paris,48.871,2.294,u09w
42,43,The Food House,47732,AT,Vienna,48.163,16.34,u2e9
23,24,The Fisherman's Catch,47732,ES,Barcelona,41.396,2.163,sp3e
51539607572,21,The Lazy Daisy,6934,ES,Barcelona,41.387,2.174,sp3e
257698037775,16,The Spice Tree,26468,US,Morgantown,39.631,-79.956,dpp1
188978561036,13,The Firehouse,3642,US,Atlantic Beach,34.701,-76.747,dq1m
77309411367,40,Crimson Cafe,78190,AT,Vienna,48.213,16.357,u2ed
128849018902,23,The Hungry Pig,5679,ES,Barcelona,41.389,2.171,sp3e
223338299392,1,Savoria,36937,US,Washington,13.368,100.987,w4ru
103079215115,12,The Wooden Spoon,4340,US,Blythewood,34.214,-80.974,dnn6
77309411392,65,Chef's Corner,78190,GB,Paddington,51.514,-0.177,gcpv
25769803840,65,Chef's Corner,72230,GB,London,51.525,-0.077,gcpv
8589934620,29,The Olive Branch,12630,US,Baraboo,43.479,-89.769,dp8p
154618822685,30,The Wine Cellar,41484,US,Auburn,42.2,-71.841,drsb
249108103202,35,Basilica Bistro,55897,ES,Barcelona,41.396,2.182,sp3e
128849018940,61,Blue Water Bistro,5679,FR,Paris,48.879,2.285,u09w
214748364840,41,The Daily Bread,92040,AT,Vienna,48.195,16.383,u2ed
34359738417,50,The Pancake House,50333,US,Irving,48.869,2.283,u09w
257698037779,20,The Brasserie,26468,US,Laramie,41.325,-105.617,9xkg
120259084320,33,The Blue Elephant,59829,US,Portland,47.939,1.893,u092
111669149715,20,The Brasserie,84488,US,Willows,39.527,-122.212,9r10
111669149699,4,The Blue Plate,84488,US,El Paso,31.776,-106.433,9tsk
60129542195,52,The Red Door,71555,FR,Paris,48.872,2.326,u09w
137438953522,51,The Pizzeria,11038,GB,London,51.501,-0.023,gcpu
214748364856,57,The Yellow Submarine,92040,FR,Paris,48.865,2.347,u09t
146028888115,52,The Red Door,70611,AT,Vienna,48.187,16.302,u2ed
214748364857,58,A Tasty Bite,92040,FR,Paris,48.866,2.332,u09t
223338299406,15,The Pearl Kitchen,36937,US,Columbus,40.007,-82.865,dpj5
68719476798,63,Cafe Paris,77517,NL,Amsterdam,52.358,4.845,u173
34359738419,52,The Red Door,50333,FR,Paris,48.873,2.316,u09w
137438953477,6,The Daily Grind,11038,US,Oklahoma City,35.48,-97.526,9y69
137438953518,47,The Juicy Burger,11038,FR,Paris,48.875,2.343,u09w
266287972367,16,The Spice Tree,11263,US,Bordentown,40.119,-74.752,dr4u
180388626465,34,The Tasty Treat,7531,IT,Milan,45.491,9.239,u0nd
51539607598,47,The Juicy Burger,6934,FR,Paris,48.869,2.352,u09w
240518168585,10,The Golden Spoon,93164,US,Phoenix,33.625,-112.114,9tbr
146028888079,16,The Spice Tree,70611,US,Joplin,37.052,-94.478,9ysf
146028888120,57,The Yellow Submarine,70611,AT,Vienna,48.231,16.355,u2ed
68719476761,26,The Silver Spoon,77517,US,Eugene,44.05,-123.087,9rb6
77309411332,5,The Hungry Hippo,78190,US,Laurel,31.694,-89.133,dj8s
128849018935,56,The Waffle House,5679,FR,Paris,48.869,2.334,u09w
266287972399,48,The Local Cafe,11263,FR,Paris,48.845,2.324,u09t
103079215140,37,Cafe Crepe,4340,US,West Springfield,42.121,-72.626,drkr
223338299429,38,Cafe Viva,36937,FR,Paris,48.856,2.324,u09t
266287972426,75,Greenhouse Cafe,11263,GB,Paddington,51.512,-0.18,gcpv
154618822686,31,Bistro 42,41484,US,Detroit,42.335,-83.041,dpsb
137438953492,21,The Lazy Daisy,11038,US,Port Sanilac,43.429,-82.542,dptr
188978561087,64,Chateau de Cuisine,3642,FR,Paris,48.873,2.307,u09w
171798691893,54,The Spice House,65939,GB,London,51.5,-0.18,gcpu
240518168627,52,The Red Door,93164,AT,Vienna,48.198,16.336,u2ed
249108103204,37,Cafe Crepe,55897,US,Cambridge,42.373,-71.081,drt3
68719476786,51,The Pizzeria,77517,GB,London,51.493,-0.215,gcpu
85899345925,6,The Daily Grind,18952,US,West Monroe,32.51,-92.169,9vy2
180388626446,15,The Pearl Kitchen,7531,US,Stevens,40.246,-76.246,dr1u
197568495645,30,The Wine Cellar,24784,ES,Barcelona,41.396,2.155,sp3e
214748364837,38,Cafe Viva,92040,US,Portland,45.521,-122.683,c20f
171798691895,56,The Waffle House,65939,GB,London,51.507,-0.005,gcpv
154618822675,20,The Brasserie,41484,US,Mahanoy City,40.814,-76.134,dr3b
103079215168,65,Chef's Corner,4340,GB,London,51.506,-0.149,gcpv
188978561049,26,The Silver Spoon,3642,ES,Barcelona,41.378,2.114,sp3e
17179869192,9,The Grill House,10902,US,Joshua Tree,34.135,-116.326,9qj6
223338299402,11,The Flaming Wok,36937,US,Metropolis,37.161,-88.703,dn8g
240518168598,23,The Hungry Pig,93164,US,Elko,40.834,-115.761,9rm8
249108103194,27,The Corner Cafe,55897,ES,Barcelona,41.371,2.182,sp3e
8589934605,14,The Gourmet Garden,12630,US,Annapolis,38.976,-76.548,dqct
51539607568,17,The Rustic Table,6934,US,Longmont,40.158,-104.982,9xjk
249108103181,14,The Gourmet Garden,55897,US,Goodlettsville,36.323,-86.713,dn6q
34359738421,54,The Spice House,50333,FR,Paris,48.875,2.294,u09w
21,22,The Red Pepper,47732,ES,Barcelona,41.386,2.168,sp3e
223338299407,16,The Spice Tree,36937,US,Newark,40.057,-82.41,dpj7
25769803832,57,The Yellow Submarine,72230,FR,Paris,48.878,2.286,u09w
146028888134,71,Fire and Spice,70611,FR,Paris,48.88,2.328,u09w
240518168633,58,A Tasty Bite,93164,FR,Paris,48.852,2.384,u09t
8589934603,12,The Wooden Spoon,12630,US,Wittman,38.797,-76.305,dqcs
42949672993,34,The Tasty Treat,89646,US,Austin,43.666,-92.993,9zvb
206158430240,33,The Blue Elephant,53370,US,Crystal Lake,42.228,-88.297,dp90
85899345936,17,The Rustic Table,18952,US,Carson City,39.143,-119.768,9qfy
180388626500,69,Dragonfly Cafe,7531,NL,Amsterdam,52.362,4.878,u173
8589934614,23,The Hungry Pig,12630,ES,Barcelona,41.381,2.177,sp3e
42949672986,27,The Corner Cafe,89646,ES,Barcelona,41.408,2.218,sp3e
197568495641,26,The Silver Spoon,24784,US,Princeton,41.368,-89.457,dp27
17179869233,50,The Pancake House,10902,FR,Paris,48.832,2.387,u09t
85899345962,43,The Food House,18952,AT,Vienna,48.208,16.37,u2ed
206158430294,87,The Red Hen,53370,NL,Amsterdam,52.361,4.883,u173
240518168638,63,Cafe Paris,93164,FR,Paris,48.869,2.307,u09w
103079215147,44,The French Kitchen,4340,US,Lake Worth,45.055,-0.658,gbp8
60129542169,26,The Silver Spoon,71555,ES,Barcelona,41.376,2.167,sp3e
120259084326,39,Cinnamon Grill,59829,FR,Paris,48.85,2.347,u09t
42949673001,42,The Daily Scoop,89646,US,Neihart,46.934,-110.736,c837
146028888133,70,Earth and Vine,70611,FR,Paris,48.876,2.304,u09w
111669149710,15,The Pearl Kitchen,84488,US,Watsonville,36.917,-121.761,9q96
25769803804,29,The Olive Branch,72230,US,Plainville,41.672,-72.837,drkj
146028888104,41,The Daily Bread,70611,US,Aberdeen,45.459,-98.428,cb44
171798691876,37,Cafe Crepe,65939,AT,Vienna,48.194,16.362,u2ed
240518168615,40,Crimson Cafe,93164,US,Casper,42.811,-106.399,9xs7
68719476788,53,The Red Rooster,77517,GB,London,51.513,-0.183,gcpv
188978561099,76,Happy Hour Cafe,3642,GB,London,51.523,-0.104,gcpv
249108103172,5,The Hungry Hippo,55897,US,Abilene,32.404,-99.765,9vc0
249108103229,62,Cafe Luminoso,55897,FR,Paris,48.897,2.385,u09w
42949672996,37,Cafe Crepe,89646,IT,Milan,45.441,9.192,u0nd
34359738398,31,Bistro 42,50333,US,Manistique,45.952,-86.228,f04t
249108103198,31,Bistro 42,55897,ES,Barcelona,41.388,2.173,sp3e
188978561098,75,Greenhouse Cafe,3642,GB,London,51.523,-0.125,gcpv
257698037766,7,Cafe Roma,26468,US,Glendale,33.621,-112.186,9tbp
34359738400,33,The Blue Elephant,50333,AT,Vienna,48.198,16.369,u2ed
257698037781,22,The Red Pepper,26468,ES,Barcelona,41.389,2.156,sp3e
266287972364,13,The Firehouse,11263,US,Cripple Creek,38.747,-105.174,9wvh
163208757313,66,City Bites,96638,GB,London,51.502,-0.023,gcpu
154618822726,71,Fire and Spice,41484,GB,London,51.506,-0.072,gcpv
240518168604,29,The Olive Branch,93164,ES,Barcelona,41.387,2.16,sp3e
197568495690,75,Greenhouse Cafe,24784,GB,London,51.491,-0.193,gcpu
266287972428,77,Harvest Kitchen,11263,GB,London,51.524,-0.161,gcpv
68719476762,27,The Corner Cafe,77517,US,Twin Mountain,44.267,-71.561,drv5
25769803803,28,The Spicy Pickle,72230,ES,Barcelona,41.425,2.121,sp3e
223338299441,50,The Pancake House,36937,GB,London,51.502,-0.163,gcpu
257698037774,15,The Pearl Kitchen,26468,US,Caseyville,38.642,-90.02,9yzg
188978561088,65,Chef's Corner,3642,FR,Paris,48.873,2.345,u09w
266287972377,26,The Silver Spoon,11263,ES,Barcelona,41.395,2.163,sp3e
154618822664,9,The Grill House,41484,US,Payson,34.255,-111.274,9w0f
17179869185,2,Bella Cucina,10902,US,Carrizo Springs,28.546,-99.845,9v0f
17179869204,21,The Lazy Daisy,10902,US,Indianapolis,39.701,-86.084,dp4c
120259084331,44,The French Kitchen,59829,FR,Paris,48.87,2.3,u09w
51539607602,51,The Pizzeria,6934,FR,Paris,48.882,2.332,u09w
154618822663,8,The Green Olive,41484,US,Irvine,33.68,-117.837,9mup
42949672994,35,Basilica Bistro,89646,US,Springfield,44.086,-123.042,9rbd
68719476778,43,The Food House,77517,US,Carrollton,48.854,2.388,u09t
163208757301,54,The Spice House,96638,FR,Paris,48.857,2.381,u09t
60129542193,50,The Pancake House,71555,FR,Paris,48.867,2.288,u09t
77309411390,63,Cafe Paris,78190,GB,London,51.512,-0.071,gcpv
77309411328,1,Savoria,78190,US,Virginia Beach,22.875,-109.931,9s1f
188978561079,56,The Waffle House,3642,FR,Paris,48.842,2.302,u09t
197568495683,68,Delish Cafe,24784,FR,Paris,48.876,2.346,u09w
171798691852,13,The Firehouse,65939,US,Strasburg,39.987,-76.176,dr1g
103079215111,8,The Green Olive,4340,US,Tucson,32.125,-110.935,9t9n
266287972356,5,The Hungry Hippo,11263,US,Bossier City,32.523,-93.702,9vv3
188978561078,55,The Steak House,3642,FR,Paris,48.841,2.299,u09t
180388626452,21,The Lazy Daisy,7531,ES,Barcelona,41.393,2.146,sp3e
154618822704,49,The Olive Tree,41484,AT,Vienna,48.199,16.353,u2ed
206158430213,6,The Daily Grind,53370,US,Ferriday,31.616,-91.528,9vwg
85899345949,30,The Wine Cellar,18952,US,Battle Creek,42.312,-85.192,dpe2
180388626462,31,Bistro 42,7531,US,Lincoln City,44.985,-124.014,9pzz
266287972414,63,Cafe Paris,11263,FR,Paris,48.879,2.296,u09w
154618822693,38,Cafe Viva,41484,IT,Milan,45.474,9.207,u0nd
206158430292,85,The Plum Cafe,53370,NL,Amsterdam Zuidoost,52.31,4.947,u179
171798691873,34,The Tasty Treat,65939,IT,Milan,45.501,9.221,u0nd
60129542148,5,The Hungry Hippo,71555,US,Lake Forest,33.628,-117.716,9mur
17179869200,17,The Rustic Table,10902,US,Norcross,37.982,-1.124,eyz0
34359738410,43,The Food House,50333,FR,Paris,48.849,2.34,u09t
206158430227,20,The Brasserie,53370,US,Clifton,39.564,2.626,sp1c
17179869225,42,The Daily Scoop,10902,US,Vashon,47.383,-122.408,c22v
51539607603,52,The Red Door,6934,GB,London,51.505,-0.213,gcpv
146028888107,44,The French Kitchen,70611,IT,Milan,45.476,9.206,u0nd
137438953515,44,The French Kitchen,11038,FR,Paris,48.866,2.29,u09t
25769803802,27,The Corner Cafe,72230,ES,Barcelona,41.404,2.191,sp3e
163208757314,67,Crimson and Clover,96638,GB,London,51.508,0.023,u10j
137438953503,32,The Orange Peeler,11038,IT,Milan,45.507,9.197,u0nd
77309411364,37,Cafe Crepe,78190,IT,Milan,45.527,9.213,u0nd
85899345948,29,The Olive Branch,18952,US,Cedar Rapids,41.946,-91.672,9zqy
137438953502,31,Bistro 42,11038,IT,Milan,45.487,9.224,u0nd
128849018889,10,The Golden Spoon,5679,US,Williamsburg,37.288,-76.722,dq9k
94489280546,35,Basilica Bistro,95399,US,Worthington,43.636,-95.622,9zu0
163208757275,28,The Spicy Pickle,96638,ES,Barcelona,41.381,2.146,sp3e
42949673030,71,Fire and Spice,89646,NL,Amsterdam,52.358,4.899,u173
249108103173,6,The Daily Grind,55897,US,Glendale,33.539,-112.183,9tbn
14,15,The Pearl Kitchen,47732,US,Carlisle,40.187,-77.214,dr1h
8589934660,69,Dragonfly Cafe,12630,NL,Amsterdam,52.351,4.841,u173
231928234024,41,The Daily Bread,33573,US,Olga,48.603,-122.824,c28s
137438953488,17,The Rustic Table,11038,ES,Barcelona,41.394,2.174,sp3e
60129542210,67,Crimson and Clover,71555,GB,London,51.536,-0.105,gcpv
137438953487,16,The Spice Tree,11038,ES,Barcelona,41.388,2.16,sp3e
197568495621,6,The Daily Grind,24784,US,Colorado City,32.388,-100.855,9vb2
171798691867,28,The Spicy Pickle,65939,IT,Milan,45.467,9.183,u0nd
231928234030,47,The Juicy Burger,33573,FR,Paris,48.872,2.312,u09w
163208757254,7,Cafe Roma,96638,US,Sylacauga,33.218,-86.195,djfs
60129542187,44,The French Kitchen,71555,FR,Paris,48.85,2.334,u09t
154618822722,67,Crimson and Clover,41484,GB,London,51.502,-0.16,gcpu
163208757250,3,Spice Bazaar,96638,US,Houston,29.753,-95.361,9vk1
223338299418,27,The Corner Cafe,36937,US,Genoa City,42.528,-88.306,dp91
231928234027,44,The French Kitchen,33573,FR,Paris,48.855,2.307,u09t
34359738438,71,Fire and Spice,50333,GB,London,51.558,-0.284,gcpv
77309411339,12,The Wooden Spoon,78190,US,Huntersville,35.44,-80.873,dnq3
180388626453,22,The Red Pepper,7531,US,Elk Grove Village,42.008,-87.937,dp3q
77309411370,43,The Food House,78190,FR,Paris,48.849,2.274,u09t
8,9,The Grill House,47732,US,Burnsville,35.77,-82.198,dnme
77309411350,23,The Hungry Pig,78190,US,Silverthorne,39.841,-106.235,9xh6
240518168588,13,The Firehouse,93164,US,Amarillo,35.195,-101.742,9wr8
240518168594,19,The Tasting Room,93164,US,Lawrence,38.922,-95.261,9yum
128849018939,60,Big City Grill,5679,FR,Paris,48.874,2.344,u09w
240518168620,45,The Green Bean,93164,IT,Milan,45.444,9.138,u0n6
240518168628,53,The Red Rooster,93164,AT,Vienna,48.202,16.37,u2ed
103079215112,9,The Grill House,4340,US,Monroe,32.494,-92.083,9vy8
206158430263,56,The Waffle House,53370,AT,Vienna,48.219,16.388,u2ed
46,47,The Juicy Burger,47732,FR,Paris,48.84,2.266,u09t
154618822680,25,The Cozy Cafe,41484,ES,Barcelona,41.39,2.121,sp3e
266287972406,55,The Steak House,11263,FR,Paris,48.87,2.321,u09w
171798691845,6,The Daily Grind,65939,US,Sevierville,35.868,-83.551,dnks
17179869235,52,The Red Door,10902,FR,Paris,48.843,2.342,u09t
154618822688,33,The Blue Elephant,41484,US,Oswego,43.458,-76.509,dr9x
223338299434,43,The Food House,36937,FR,Paris,48.877,2.297,u09w
42949672969,10,The Golden Spoon,89646,US,Owasso,36.265,-95.847,9y7y
34359738393,26,The Silver Spoon,50333,US,Aberdeen,45.458,-98.441,cb1f
42949672985,26,The Silver Spoon,89646,ES,Barcelona,41.404,2.19,sp3e
120259084306,19,The Tasting Room,59829,ES,Barcelona,41.38,2.175,sp3e
34359738442,75,Greenhouse Cafe,50333,NL,Amsterdam,52.364,4.881,u173
249108103205,38,Cafe Viva,55897,US,Burdett,42.418,-76.867,dr93
60129542162,19,The Tasting Room,71555,US,Leesburg,39.094,-77.486,dqby
146028888135,72,Flamingo Cafe,70611,GB,London,51.492,-0.191,gcpu
111669149754,59,Azalea Cafe,84488,GB,London,51.516,-0.088,gcpv
223338299394,3,Spice Bazaar,36937,US,Pompano Beach,26.231,-80.159,dhwv
128849018949,70,Earth and Vine,5679,GB,London,51.51,-0.197,gcpv
171798691859,20,The Brasserie,65939,ES,Barcelona,41.406,2.201,sp3e
223338299414,23,The Hungry Pig,36937,ES,Barcelona,41.392,2.172,sp3e
68719476782,47,The Juicy Burger,77517,FR,Paris,48.873,2.31,u09w
85899345987,68,Delish Cafe,18952,NL,Amsterdam,52.374,4.904,u173
146028888074,11,The Flaming Wok,70611,US,Kiowa,34.686,-95.922,9y5v
17179869244,61,Blue Water Bistro,10902,FR,Paris,48.867,2.308,u09t
60129542154,11,The Flaming Wok,71555,US,Young Harris,34.959,-83.846,dnhq
8589934610,19,The Tasting Room,12630,US,Troy,40.024,-84.226,dph5
111669149718,23,The Hungry Pig,84488,US,Fort Madison,40.624,-91.37,9zpp
180388626449,18,The Harvest Room,7531,ES,Barcelona,41.384,2.11,sp3e
257698037782,23,The Hungry Pig,26468,ES,Barcelona,41.394,2.15,sp3e
34359738425,58,A Tasty Bite,50333,FR,Paris,48.892,2.302,u09w
206158430247,40,Crimson Cafe,53370,US,Lithia Springs,45.434,12.346,u20f
85899345944,25,The Cozy Cafe,18952,ES,Barcelona,41.396,2.179,sp3e
163208757320,73,Fresh Harvest,96638,GB,London,51.528,-0.089,gcpv
85899345976,57,The Yellow Submarine,18952,GB,London,51.495,-0.186,gcpu
137438953493,22,The Red Pepper,11038,US,South Portland,43.64,-70.337,drvb
257698037806,47,The Juicy Burger,26468,FR,Paris,48.842,2.33,u09t
51539607556,5,The Hungry Hippo,6934,US,Conway,33.84,-79.06,dnpb
111669149744,49,The Olive Tree,84488,FR,Paris,48.871,2.315,u09w
257698037816,57,The Yellow Submarine,26468,FR,Paris,48.871,2.325,u09w
37,38,Cafe Viva,47732,IT,Milan,45.477,9.205,u0nd
163208757298,51,The Pizzeria,96638,FR,Paris,48.837,2.372,u09t
57,58,A Tasty Bite,47732,GB,London,51.493,-0.184,gcpu
120259084341,54,The Spice House,59829,GB,London,51.502,-0.119,gcpu
94489280530,19,The Tasting Room,95399,US,Southport,40.454,32.622,sxpn
137438953525,54,The Spice House,11038,GB,London,51.514,-0.134,gcpv
223338299443,52,The Red Door,36937,GB,London,51.508,-0.131,gcpv
206158430287,80,The Market Cafe,53370,GB,London,51.507,-0.021,gcpv
188978561095,72,Flamingo Cafe,3642,GB,London,51.507,-0.142,gcpv
8589934644,53,The Red Rooster,12630,FR,Paris,48.891,2.338,u09w
180388626436,5,The Hungry Hippo,7531,US,Lincoln,33.58,-86.06,djfz
42949672972,13,The Firehouse,89646,US,El Cerrito,37.915,-122.311,9q9p
137438953509,38,Cafe Viva,11038,AT,Vienna,48.211,16.378,u2ed
17179869249,66,City Bites,10902,FR,Paris,48.878,2.293,u09w
137438953519,48,The Local Cafe,11038,FR,Paris,48.885,2.3,u09w
154618822695,40,Crimson Cafe,41484,IT,Milan,45.484,9.2,u0nd
111669149704,9,The Grill House,84488,US,Rancho Mirage,33.799,-116.406,9qj0
128849018954,75,Greenhouse Cafe,5679,NL,Amsterdam,52.359,4.989,u179
197568495649,34,The Tasty Treat,24784,US,Hartford,41.735,-72.66,drkm
25769803812,37,Cafe Crepe,72230,US,Deadwood,44.376,-103.73,9xyh
257698037798,39,Cinnamon Grill,26468,US,Tacoma,47.178,-122.463,c22u
25769803820,45,The Green Bean,72230,US,Cloquet,46.714,-92.465,cbq1
257698037790,31,Bistro 42,26468,IT,Milan,45.463,9.188,u0nd
77309411349,22,The Red Pepper,78190,US,Manhattan,39.18,-96.557,9ygq
154618822709,54,The Spice House,41484,FR,Paris,48.853,2.334,u09t
25769803810,35,Basilica Bistro,72230,US,Whitehall,43.409,-86.317,dpdw
34359738392,25,The Cozy Cafe,50333,IT,Milan,45.457,9.194,u0nd
171798691861,22,The Red Pepper,65939,US,Westmont,41.816,-87.955,dp3m
257698037763,4,The Blue Plate,26468,US,West Palm Beach,26.698,-80.073,dhxp
223338299395,4,The Blue Plate,36937,US,Dublin,32.487,-82.939,djv0
51539607581,30,The Wine Cellar,6934,US,Bend,44.052,-121.264,9rcf
94489280540,29,The Olive Branch,95399,ES,Barcelona,41.409,2.148,sp3e
188978561026,3,Spice Bazaar,3642,US,Houston,29.681,-95.403,9vk0
94489280542,31,Bistro 42,95399,US,Long Eddy,41.845,-75.114,dr6w
249108103234,67,Crimson and Clover,55897,GB,London,51.513,-0.152,gcpv
214748364871,72,Flamingo Cafe,92040,GB,London,51.511,-0.135,gcpv
60129542160,17,The Rustic Table,71555,US,London,37.145,-84.108,dns5
111669149712,17,The Rustic Table,84488,US,Vandalia,38.97,-89.129,dnbt
8589934604,13,The Firehouse,12630,US,Colorado Springs,38.88,-104.868,9wvm
17179869216,33,The Blue Elephant,10902,US,Hill City,43.959,-103.737,9xy4
223338299397,6,The Daily Grind,36937,US,Albuquerque,35.121,-106.653,9whp
171798691853,14,The Gourmet Garden,65939,US,Huntingdon,40.484,-78.011,dr0w
94489280539,28,The Spicy Pickle,95399,ES,Barcelona,41.395,2.147,sp3e
249108103200,33,The Blue Elephant,55897,ES,Barcelona,41.392,2.159,sp3e
266287972371,20,The Brasserie,11263,US,Eureka,40.768,-124.192,9ppx
85899345950,31,Bistro 42,18952,US,Pinedale,42.867,-109.874,9x9g
137438953481,10,The Golden Spoon,11038,US,Larkspur,37.944,-122.506,9q8z
214748364808,9,The Grill House,92040,US,Cleveland,35.21,-84.87,dn78
137438953496,25,The Cozy Cafe,11038,IT,Milan,45.448,9.257,u0nd
8589934656,65,Chef's Corner,12630,GB,London,51.519,-0.142,gcpv
120259084340,53,The Red Rooster,59829,GB,London,51.502,-0.187,gcpu
249108103224,57,The Yellow Submarine,55897,FR,Paris,48.855,2.331,u09t
154618822684,29,The Olive Branch,41484,US,Merrillville,41.469,-87.33,dp3g
68719476759,24,The Fisherman's Catch,77517,US,South Deerfield,42.424,-72.622,drs3
128849018887,8,The Green Olive,5679,US,Chinle,36.151,-109.547,9w6j
206158430242,35,Basilica Bistro,53370,US,Boise,43.608,-116.192,9rv2
257698037830,71,Fire and Spice,26468,GB,London,51.518,-0.158,gcpv
223338299442,51,The Pizzeria,36937,GB,London,51.508,-0.147,gcpv
8589934655,64,Chateau de Cuisine,12630,GB,London,51.517,-0.081,gcpv
266287972375,24,The Fisherman's Catch,11263,ES,Barcelona,41.389,2.157,sp3e
240518168635,60,Big City Grill,93164,FR,Paris,48.868,2.327,u09w
231928234021,38,Cafe Viva,33573,AT,Vienna,48.205,16.351,u2ed
146028888129,66,City Bites,70611,FR,Paris,48.871,2.301,u09w
51539607586,35,Basilica Bistro,6934,US,Portland,45.541,-122.48,c20g
154618822681,26,The Silver Spoon,41484,ES,Barcelona,41.403,2.123,sp3e
128849018917,38,Cafe Viva,5679,IT,Milan,45.457,9.168,u0nd
94489280526,15,The Pearl Kitchen,95399,US,Bowie,38.943,-76.734,dqcm
51539607594,43,The Food House,6934,FR,Paris,48.855,2.335,u09t
25769803825,50,The Pancake House,72230,AT,Vienna,48.212,16.368,u2ed
206158430268,61,Blue Water Bistro,53370,FR,Paris,48.857,2.285,u09t
197568495672,57,The Yellow Submarine,24784,FR,Paris,48.859,2.367,u09t
27,28,The Spicy Pickle,47732,US,Pierce,42.199,-97.526,9zd8
77309411382,55,The Steak House,78190,FR,Paris,48.885,2.334,u09w
120259084305,18,The Harvest Room,59829,US,Redding,40.602,-122.385,9r0y
120259084311,24,The Fisherman's Catch,59829,ES,Barcelona,41.423,2.146,sp3e
163208757258,11,The Flaming Wok,96638,US,Jellico,36.581,-84.113,dns0
128849018898,19,The Tasting Room,5679,ES,Barcelona,41.375,2.168,sp3e
206158430253,46,The Italian Table,53370,US,Hayward,46.085,-91.217,cbpn
8589934612,21,The Lazy Daisy,12630,US,Allentown,40.576,-75.531,dr4q
137438953495,24,The Fisherman's Catch,11038,US,Colchester,44.514,-73.183,drgv
223338299424,33,The Blue Elephant,36937,IT,Milan,45.479,9.196,u0nd
103079215177,74,Garden of Eatin',4340,GB,London,51.561,-0.279,gcpv
231928233992,9,The Grill House,33573,US,Blackwell,36.812,-97.298,9ydc
120259084308,21,The Lazy Daisy,59829,ES,Barcelona,41.386,2.171,sp3e
4,5,The Hungry Hippo,47732,US,Fort Worth,32.735,-97.435,9vfd
111669149724,29,The Olive Branch,84488,ES,Barcelona,41.392,2.158,sp3e
188978561050,27,The Corner Cafe,3642,ES,Barcelona,41.378,2.179,sp3e
223338299423,32,The Orange Peeler,36937,IT,Milan,45.469,9.198,u0nd
51539607564,13,The Firehouse,6934,US,Olathe,38.848,-94.824,9yut
128849018943,64,Chateau de Cuisine,5679,GB,London,51.493,-0.16,gcpu
214748364822,23,The Hungry Pig,92040,ES,Barcelona,41.394,2.199,sp3e
266287972366,15,The Pearl Kitchen,11263,US,Springfield,39.895,-83.815,dph6
231928233995,12,The Wooden Spoon,33573,US,Saint Louis,38.633,-90.184,9yzg
128849018893,14,The Gourmet Garden,5679,US,Columbia,38.962,-92.244,9yym
180388626450,19,The Tasting Room,7531,ES,Barcelona,41.384,2.185,sp3e
188978561089,66,City Bites,3642,FR,Paris,48.875,2.291,u09w
128849018955,76,Happy Hour Cafe,5679,NL,Amsterdam,52.365,4.873,u173
206158430252,45,The Green Bean,53370,US,Hillsboro,45.533,-122.921,c20e
146028888089,26,The Silver Spoon,70611,ES,Barcelona,41.386,2.166,sp3e
8589934642,51,The Pizzeria,12630,FR,Paris,48.884,2.334,u09w
146028888083,20,The Brasserie,70611,US,Effingham,39.141,-88.566,dncn
42949673029,70,Earth and Vine,89646,GB,London,51.529,-0.128,gcpv
146028888136,73,Fresh Harvest,70611,GB,London,51.494,-0.185,gcpu
42949673003,44,The French Kitchen,89646,AT,Vienna,48.183,16.376,u2ed
266287972369,18,The Harvest Room,11263,US,Entriken,40.34,-78.201,dr0m
249108103203,36,Blue Ocean Grill,55897,US,Chicago,41.886,-87.626,dp3w
266287972403,52,The Red Door,11263,FR,Paris,48.856,2.335,u09t
223338299439,48,The Local Cafe,36937,GB,London,51.499,-0.106,gcpu
85899345924,5,The Hungry Hippo,18952,US,Deming,32.266,-107.791,9ter
103079215145,42,The Daily Scoop,4340,US,Gillette,44.294,-105.53,9xug
8589934606,15,The Pearl Kitchen,12630,US,Ely,39.251,-114.882,9qyr
8589934608,17,The Rustic Table,12630,US,Parkville,39.398,-76.563,dr18
17179869227,44,The French Kitchen,10902,AT,Vienna,48.194,16.297,u2ed
103079215136,33,The Blue Elephant,4340,ES,Barcelona,41.392,2.166,sp3e
8589934597,6,The Daily Grind,12630,US,Manchester,35.461,-86.062,dn6c
64,65,Chef's Corner,47732,GB,London,51.515,-0.057,gcpv
206158430238,31,Bistro 42,53370,US,Deerfield,42.153,-87.89,dp3x
111669149730,35,Basilica Bistro,84488,IT,Milan,45.501,9.145,u0nd
120259084324,37,Cafe Crepe,59829,FR,Paris 13,48.836,2.36,u09t
68719476736,1,Savoria,77517,US,Fort Lauderdale,26.106,-80.137,dhxh
128849018946,67,Crimson and Clover,5679,GB,London,51.499,-0.113,gcpu
266287972390,39,Cinnamon Grill,11263,IT,Milan,45.47,9.19,u0nd
214748364843,44,The French Kitchen,92040,FR,Paris,48.824,2.324,u09t
17179869254,71,Fire and Spice,10902,GB,London,51.501,-0.017,gcpu
240518168618,43,The Food House,93164,US,North Conway,44.049,-71.125,drv6
8589934598,7,Cafe Roma,12630,US,Lincolnton,35.471,-81.24,dnq1
60129542202,59,Azalea Cafe,71555,GB,London,51.511,-0.077,gcpv
111669149751,56,The Waffle House,84488,GB,London,51.496,-0.17,gcpu
77309411361,34,The Tasty Treat,78190,IT,Milan,45.473,9.144,u0nd
137438953523,52,The Red Door,11038,GB,London,51.51,-0.132,gcpv
214748364863,64,Chateau de Cuisine,92040,FR,Paris,48.881,2.327,u09w
206158430214,7,Cafe Roma,53370,US,Prattville,32.486,-86.409,djf8
154618822731,76,Happy Hour Cafe,41484,GB,Paddington,51.516,-0.172,gcpv
77309411334,7,Cafe Roma,78190,US,Lubbock,33.536,-101.846,9tzw
257698037812,53,The Red Rooster,26468,FR,Paris,48.865,2.282,u09t
77309411373,46,The Italian Table,78190,FR,Paris,48.857,2.328,u09t
77309411358,31,Bistro 42,78190,US,Wilmington,44.364,-73.824,drgs
85899345928,9,The Grill House,18952,US,Eloy,32.806,-111.671,9tbd
154618822728,73,Fresh Harvest,41484,GB,London,51.511,-0.119,gcpv
111669149756,61,Blue Water Bistro,84488,GB,London,51.52,-0.124,gcpv
103079215172,69,Dragonfly Cafe,4340,GB,London,51.51,-0.127,gcpv
34359738420,53,The Red Rooster,50333,FR,Paris,48.874,2.343,u09w
197568495638,23,The Hungry Pig,24784,US,Pittsburgh,40.446,-79.714,dppq
85899345961,42,The Daily Scoop,18952,AT,Vienna,48.183,16.378,u2ed
146028888103,40,Crimson Cafe,70611,US,New York,45.058,7.559,u0j2
22,23,The Hungry Pig,47732,ES,Barcelona,41.389,2.132,sp3e
34359738387,20,The Brasserie,50333,US,East Syracuse,43.091,-76.079,dr9v
111669149740,45,The Green Bean,84488,FR,Paris,48.857,2.33,u09t
266287972412,61,Blue Water Bistro,11263,FR,Paris,48.876,2.286,u09w
85899345973,54,The Spice House,18952,FR,Paris,48.881,2.324,u09w
154618822691,36,Blue Ocean Grill,41484,US,North Conway,44.074,-71.141,drv6
34,35,Basilica Bistro,47732,IT,Milan,45.447,9.207,u0nd
249108103219,52,The Red Door,55897,AT,Donauinsel,48.227,16.4,u2ed
60129542159,16,The Spice Tree,71555,US,Batesville,35.791,-91.638,9yqg
8589934640,49,The Olive Tree,12630,FR,Paris,48.88,2.321,u09w
249108103197,30,The Wine Cellar,55897,ES,Barcelona,41.387,2.168,sp3e
26,27,The Corner Cafe,47732,US,Providence,41.844,-71.428,drmn
180388626439,8,The Green Olive,7531,US,Piney Creek,36.555,-81.332,dnqp
77309411352,25,The Cozy Cafe,78190,ES,Barcelona,41.375,2.161,sp3e
