id,franchise_id,franchise_name,restaurant_franchise_id,country,city,lat,lng,geohash
85899345940,21,The Lazy Daisy,18952,US,Bowling Green,41.375,-83.619,dpke
223338299420,29,The Olive Branch,36937,US,Washington,45.427,9.072,u0n6
171798691889,50,The Pancake House,65939,FR,Paris,48.882,2.336,u09w
103079215121,18,The Harvest Room,4340,US,Mount Airy,36.481,-80.602,dnqx
154618822678,23,The Hungry Pig,41484,ES,Barcelona,41.383,2.17,sp3e
8589934624,33,The Blue Elephant,12630,US,Burnsville,44.769,-93.291,9zvw
206158430283,76,Happy Hour Cafe,53370,GB,London,51.499,-0.192,gcpu
111669149738,43,The Food House,84488,FR,Paris,48.849,2.296,u09t
231928234004,21,The Lazy Daisy,33573,ES,Barcelona,41.405,2.212,sp3e
34359738379,12,The Wooden Spoon,50333,US,Crystal Bay,39.225,-120.006,9qfx
171798691904,65,Chef's Corner,65939,GB,London,51.54,-0.146,gcpv
214748364867,68,Delish Cafe,92040,GB,London,51.496,-0.169,gcpu
223338299411,20,The Brasserie,36937,ES,Barcelona,41.386,2.129,sp3e
60129542164,21,The Lazy Daisy,71555,US,Towson,39.407,-76.601,dr18
257698037767,8,The Green Olive,26468,US,Douglasville,33.751,-84.716,dn5b
94489280561,50,The Pancake House,95399,FR,Paris,48.881,2.299,u09w
163208757322,75,Greenhouse Cafe,96638,NL,Amsterdam,52.369,4.887,u173
214748364851,52,The Red Door,92040,FR,Paris,48.854,2.336,u09t
163208757270,23,The Hungry Pig,96638,US,Bellefonte,40.883,-77.78,dr28
17179869194,11,The Flaming Wok,10902,US,Hot Springs National Park,34.498,-93.057,9yju
197568495662,47,The Juicy Burger,24784,AT,Vienna,48.202,16.371,u2ed
154618822656,1,Savoria,41484,US,Key West,24.547,-81.794,dhmg
137438953514,43,The Food House,11038,FR,Paris,48.855,2.369,u09t
85899345939,20,The Brasserie,18952,US,Wapello,41.175,-91.19,9zr4
103079215144,41,The Daily Bread,4340,US,Random Lake,43.559,-87.94,dp9r
51539607589,38,Cafe Viva,6934,AT,Vienna,48.191,16.408,u2ed
120259084312,25,The Cozy Cafe,59829,US,Douglas,42.678,-105.333,9xt4
85899345947,28,The Spicy Pickle,18952,US,Coralville,41.701,-91.607,9zqv
240518168617,42,The Daily Scoop,93164,US,Worthington,43.629,-95.581,9zu0
128849018925,46,The Italian Table,5679,FR,Paris,48.83,2.353,u09t
128849018924,45,The Green Bean,5679,AT,Vienna,48.198,16.367,u2ed
197568495618,3,Spice Bazaar,24784,US,Englewood,26.935,-82.319,dhv3
8589934646,55,The Steak House,12630,GB,London,51.424,-0.229,gcpu
25769803834,59,Azalea Cafe,72230,FR,Paris,48.88,2.334,u09w
257698037787,28,The Spicy Pickle,26468,US,Interior,43.738,-101.965,9xz2
257698037770,11,The Flaming Wok,26468,US,Memphis,35.036,-89.799,dn0p
163208757278,31,Bistro 42,96638,ES,Barcelona,41.39,2.126,sp3e
240518168608,33,The Blue Elephant,93164,ES,Barcelona,41.405,2.173,sp3e
214748364832,33,The Blue Elephant,92040,IT,Milan,45.451,9.195,u0nd
34359738404,37,Cafe Crepe,50333,AT,Vienna,48.21,16.37,u2ed
120259084298,11,The Flaming Wok,59829,US,Palm Springs,33.841,-116.545,9qj0
25769803809,34,The Tasty Treat,72230,US,Grand Rapids,42.909,-85.574,dpeh
8589934621,30,The Wine Cellar,12630,US,Humeston,43.772,11.251,srb1
266287972363,12,The Wooden Spoon,11263,US,Brandywine,38.669,-76.876,dqc7
60129542191,48,The Local Cafe,71555,FR,Paris,48.864,2.332,u09t
214748364859,60,Big City Grill,92040,FR,Paris,48.869,2.325,u09w
17179869239,56,The Waffle House,10902,FR,Paris,48.854,2.381,u09t
25769803826,51,The Pizzeria,72230,FR,Paris,48.856,2.362,u09t
94489280541,30,The Wine Cellar,95399,US,Narragansett,41.428,-71.456,drm5
8589934602,11,The Flaming Wok,12630,US,Dodge City,37.754,-100.041,9y8y
44,45,The Green Bean,47732,AT,Vienna,48.198,16.348,u2ed
34359738390,23,The Hungry Pig,50333,US,Saint Paul,44.971,-93.155,9zvz
231928234022,39,Cinnamon Grill,33573,US,Whitefish,48.391,-114.336,c2we
154618822673,18,The Harvest Room,41484,US,Licking,37.461,-91.988,9ywt
128849018952,73,Fresh Harvest,5679,GB,London,51.513,-0.18,gcpv
34359738426,59,Azalea Cafe,50333,GB,London,51.47,-0.178,gcpu
17179869196,13,The Firehouse,10902,US,Cary,35.733,-78.79,dnrg
223338299404,13,The Firehouse,36937,US,Lake Ozark,38.206,-92.665,9yy1
249108103212,45,The Green Bean,55897,IT,Milan,45.477,9.197,u0nd
60129542194,51,The Pizzeria,71555,FR,Paris,48.871,2.309,u09w
206158430278,71,Fire and Spice,53370,GB,London,51.492,-0.195,gcpu
51539607592,41,The Daily Bread,6934,AT,Vienna,48.251,16.305,u2ed
111669149737,42,The Daily Scoop,84488,FR,Paris,48.84,2.324,u09t
111669149705,10,The Golden Spoon,84488,US,Irmo,34.091,-81.161,dnn3
34359738369,2,Bella Cucina,50333,US,Pleasanton,28.967,-98.479,9v1u
42949673015,56,The Waffle House,89646,FR,Paris,48.873,2.319,u09w
85899345970,51,The Pizzeria,18952,FR,Paris,48.87,2.335,u09w
94489280534,23,The Hungry Pig,95399,ES,Barcelona,41.381,2.127,sp3e
68719476791,56,The Waffle House,77517,GB,Paddington,51.514,-0.18,gcpv
214748364852,53,The Red Rooster,92040,FR,Paris,48.859,2.308,u09t
249108103220,53,The Red Rooster,55897,FR,Paris,48.833,2.357,u09t
206158430259,52,The Red Door,53370,AT,Vienna,48.2,16.377,u2ed
34359738423,56,The Waffle House,50333,FR,Paris,48.879,2.356,u09w
206158430216,9,The Grill House,53370,US,Canton,34.255,-84.464,dn5f
249108103235,68,Delish Cafe,55897,GB,London,51.514,-0.085,gcpv
188978561100,77,Harvest Kitchen,3642,GB,London,51.527,-0.136,gcpv
30,31,Bistro 42,47732,US,Herkimer,43.019,-74.993,drds
171798691902,63,Cafe Paris,65939,GB,London,51.521,-0.157,gcpv
214748364812,13,The Firehouse,92040,US,Ridgefield Park,39.378,3.237,sp42
103079215142,39,Cinnamon Grill,4340,US,Albany,42.718,-73.834,dre7
48,49,The Olive Tree,47732,FR,Paris,48.858,2.357,u09t
47,48,The Local Cafe,47732,FR,Paris,48.85,2.339,u09t
94489280536,25,The Cozy Cafe,95399,ES,Barcelona,41.391,2.167,sp3e
180388626483,52,The Red Door,7531,FR,Paris,48.874,2.336,u09w
60129542179,36,Blue Ocean Grill,71555,IT,Milan,45.481,9.204,u0nd
257698037800,41,The Daily Bread,26468,AT,Vienna,48.215,16.337,u2ed
146028888126,63,Cafe Paris,70611,FR,Paris,48.857,2.317,u09t
85899345935,16,The Spice Tree,18952,US,Springfield,38.776,-77.179,dqch
85899345946,27,The Corner Cafe,18952,US,West Yarmouth,41.655,-70.256,drqh
188978561070,47,The Juicy Burger,3642,AT,Vienna,48.203,16.356,u2ed
206158430226,19,The Tasting Room,53370,US,Ocean City,39.276,-74.576,dqfz
188978561071,48,The Local Cafe,3642,AT,Vienna,48.206,16.377,u2ed
231928233998,15,The Pearl Kitchen,33573,US,Coalville,40.911,-111.403,9x2b
214748364804,5,The Hungry Hippo,92040,US,Summerton,33.592,-80.357,djyz
85899345981,62,Cafe Luminoso,18952,GB,London,51.519,-0.183,gcpv
34359738441,74,Garden of Eatin',50333,NL,Amsterdam,52.356,4.886,u173
214748364824,25,The Cozy Cafe,92040,US,Schenectady,42.764,-73.939,dre7
240518168636,61,Blue Water Bistro,93164,FR,Paris,48.868,2.329,u09w
25769803814,39,Cinnamon Grill,72230,US,Rangeley,44.966,-70.643,drvz
214748364862,63,Cafe Paris,92040,FR,Paris,48.88,2.286,u09w
25769803844,69,Dragonfly Cafe,72230,NL,Amsterdam,52.365,4.885,u173
77309411387,60,Big City Grill,78190,GB,London,51.495,-0.177,gcpu
188978561067,44,The French Kitchen,3642,US,Troutdale,45.537,-122.421,c20g
206158430284,77,Harvest Kitchen,53370,GB,London,51.5,-0.162,gcpu
154618822725,70,Earth and Vine,41484,GB,London,51.506,-0.151,gcpv
85899345982,63,Cafe Paris,18952,GB,London,51.519,-0.154,gcpv
266287972388,37,Cafe Crepe,11263,IT,Milan,45.464,9.196,u0nd
8589934625,34,The Tasty Treat,12630,US,Big Sky,45.286,-111.393,c80c
188978561065,42,The Daily Scoop,3642,IT,Milan,45.48,9.213,u0nd
85899345979,60,Big City Grill,18952,GB,London,51.515,-0.127,gcpv
171798691854,15,The Pearl Kitchen,65939,US,Redding,40.599,-122.384,9r0y
249108103183,16,The Spice Tree,55897,US,Durango,37.296,-107.873,9wek
266287972405,54,The Spice House,11263,FR,Paris,48.869,2.298,u09w
197568495664,49,The Olive Tree,24784,AT,Vienna,48.202,16.376,u2ed
154618822658,3,Spice Bazaar,41484,US,Alliance,27.722,85.356,tuut
240518168621,46,The Italian Table,93164,IT,Milan,45.453,9.179,u0nd
77309411393,66,City Bites,78190,GB,London,51.517,-0.122,gcpv
17179869209,26,The Silver Spoon,10902,ES,Barcelona,41.396,2.201,sp3e
103079215139,36,Blue Ocean Grill,4340,US,Burwell,41.782,-99.126,9z3t
163208757274,27,The Corner Cafe,96638,ES,Barcelona,41.373,2.172,sp3e
240518168606,31,Bistro 42,93164,ES,Barcelona,41.39,2.18,sp3e
240518168619,44,The French Kitchen,93164,US,Rangeley,44.965,-70.643,drvz
171798691888,49,The Olive Tree,65939,FR,Paris,48.869,2.361,u09w
223338299436,45,The Green Bean,36937,GB,London,51.482,-0.148,gcpu
240518168632,57,The Yellow Submarine,93164,FR,Paris,48.851,2.275,u09t
266287972387,36,Blue Ocean Grill,11263,US,Enterprise,45.423,-117.298,c2hd
180388626444,13,The Firehouse,7531,US,Corydon,38.233,-86.133,dnf9
68719476795,60,Big City Grill,77517,GB,London,51.516,-0.16,gcpv
180388626433,2,Bella Cucina,7531,US,Van Horn,29.672,-95.038,9vk2
68719476756,21,The Lazy Daisy,77517,ES,Barcelona,41.41,2.17,sp3e
171798691891,52,The Red Door,65939,FR,Paris,48.884,2.319,u09w
240518168623,48,The Local Cafe,93164,IT,Milan,45.479,9.199,u0nd
223338299413,22,The Red Pepper,36937,ES,Barcelona,41.389,2.165,sp3e
154618822730,75,Greenhouse Cafe,41484,GB,London,51.513,-0.076,gcpv
188978561027,4,The Blue Plate,3642,US,Sulphur,30.214,-93.327,9vme
180388626496,65,Chef's Corner,7531,GB,London,51.518,-0.128,gcpv
77309411345,18,The Harvest Room,78190,US,Berea,37.617,-84.346,dnsj
197568495701,86,The Porch Cafe,24784,GB,London,51.522,-0.108,gcpv
257698037772,13,The Firehouse,26468,US,Corte Madera,37.93,-122.518,9q8z
120259084304,17,The Rustic Table,59829,US,Strasburg,39.972,-76.151,dr1g
51539607559,8,The Green Olive,6934,US,Albuquerque,35.1,-106.668,9whp
266287972368,17,The Rustic Table,11263,US,Finleyville,40.252,-80.004,dpph
197568495628,13,The Firehouse,24784,US,Springdale,36.17,-94.184,9ymj
68719476783,48,The Local Cafe,77517,FR,Paris,48.875,2.317,u09w
128849018906,27,The Corner Cafe,5679,ES,Barcelona,41.402,2.148,sp3e
137438953489,18,The Harvest Room,11038,ES,Barcelona,41.403,2.137,sp3e
266287972413,62,Cafe Luminoso,11263,FR,Paris,48.877,2.343,u09w
163208757292,45,The Green Bean,96638,US,Grand Rapids,47.235,-93.518,cbmk
154618822665,10,The Golden Spoon,41484,US,Santa Barbara,34.429,-119.708,9q4g
171798691868,29,The Olive Branch,65939,IT,Milan,45.468,9.207,u0nd
206158430249,42,The Daily Scoop,53370,IT,Milan,45.464,9.195,u0nd
34359738407,40,Crimson Cafe,50333,AT,Vienna,48.214,16.371,u2ed
25769803779,4,The Blue Plate,72230,US,Griffin,33.287,-84.292,djuj
120259084309,22,The Red Pepper,59829,ES,Barcelona,41.391,2.171,sp3e
197568495652,37,Cafe Crepe,24784,IT,Milan,45.477,9.184,u0nd
223338299408,17,The Rustic Table,36937,US,Columbus,40.114,-83.012,dphu
240518168649,74,Garden of Eatin',93164,NL,Amsterdam,52.363,4.878,u173
214748364801,2,Bella Cucina,92040,US,Opelousas,30.515,-92.071,9vqt
111669149721,26,The Silver Spoon,84488,ES,Barcelona,41.385,2.138,sp3e
111669149709,14,The Gourmet Garden,84488,US,Monterey,36.601,-121.896,9q92
137438953484,13,The Firehouse,11038,US,Fort Collins,40.583,-105.008,9xjq
231928233993,10,The Golden Spoon,33573,US,St. Robert,37.823,-92.141,9ywr
240518168607,32,The Orange Peeler,93164,ES,Barcelona,41.394,2.168,sp3e
17179869257,74,Garden of Eatin',10902,GB,London,51.51,-0.155,gcpv
103079215166,63,Cafe Paris,4340,GB,London,51.499,-0.143,gcpu
188978561083,60,Big City Grill,3642,FR,Paris,48.862,2.362,u09t
137438953508,37,Cafe Crepe,11038,AT,Vienna,48.208,16.353,u2ed
60129542213,70,Earth and Vine,71555,NL,Amsterdam,52.359,4.926,u179
111669149725,30,The Wine Cellar,84488,ES,Barcelona,41.407,2.144,sp3e
180388626477,46,The Italian Table,7531,FR,Paris,48.86,2.318,u09t
240518168614,39,Cinnamon Grill,93164,US,American Falls,42.776,-112.859,9rxe
171798691875,36,Blue Ocean Grill,65939,AT,Vienna,48.192,16.399,u2ed
111669149753,58,A Tasty Bite,84488,GB,London,51.509,-0.142,gcpv
180388626463,32,The Orange Peeler,7531,IT,Milan,45.447,9.209,u0nd
188978561076,53,The Red Rooster,3642,AT,Vienna,48.224,16.314,u2ed
214748364839,40,Crimson Cafe,92040,AT,Vienna,48.185,16.405,u2ed
94489280527,16,The Spice Tree,95399,US,Reston,38.959,-77.356,dqbv
154618822659,4,The Blue Plate,41484,US,Floresville,29.143,-98.155,9v4j
40,41,The Daily Bread,47732,US,Saint Cloud,45.561,-94.156,cbj5
137438953482,11,The Flaming Wok,11038,US,Lanham,38.961,-76.862,dqcm
180388626467,36,Blue Ocean Grill,7531,IT,Milan,45.502,9.228,u0nd
266287972397,46,The Italian Table,11263,US,Columbia Falls,48.364,-114.152,c2wg
223338299410,19,The Tasting Room,36937,US,North Platte,41.135,-100.757,9z26
68719476764,29,The Olive Branch,77517,IT,Milan,45.438,9.231,u0nd
240518168589,14,The Gourmet Garden,93164,US,Bryson City,35.34,-83.56,dnk9
266287972400,49,The Olive Tree,11263,FR,Paris,48.85,2.324,u09t
128849018888,9,The Grill House,5679,US,Hopkinsville,36.811,-87.495,dn9c
137438953521,50,The Pancake House,11038,GB,London,51.495,-0.189,gcpu
120259084319,32,The Orange Peeler,59829,US,Ironwood,46.463,-90.162,cbrb
223338299393,2,Bella Cucina,36937,US,Kailua Kona,19.63,-155.989,8e3p
120259084348,61,Blue Water Bistro,59829,GB,London,51.521,-0.131,gcpv
94489280537,26,The Silver Spoon,95399,ES,Barcelona,41.393,2.165,sp3e
128849018885,6,The Daily Grind,5679,US,Raleigh,35.95,-78.543,dq2h
42949672976,17,The Rustic Table,89646,US,New Castle,39.698,-75.551,dr43
197568495651,36,Blue Ocean Grill,24784,US,Brookings,44.311,-96.763,9zgh
52,53,The Red Rooster,47732,FR,Paris,48.871,2.352,u09w
171798691897,58,A Tasty Bite,65939,GB,Paddington,51.515,-0.178,gcpv
154618822666,11,The Flaming Wok,41484,US,Olive Branch,34.964,-89.857,dn0n
257698037768,9,The Grill House,26468,US,North Myrtle Beach,33.791,-78.735,dq00
17179869203,20,The Brasserie,10902,US,College Park,38.996,-76.904,dqcm
94489280528,17,The Rustic Table,95399,US,Plainfield,39.675,-86.367,dp49
146028888149,86,The Porch Cafe,70611,NL,Amsterdam,52.373,4.89,u173
206158430290,83,The Pantry,53370,GB,London,51.511,-0.124,gcpv
137438953485,14,The Gourmet Garden,11038,US,Walden,40.73,-106.282,9xhr
188978561077,54,The Spice House,3642,FR,Paris,48.834,2.319,u09t
1,2,Bella Cucina,47732,US,Beaumont,30.039,-94.159,9vm4
68719476770,35,Basilica Bistro,77517,IT,Milan,45.489,9.183,u0nd
25769803835,60,Big City Grill,72230,GB,London,51.494,-0.136,gcpu
154618822700,45,The Green Bean,41484,US,Mott,46.375,-102.336,c8pp
17179869214,31,Bistro 42,10902,US,Wakonda,43.009,-97.108,9zdu
171798691878,39,Cinnamon Grill,65939,AT,Vienna,48.211,16.368,u2ed
103079215151,48,The Local Cafe,4340,US,Spokane,47.686,-117.411,c2kx
146028888099,36,Blue Ocean Grill,70611,US,Oscoda,44.408,-83.328,dpus
137438953524,53,The Red Rooster,11038,GB,London,51.511,-0.131,gcpv
188978561080,57,The Yellow Submarine,3642,FR,Paris,48.85,2.38,u09t
49,50,The Pancake House,47732,FR,Paris,48.865,2.289,u09t
137438953497,26,The Silver Spoon,11038,IT,Milan,45.464,9.207,u0nd
231928234034,51,The Pizzeria,33573,GB,London,51.506,-0.145,gcpv
137438953505,34,The Tasty Treat,11038,AT,Vienna,48.182,16.381,u2ed
17179869195,12,The Wooden Spoon,10902,US,Dahlonega,34.525,-83.976,dnhk
8589934622,31,Bistro 42,12630,US,Black River Falls,44.298,-90.82,9zzk
266287972415,64,Chateau de Cuisine,11263,FR,Paris,48.881,2.338,u09w
25769803783,8,The Green Olive,72230,US,Los Olivos,34.665,-120.115,9q4t
94489280565,54,The Spice House,95399,GB,London,51.497,-0.206,gcpu
137438953531,60,Big City Grill,11038,NL,Amsterdam,52.349,4.894,u173
25769803815,40,Crimson Cafe,72230,IT,Milan,45.453,9.196,u0nd
137438953512,41,The Daily Bread,11038,FR,Paris,48.838,2.323,u09t
17179869253,70,Earth and Vine,10902,GB,London,51.499,-0.079,gcpu
197568495632,17,The Rustic Table,24784,US,Ely,39.248,-114.891,9qyr
60129542182,39,Cinnamon Grill,71555,AT,Vienna,48.21,16.366,u2ed
231928234013,30,The Wine Cellar,33573,IT,Milan,45.479,9.145,u0nd
266287972430,79,The Huckleberry Cafe,11263,GB,London,51.536,-0.19,gcpv
240518168603,28,The Spicy Pickle,93164,ES,Barcelona,41.386,2.195,sp3e
180388626474,43,The Food House,7531,FR,Paris,48.847,2.322,u09t
137438953480,9,The Grill House,11038,US,San Francisco,37.8,-122.436,9q8z
163208757307,60,Big City Grill,96638,FR,Paris,48.874,2.29,u09w
60129542147,4,The Blue Plate,71555,US,Georgetown,33.424,-79.274,djzw
60,61,Blue Water Bistro,47732,GB,London,51.508,-0.273,gcpv
240518168593,18,The Harvest Room,93164,US,Arlington,38.895,-77.072,dqcj
25769803793,18,The Harvest Room,72230,US,Englewood,41.001,28.803,sxk3
240518168639,64,Chateau de Cuisine,93164,FR,Paris,48.871,2.319,u09w
154618822694,39,Cinnamon Grill,41484,IT,Milan,45.479,9.204,u0nd
60129542198,55,The Steak House,71555,US,Irving,48.887,2.301,u09w
171798691870,31,Bistro 42,65939,IT,Milan,45.483,9.167,u0nd
25769803792,17,The Rustic Table,72230,US,Elko,40.844,-115.751,9rm8
197568495656,41,The Daily Bread,24784,IT,Milan,45.486,9.2,u0nd
120259084347,60,Big City Grill,59829,GB,London,51.513,-0.148,gcpv
94489280544,33,The Blue Elephant,95399,US,Ogunquit,43.256,-70.6,drty
163208757264,17,The Rustic Table,96638,US,Bowie,38.943,-76.717,dqcm
146028888097,34,The Tasty Treat,70611,US,Ames,43.802,11.298,srb1
17179869246,63,Cafe Paris,10902,FR,Paris,48.873,2.293,u09w
85899345927,8,The Green Olive,18952,US,Macon,32.805,-83.723,dju6
34359738428,61,Blue Water Bistro,50333,GB,London,51.496,-0.183,gcpu
128849018882,3,Spice Bazaar,5679,US,Avalon,33.365,-118.382,9mgv
231928233985,2,Bella Cucina,33573,US,San Marcos,29.825,-97.99,9v63
34359738431,64,Chateau de Cuisine,50333,GB,London,51.508,0.025,u10j
34359738376,9,The Grill House,50333,US,San Jose,37.523,15.06,sqdt
249108103218,51,The Pizzeria,55897,AT,Vienna,48.213,16.347,u2ed
214748364815,16,The Spice Tree,92040,US,Dayton,39.85,-84.189,dph4
163208757309,62,Cafe Luminoso,96638,FR,Paris,48.889,2.35,u09w
266287972382,31,Bistro 42,11263,US,Chicago,41.88,-87.641,dp3w
103079215176,73,Fresh Harvest,4340,GB,London,51.531,-0.126,gcpv
60129542209,66,City Bites,71555,GB,London,51.532,-0.062,gcpv
77309411391,64,Chateau de Cuisine,78190,GB,London,51.513,-0.085,gcpv
171798691890,51,The Pizzeria,65939,FR,Paris,48.882,2.341,u09w
171798691851,12,The Wooden Spoon,65939,US,O Fallon,38.8,-90.679,9yzs
257698037820,61,Blue Water Bistro,26468,FR,Paris,48.882,2.337,u09w
8589934637,46,The Italian Table,12630,FR,Paris,48.868,2.33,u09w
146028888067,4,The Blue Plate,70611,US,Houston,29.837,-95.488,9vk1
180388626459,28,The Spicy Pickle,7531,US,Cody,44.517,-109.081,9xfm
197568495698,83,The Pantry,24784,GB,London,51.515,-0.082,gcpv
25769803819,44,The French Kitchen,72230,IT,Milan,45.5,9.206,u0nd
111669149732,37,Cafe Crepe,84488,AT,Vienna,48.151,16.406,u2e9
9,10,The Golden Spoon,47732,US,Springdale,37.197,-112.992,9qxe
111669149726,31,Bistro 42,84488,US,Manassas,41.697,8.899,spqm
42949673020,61,Blue Water Bistro,89646,FR,Paris,48.889,2.395,u09w
240518168601,26,The Silver Spoon,93164,ES,Barcelona,41.373,2.154,sp3e
42949673024,65,Chef's Corner,89646,GB,Paddington,51.515,-0.174,gcpv
188978561073,50,The Pancake House,3642,AT,Vienna,48.209,16.372,u2ed
197568495619,4,The Blue Plate,24784,US,San Antonio,29.504,-98.482,9v1z
266287972354,3,Spice Bazaar,11263,US,Jupiter,26.935,-80.086,dhz1
163208757287,40,Crimson Cafe,96638,US,Gaylord,45.028,-84.664,f05b
163208757284,37,Cafe Crepe,96638,US,Hampton,42.902,-70.815,drts
51539607575,24,The Fisherman's Catch,6934,ES,Barcelona,41.392,2.157,sp3e
11,12,The Wooden Spoon,47732,US,Kansas City,39.307,-94.684,9yux
231928234029,46,The Italian Table,33573,FR,Paris,48.868,2.3,u09w
25769803801,26,The Silver Spoon,72230,ES,Barcelona,41.401,2.209,sp3e
137438953472,1,Savoria,11038,US,Dallas,32.644,-96.857,9vg1
197568495702,87,The Red Hen,24784,GB,London,51.527,-0.08,gcpv
42949672999,40,Crimson Cafe,89646,IT,Milan,45.485,9.16,u0nd
77309411385,58,A Tasty Bite,78190,GB,London,51.494,-0.191,gcpu
146028888078,15,The Pearl Kitchen,70611,US,Glasgow,36.955,-85.962,dndf
188978561063,40,Crimson Cafe,3642,IT,Milan,45.469,9.214,u0nd
180388626456,25,The Cozy Cafe,7531,US,Alma,43.377,-84.607,dpey
128849018951,72,Flamingo Cafe,5679,GB,London,51.513,-0.193,gcpv
197568495665,50,The Pancake House,24784,FR,Paris,48.838,2.321,u09t
266287972353,2,Bella Cucina,11263,US,Honolulu,21.282,-157.831,87zc
154618822696,41,The Daily Bread,41484,IT,Milan,45.485,9.183,u0nd
240518168592,17,The Rustic Table,93164,US,Ocean City,38.432,-75.054,dqfd
42949673000,41,The Daily Bread,89646,IT,Milan,45.485,9.206,u0nd
60129542149,6,The Daily Grind,71555,US,Jasper,33.846,-87.259,dn1b
103079215104,1,Savoria,4340,US,Kapaa,22.043,-159.338,87yt
188978561044,21,The Lazy Daisy,3642,US,Mammoth Lakes,37.643,-118.993,9qeq
266287972402,51,The Pizzeria,11263,FR,Paris,48.854,2.307,u09t
188978561092,69,Dragonfly Cafe,3642,GB,London,51.501,-0.217,gcpu
25769803805,30,The Wine Cellar,72230,US,Mansfield,41.807,-77.078,dr3j
34359738377,10,The Golden Spoon,50333,US,Owensboro,37.774,-87.108,dndn
240518168646,71,Fire and Spice,93164,GB,London,51.524,-0.138,gcpv
6,7,Cafe Roma,47732,US,Southport,33.953,-78.052,dq03
231928233999,16,The Spice Tree,33573,ES,Barcelona,41.378,2.138,sp3e
60129542155,12,The Wooden Spoon,71555,US,Albuquerque,35.084,-106.693,9whp
111669149719,24,The Fisherman's Catch,84488,ES,Barcelona,41.384,2.141,sp3e
163208757303,56,The Waffle House,96638,FR,Paris,48.86,2.347,u09t
249108103214,47,The Juicy Burger,55897,IT,Milan,45.501,9.138,u0n6
42949672964,5,The Hungry Hippo,89646,US,Lumberton,34.67,-79.003,dnpv
8589934663,72,Flamingo Cafe,12630,NL,Amsterdam,52.368,4.896,u173
51539607571,20,The Brasserie,6934,ES,Barcelona,41.381,2.174,sp3e
8589934631,40,Crimson Cafe,12630,FR,Paris,48.833,2.279,u09t
10,11,The Flaming Wok,47732,US,Grand Junction,39.107,-108.544,9wfy
34359738436,69,Dragonfly Cafe,50333,GB,London,51.515,-0.159,gcpv
36,37,Cafe Crepe,47732,IT,Milan,45.458,9.192,u0nd
231928234039,56,The Waffle House,33573,NL,Amsterdam,52.342,4.825,u173
266287972391,40,Crimson Cafe,11263,IT,Milan,45.473,9.191,u0nd
197568495684,69,Dragonfly Cafe,24784,FR,Paris,48.877,2.307,u09w
17179869219,36,Blue Ocean Grill,10902,US,Newport,44.674,-124.061,9pzy
42949672970,11,The Flaming Wok,89646,US,Bella Vista,36.464,-94.252,9ykz
8589934611,20,The Brasserie,12630,US,Pittsburgh,40.453,-79.932,dppn
68719476747,12,The Wooden Spoon,77517,US,Virginia Beach,36.855,-75.976,dq9c
34359738381,14,The Gourmet Garden,50333,US,Bloomington,40.481,-89.025,dp0w
128849018927,48,The Local Cafe,5679,FR,Paris,48.839,2.389,u09t
188978561052,29,The Olive Branch,3642,ES,Barcelona,41.392,2.173,sp3e
249108103211,44,The French Kitchen,55897,IT,Milan,45.461,9.154,u0nd
34359738414,47,The Juicy Burger,50333,FR,Paris,48.855,2.34,u09t
257698037776,17,The Rustic Table,26468,US,Vail,39.639,-106.368,9xh3
103079215138,35,Basilica Bistro,4340,US,Tinley Park,41.557,-87.794,dp3s
120259084316,29,The Olive Branch,59829,IT,Milan,45.466,9.159,u0nd
249108103201,34,The Tasty Treat,55897,ES,Barcelona,41.393,2.162,sp3e
42949673021,62,Cafe Luminoso,89646,GB,London,51.502,-0.185,gcpu
257698037807,48,The Local Cafe,26468,FR,Paris,48.843,2.331,u09t
163208757300,53,The Red Rooster,96638,FR,Vincennes,48.855,2.415,u09t
42949672989,30,The Wine Cellar,89646,US,Valentine,42.871,-100.551,9z87
146028888082,19,The Tasting Room,70611,US,Mosca,37.654,-105.87,9wsw
249108103217,50,The Pancake House,55897,AT,Vienna,48.208,16.376,u2ed
120259084289,2,Bella Cucina,59829,US,Bradenton,27.424,-82.576,dhvk
60129542161,18,The Harvest Room,71555,US,Fairview Heights,38.602,-89.994,dnb5
42949673031,72,Flamingo Cafe,89646,NL,Amsterdam,52.376,4.894,u173
0,1,Savoria,47732,US,Indian Rocks Beach,27.85,-82.844,dhvn
8589934626,35,Basilica Bistro,12630,IT,Milan,45.48,9.149,u0nd
223338299440,49,The Olive Tree,36937,GB,London,51.502,-0.188,gcpu
197568495682,67,Crimson and Clover,24784,FR,Paris,48.874,2.35,u09w
103079215156,53,The Red Rooster,4340,FR,Paris,48.825,2.357,u09t
68719476776,41,The Daily Bread,77517,AT,Vienna,48.214,16.422,u2ed
214748364828,29,The Olive Branch,92040,US,Pierre,44.376,-100.349,9zbs
137438953486,15,The Pearl Kitchen,11038,ES,Barcelona,41.385,2.157,sp3e
128849018890,11,The Flaming Wok,5679,US,Durango,37.304,-107.868,9wek
25769803798,23,The Hungry Pig,72230,ES,Barcelona,41.394,2.149,sp3e
128849018921,42,The Daily Scoop,5679,US,Eagle River,45.915,-89.274,f00t
128849018945,66,City Bites,5679,GB,London,51.495,-0.178,gcpu
154618822737,82,The Palate,41484,NL,Amsterdam,52.385,4.894,u176
231928234000,17,The Rustic Table,33573,ES,Barcelona,41.386,2.151,sp3e
240518168645,70,Earth and Vine,93164,GB,London,51.521,-0.078,gcpv
223338299444,53,The Red Rooster,36937,GB,London,51.514,-0.122,gcpv
120259084349,62,Cafe Luminoso,59829,GB,London,51.532,-0.11,gcpv
146028888118,55,The Steak House,70611,AT,Vienna,48.208,16.372,u2ed
60129542204,61,Blue Water Bistro,71555,GB,London,51.516,-0.157,gcpv
154618822739,84,The Pink Door,41484,NL,Amsterdam,52.387,4.835,u176
34359738432,65,Chef's Corner,50333,GB,London,51.508,0.036,u10j
68719476766,31,Bistro 42,77517,IT,Milan,45.45,9.17,u0nd
240518168610,35,Basilica Bistro,93164,US,Des Moines,41.522,-93.645,9zmk
206158430288,81,The Oak Room,53370,GB,London,51.509,-0.137,gcpv
68719476792,57,The Yellow Submarine,77517,GB,London,51.514,-0.156,gcpv
206158430270,63,Cafe Paris,53370,FR,Paris,48.864,2.336,u09t
180388626473,42,The Daily Scoop,7531,FR,Paris,48.844,2.329,u09t
188978561042,19,The Tasting Room,3642,US,Lamar,37.487,-94.299,9ysv
17179869197,14,The Gourmet Garden,10902,US,Alamosa,37.481,-105.906,9wst
77309411365,38,Cafe Viva,78190,US,Saint Ignace,45.876,-84.732,f05s
34359738408,41,The Daily Bread,50333,AT,Vienna,48.22,16.386,u2ed
17179869206,23,The Hungry Pig,10902,US,Pittsburgh,40.451,-80.106,dppn
197568495700,85,The Plum Cafe,24784,GB,London,51.521,-0.292,gcpv
128849018886,7,Cafe Roma,5679,US,Seiling,36.144,-98.925,9y3t
85899345934,15,The Pearl Kitchen,18952,US,Saint Charles,38.771,-90.495,9yzs
60129542167,24,The Fisherman's Catch,71555,US,Bayside,40.762,-73.761,dr5x
85899345926,7,Cafe Roma,18952,US,Wellton,32.673,-114.146,9myc
120259084330,43,The Food House,59829,FR,Paris,48.87,2.294,u09w
42949672978,19,The Tasting Room,89646,US,Fort Wayne,41.132,-85.157,dp73
60129542207,64,Chateau de Cuisine,71555,GB,London,51.526,-0.118,gcpv
146028888091,28,The Spicy Pickle,70611,ES,Barcelona,41.397,2.192,sp3e
266287972378,27,The Corner Cafe,11263,ES,Barcelona,41.396,2.166,sp3e
249108103168,1,Savoria,55897,US,Miami Beach,25.774,-80.132,dhx4
68719476742,7,Cafe Roma,77517,US,San Clemente,33.438,-117.622,9muq
60129542158,15,The Pearl Kitchen,71555,US,Oklahoma City,35.463,-97.601,9y69
171798691860,21,The Lazy Daisy,65939,ES,Barcelona,41.411,2.187,sp3e
94489280573,62,Cafe Luminoso,95399,NL,Amsterdam,52.36,4.881,u173
68719476774,39,Cinnamon Grill,77517,AT,Vienna,48.201,16.365,u2ed
103079215159,56,The Waffle House,4340,FR,Paris,48.866,2.367,u09t
180388626498,67,Crimson and Clover,7531,GB,London,51.574,-0.098,gcpv
163208757282,35,Basilica Bistro,96638,US,Ithaca,42.436,-76.508,dr99
154618822689,34,The Tasty Treat,41484,US,Boise,43.569,-116.216,9rtr
163208757308,61,Blue Water Bistro,96638,FR,Paris,48.879,2.339,u09w
240518168622,47,The Juicy Burger,93164,IT,Milan,45.463,9.184,u0nd
51539607601,50,The Pancake House,6934,FR,Paris,48.874,2.3,u09w
206158430276,69,Dragonfly Cafe,53370,FR,Paris,48.882,2.313,u09w
13,14,The Gourmet Garden,47732,US,Champaign,40.131,-88.244,dp1h
34359738396,29,The Olive Branch,50333,IT,Milan,45.471,9.157,u0nd
53,54,The Spice House,47732,FR,Paris,48.873,2.349,u09w
188978561028,5,The Hungry Hippo,3642,US,Enterprise,31.327,-85.836,djdf
231928234015,32,The Orange Peeler,33573,IT,Milan,45.516,9.227,u0nd
206158430279,72,Flamingo Cafe,53370,GB,London,51.493,-0.127,gcpu
120259084300,13,The Firehouse,59829,US,Branson,36.633,-93.272,9yt8
17179869184,1,Savoria,10902,US,Arvada,-8.7,115.164,qw3y
206158430236,29,The Olive Branch,53370,ES,Barcelona,41.396,2.162,sp3e
180388626455,24,The Fisherman's Catch,7531,US,Hobart,42.99,-78.742,dr8h
214748364810,11,The Flaming Wok,92040,US,Jellico,36.588,-84.127,dns0
214748364818,19,The Tasting Room,92040,US,Bowlinggreen,41.374,-83.608,dpke
137438953473,2,Bella Cucina,11038,US,Grand Prairie,32.784,-97.06,9vff
103079215157,54,The Spice House,4340,FR,Paris,48.847,2.283,u09t
146028888148,85,The Plum Cafe,70611,NL,Amsterdam,52.37,4.861,u173
266287972432,81,The Oak Room,11263,GB,London,51.546,-0.055,gcpv
249108103209,42,The Daily Scoop,55897,US,Tigerton,44.75,-89.066,dpbw
60129542206,63,Cafe Paris,71555,GB,London,51.52,-0.158,gcpv
266287972410,59,Azalea Cafe,11263,FR,Paris,48.872,2.297,u09w
257698037817,58,A Tasty Bite,26468,FR,Paris,48.871,2.343,u09w
85899345933,14,The Gourmet Garden,18952,US,Rohnert Park,38.364,-122.715,9qbd
8589934639,48,The Local Cafe,12630,FR,Paris,48.875,2.326,u09w
146028888146,83,The Pantry,70611,NL,Amsterdam,52.335,4.889,u173
266287972407,56,The Waffle House,11263,FR,Paris,48.871,2.298,u09w
77309411379,52,The Red Door,78190,FR,Paris,48.868,2.321,u09w
154618822705,50,The Pancake House,41484,AT,Vienna,48.211,16.374,u2ed
154618822715,60,Big City Grill,41484,FR,Paris,48.874,2.322,u09w
249108103237,70,Earth and Vine,55897,GB,London,51.519,-0.135,gcpv
197568495620,5,The Hungry Hippo,24784,US,Mobile,30.688,-88.041,dj3q
85899345974,55,The Steak House,18952,GB,London,51.494,-0.188,gcpu
17179869190,7,Cafe Roma,10902,US,Duluth,33.951,-84.125,dnh1
137438953528,57,The Yellow Submarine,11038,GB,London,51.527,-0.132,gcpv
180388626502,71,Fire and Spice,7531,NL,Amsterdam,52.368,4.868,u173
128849018933,54,The Spice House,5679,FR,Paris,48.866,2.326,u09t
42949673014,55,The Steak House,89646,FR,Paris,48.872,2.303,u09w
120259084323,36,Blue Ocean Grill,59829,FR,Paris,48.832,2.354,u09t
128849018953,74,Garden of Eatin',5679,GB,London,51.524,-0.185,gcpv
214748364865,66,City Bites,92040,GB,London,51.49,-0.138,gcpu
137438953530,59,Azalea Cafe,11038,NL,Amsterdam,52.338,4.818,u173
257698037764,5,The Hungry Hippo,26468,US,New Orleans,29.952,-90.071,9vrf
188978561030,7,Cafe Roma,3642,US,Jacksonville,31.965,-95.255,9vsm
171798691881,42,The Daily Scoop,65939,FR,Paris,48.846,2.324,u09t
103079215167,64,Chateau de Cuisine,4340,GB,London,51.505,-0.126,gcpv
128849018920,41,The Daily Bread,5679,IT,Milan,45.502,9.222,u0nd
163208757318,71,Fire and Spice,96638,GB,London,51.522,-0.153,gcpv
249108103182,15,The Pearl Kitchen,55897,US,Marina,36.699,-121.806,9q92
266287972370,19,The Tasting Room,11263,US,Percival,40.69,-95.789,9z5z
214748364809,10,The Golden Spoon,92040,US,El Reno,35.505,-97.973,9y63
180388626460,29,The Olive Branch,7531,US,Gaylord,44.556,-94.224,9zuv
180388626464,33,The Blue Elephant,7531,IT,Milan,45.478,9.203,u0nd
163208757267,20,The Brasserie,96638,US,Bellmawr,39.864,-75.078,dr4d
103079215133,30,The Wine Cellar,4340,US,Drums,41.033,-75.953,dr3c
171798691869,30,The Wine Cellar,65939,IT,Milan,45.469,9.195,u0nd
197568495695,80,The Market Cafe,24784,GB,London,51.505,-0.099,gcpv
29,30,The Wine Cellar,47732,US,Canyonville,42.944,-123.291,9r8k
128849018932,53,The Red Rooster,5679,FR,Paris,48.858,2.28,u09t
197568495661,46,The Italian Table,24784,AT,Vienna,48.195,16.384,u2ed
137438953483,12,The Wooden Spoon,11038,US,Denver,39.915,-104.993,9xj7
17179869201,18,The Harvest Room,10902,US,Rehoboth Beach,38.717,-75.082,dqfs
103079215122,19,The Tasting Room,4340,US,Emporia,36.707,-77.56,dq8b
128849018912,33,The Blue Elephant,5679,US,Camden,44.202,-69.075,dryg
163208757251,4,The Blue Plate,96638,US,Vicksburg,32.314,-90.899,9vxr
51539607595,44,The French Kitchen,6934,FR,Paris,48.863,2.338,u09t
94489280570,59,Azalea Cafe,95399,GB,London,51.52,-0.122,gcpv
68719476739,4,The Blue Plate,77517,US,Junction,30.494,-99.778,9v3j
94489280553,42,The Daily Scoop,95399,FR,Paris,48.866,2.283,u09t
146028888093,30,The Wine Cellar,70611,US,Albany,42.687,-73.815,dred
146028888141,78,The Hot Spot,70611,GB,London,51.503,-0.152,gcpu
68719476794,59,Azalea Cafe,77517,GB,London,51.516,-0.18,gcpv
206158430217,10,The Golden Spoon,53370,US,Barstow,34.891,-117.003,9qhy
214748364829,30,The Wine Cellar,92040,US,Eau Claire,44.844,-91.596,9zyz
231928233997,14,The Gourmet Garden,33573,US,Stirling City,39.904,-121.527,9r1e
206158430228,21,The Lazy Daisy,53370,US,Exton,40.362,-75.626,dr4j
231928234037,54,The Spice House,33573,GB,London,51.517,-0.07,gcpv
154618822690,35,Basilica Bistro,41484,US,Clare,43.83,-84.788,dpg9
77309411374,47,The Juicy Burger,78190,FR,Paris,48.858,2.353,u09t
180388626481,50,The Pancake House,7531,FR,Paris,48.871,2.33,u09w
231928234003,20,The Brasserie,33573,ES,Barcelona,41.405,2.129,sp3e
188978561037,14,The Gourmet Garden,3642,US,Chattanooga,34.991,-85.208,dn5r
163208757286,39,Cinnamon Grill,96638,US,Spearfish,44.48,-103.814,9xyj
223338299426,35,Basilica Bistro,36937,US,Jamestown,46.882,-98.715,cb3f
188978561033,10,The Golden Spoon,3642,US,Hope,33.684,-93.612,9vvr
163208757323,76,Happy Hour Cafe,96638,NL,Amsterdam,52.371,4.894,u173
60129542170,27,The Corner Cafe,71555,ES,Barcelona,41.382,2.184,sp3e
257698037811,52,The Red Door,26468,FR,Paris,48.864,2.341,u09t
146028888127,64,Chateau de Cuisine,70611,FR,Paris,48.861,2.379,u09t
68719476773,38,Cafe Viva,77517,US,Kalispell,48.182,-114.305,c2wd
111669149697,2,Bella Cucina,84488,US,Orlando,28.407,-81.405,djn1
8589934607,16,The Spice Tree,12630,US,Burlington,39.299,-102.278,9wzr
60129542197,54,The Spice House,71555,FR,Paris,48.876,2.359,u09w
60129542180,37,Cafe Crepe,71555,AT,Vienna,48.205,16.369,u2ed
214748364855,56,The Waffle House,92040,FR,Paris,48.865,2.329,u09t
42949673017,58,A Tasty Bite,89646,FR,Paris,48.876,2.3,u09w
111669149703,8,The Green Olive,84488,US,Birmingham,33.52,-86.809,djfq
206158430271,64,Chateau de Cuisine,53370,FR,Paris,48.864,2.366,u09t
25769803797,22,The Red Pepper,72230,ES,Barcelona,41.392,2.162,sp3e
111669149728,33,The Blue Elephant,84488,US,Brockton,42.064,-71.058,drmr
154618822683,28,The Spicy Pickle,41484,US,Narragansett,41.432,-71.462,drm5
85899345984,65,Chef's Corner,18952,GB,London,51.537,-0.002,gcpv
249108103185,18,The Harvest Room,55897,US,San Francisco,37.792,-122.401,9q8y
34359738440,73,Fresh Harvest,50333,NL,Amsterdam,52.354,4.866,u173
206158430265,58,A Tasty Bite,53370,FR,Paris,48.844,2.316,u09t
249108103215,48,The Local Cafe,55897,IT,Milan,45.514,9.119,u0n6
103079215170,67,Crimson and Clover,4340,GB,London,51.51,-0.188,gcpv
51539607606,55,The Steak House,6934,GB,London,51.513,-0.187,gcpv
94489280551,40,Crimson Cafe,95399,FR,Paris,48.838,2.306,u09t
146028888142,79,The Huckleberry Cafe,70611,GB,London,51.507,-0.129,gcpv
8589934651,60,Big City Grill,12630,GB,London,51.497,-0.158,gcpu
25769803816,41,The Daily Bread,72230,IT,Milan,45.466,9.192,u0nd
163208757297,50,The Pancake House,96638,AT,Vienna,48.234,16.421,u2ed
266287972376,25,The Cozy Cafe,11263,ES,Barcelona,41.394,2.164,sp3e
188978561058,35,Basilica Bistro,3642,US,Madison,43.073,-89.44,dp8m
66,67,Crimson and Clover,47732,NL,Amsterdam,52.35,4.876,u173
146028888096,33,The Blue Elephant,70611,US,Decorah,43.292,-91.797,9zww
214748364873,74,Garden of Eatin',92040,GB,London,51.517,-0.137,gcpv
60129542199,56,The Waffle House,71555,GB,London,51.474,-0.019,gcpu
94489280559,48,The Local Cafe,95399,FR,Paris,48.873,2.336,u09w
188978561102,79,The Huckleberry Cafe,3642,GB,London,51.583,-0.217,gcpv
180388626440,9,The Grill House,7531,US,Max Meadows,36.941,-80.944,dnw6
128849018948,69,Dragonfly Cafe,5679,GB,London,51.508,-0.144,gcpv
51539607577,26,The Silver Spoon,6934,US,Archbald,41.494,-75.592,dr6h
171798691880,41,The Daily Bread,65939,FR,Paris,48.845,2.352,u09t
154618822669,14,The Gourmet Garden,41484,US,Franklin,35.911,-86.823,dn6k
111669149716,21,The Lazy Daisy,84488,US,Bloomington,40.46,-88.977,dp0w
231928234044,61,Blue Water Bistro,33573,US,Harleigh,54.153,11.754,u38k
180388626492,61,Blue Water Bistro,7531,GB,London,51.508,-0.155,gcpv
85899345922,3,Spice Bazaar,18952,US,West Palm Beach,26.691,-80.073,dhxp
103079215158,55,The Steak House,4340,FR,Paris,48.861,2.343,u09t
8589934638,47,The Juicy Burger,12630,FR,Paris,48.871,2.326,u09w
197568495658,43,The Food House,24784,US,Mohawk,47.415,-88.299,f03j
34359738409,42,The Daily Scoop,50333,FR,Paris,48.846,2.345,u09t
111669149708,13,The Firehouse,84488,US,Yellville,36.105,-92.611,9yqj
154618822712,57,The Yellow Submarine,41484,FR,Paris,48.861,2.311,u09t
206158430241,34,The Tasty Treat,53370,US,Hampton,42.91,-70.813,drts
42949672980,21,The Lazy Daisy,89646,ES,Barcelona,41.384,2.151,sp3e
154618822708,53,The Red Rooster,41484,FR,Paris,48.853,2.33,u09t
43,44,The French Kitchen,47732,AT,Vienna,48.192,16.355,u2ed
214748364845,46,The Italian Table,92040,FR,Paris 06,48.845,2.321,u09t
197568495644,29,The Olive Branch,24784,ES,Barcelona,41.391,2.159,sp3e
34359738383,16,The Spice Tree,50333,ES,Barcelona,41.38,2.181,sp3e
77309411341,14,The Gourmet Garden,78190,US,Bull Shoals,36.382,-92.591,9yqn
171798691846,7,Cafe Roma,65939,US,Rocky Mount,35.979,-77.847,dq2s
8589934632,41,The Daily Bread,12630,FR,Paris,48.847,2.326,u09t
231928234038,55,The Steak House,33573,NL,Amsterdam,52.331,4.877,u173
266287972425,74,Garden of Eatin',11263,GB,London,51.507,0.039,u10j
214748364875,76,Happy Hour Cafe,92040,GB,London,51.524,-0.079,gcpv
266287972398,47,The Juicy Burger,11263,FR,Paris,48.83,2.284,u09t
171798691877,38,Cafe Viva,65939,AT,Vienna,48.197,16.367,u2ed
206158430277,70,Earth and Vine,53370,US,Raymond,50.94,6.961,u1hc
188978561057,34,The Tasty Treat,3642,US,Fitchburg,42.546,-71.853,drsf
171798691892,53,The Red Rooster,65939,US,Northbrook,50.107,8.761,u0yj
34359738443,76,Happy Hour Cafe,50333,NL,Amsterdam,52.365,4.884,u173
249108103196,29,The Olive Branch,55897,ES,Barcelona,41.383,2.172,sp3e
128849018942,63,Cafe Paris,5679,GB,London,51.478,-0.014,gcpu
25769803827,52,The Red Door,72230,FR,Paris,48.857,2.327,u09t
8589934659,68,Delish Cafe,12630,NL,Amsterdam,52.334,4.888,u173
60129542211,68,Delish Cafe,71555,NL,Amsterdam,52.347,4.831,u173
85899345923,4,The Blue Plate,18952,US,Bisbee,31.443,-109.913,9t9f
60129542175,32,The Orange Peeler,71555,ES,Barcelona,41.394,2.112,sp3e
240518168578,3,Spice Bazaar,93164,US,Houston,29.751,-95.36,9vk1
197568495660,45,The Green Bean,24784,AT,Vienna,48.183,16.332,u2ed
8589934628,37,Cafe Crepe,12630,US,Yakima,46.614,-120.512,c263
103079215150,47,The Juicy Burger,4340,IT,Milan,45.488,9.202,u0nd
128849018904,25,The Cozy Cafe,5679,ES,Barcelona,41.392,2.177,sp3e
266287972358,7,Cafe Roma,11263,US,Birmingham,33.529,-86.715,djfq
171798691874,35,Basilica Bistro,65939,US,Port Angeles,48.11,-123.439,c281
25769803799,24,The Fisherman's Catch,72230,ES,Barcelona,41.394,2.165,sp3e
25769803821,46,The Italian Table,72230,US,Sumner,47.202,-122.223,c23h
51539607583,32,The Orange Peeler,6934,IT,Milan,45.478,9.2,u0nd
137438953529,58,A Tasty Bite,11038,GB,Woodford Green,51.607,0.059,u10j
25769803818,43,The Food House,72230,IT,Milan,45.474,9.196,u0nd
128849018903,24,The Fisherman's Catch,5679,ES,Barcelona,41.391,2.168,sp3e
146028888131,68,Delish Cafe,70611,FR,Paris,48.873,2.302,u09w
120259084344,57,The Yellow Submarine,59829,GB,London,51.506,-0.14,gcpv
25769803807,32,The Orange Peeler,72230,US,Southfield,42.472,-83.242,dpsc
163208757295,48,The Local Cafe,96638,AT,Vienna,48.167,16.345,u2ed
128849018931,52,The Red Door,5679,FR,Paris,48.852,2.356,u09t
60129542178,35,Basilica Bistro,71555,IT,Milan,45.444,9.116,u0n6
146028888111,48,The Local Cafe,70611,IT,Milan,45.498,9.19,u0nd
17179869230,47,The Juicy Burger,10902,AT,Vienna,48.207,16.372,u2ed
17179869247,64,Chateau de Cuisine,10902,FR,Paris,48.875,2.306,u09w
68719476772,37,Cafe Crepe,77517,AT,Vienna,48.179,16.363,u2ed
111669149723,28,The Spicy Pickle,84488,ES,Barcelona,41.391,2.173,sp3e
120259084292,5,The Hungry Hippo,59829,US,Houston,29.768,-95.46,9vk1
103079215146,43,The Food House,4340,US,Pembroke,44.956,-67.169,dxbp
111669149736,41,The Daily Bread,84488,FR,Paris,48.838,2.319,u09t
197568495626,11,The Flaming Wok,24784,US,Albuquerque,35.159,-106.585,9wk0
231928234017,34,The Tasty Treat,33573,US,Seattle,47.661,-122.314,c23p
77309411363,36,Blue Ocean Grill,78190,US,Forest Grove,45.521,-123.078,c206
266287972404,53,The Red Rooster,11263,FR,Paris,48.861,2.301,u09t
214748364834,35,Basilica Bistro,92040,IT,Milan,45.462,9.181,u0nd
8589934653,62,Cafe Luminoso,12630,GB,London,51.505,-0.226,gcpv
5,6,The Daily Grind,47732,US,Columbus,33.514,-88.426,djcn
240518168647,72,Flamingo Cafe,93164,GB,London,51.559,-0.285,gcpv
85899345963,44,The French Kitchen,18952,AT,Vienna,48.216,16.36,u2ed
180388626466,35,Basilica Bistro,7531,IT,Milan,45.5,9.143,u0nd
25769803823,48,The Local Cafe,72230,AT,Vienna,48.206,16.378,u2ed
77309411372,45,The Green Bean,78190,FR,Paris,48.852,2.374,u09t
19,20,The Brasserie,47732,ES,Barcelona,41.378,2.176,sp3e
249108103221,54,The Spice House,55897,FR,Paris,48.838,2.315,u09t
231928234008,25,The Cozy Cafe,33573,US,Effingham,43.741,-71.115,drv2
68719476757,22,The Red Pepper,77517,ES,Barcelona,41.434,2.147,sp3e
163208757280,33,The Blue Elephant,96638,ES,Barcelona,41.399,2.144,sp3e
188978561039,16,The Spice Tree,3642,US,Gallup,35.5,-108.728,9w69
120259084321,34,The Tasty Treat,59829,AT,Vienna,48.197,16.341,u2ed
266287972416,65,Chef's Corner,11263,FR,Paris,48.883,2.298,u09w
42949672992,33,The Blue Elephant,89646,US,Albert Lea,43.65,-93.369,9zv8
163208757261,14,The Gourmet Garden,96638,US,Ruther Glen,37.933,-77.476,dq8z
103079215108,5,The Hungry Hippo,4340,US,Gulfport,30.425,-89.093,dj2t
163208757273,26,The Silver Spoon,96638,ES,Barcelona,41.368,2.19,sp3e
214748364830,31,Bistro 42,92040,US,Minneapolis,44.852,-93.24,9zvx
249108103190,23,The Hungry Pig,55897,US,Carnegie,40.406,-80.089,dppj
197568495637,22,The Red Pepper,24784,US,Indianapolis,39.888,-86.265,dp4d
154618822718,63,Cafe Paris,41484,GB,London,51.491,-0.145,gcpu
249108103226,59,Azalea Cafe,55897,FR,Paris,48.869,2.321,u09w
146028888138,75,Greenhouse Cafe,70611,GB,London,51.497,-0.168,gcpu
25769803788,13,The Firehouse,72230,US,East Saint Louis,38.629,-90.175,9yzg
214748364850,51,The Pizzeria,92040,FR,Paris,48.852,2.339,u09t
163208757294,47,The Juicy Burger,96638,AT,Vienna,48.154,16.283,u2e9
240518168602,27,The Corner Cafe,93164,ES,Barcelona,41.38,2.143,sp3e
154618822713,58,A Tasty Bite,41484,FR,Paris,48.872,2.345,u09w
249108103176,9,The Grill House,55897,US,Kiowa,34.719,-95.9,9y5v
2,3,Spice Bazaar,47732,US,Hammond,30.518,-90.501,9vrt
103079215130,27,The Corner Cafe,4340,US,Eagle,39.66,-106.83,9xh1
180388626435,4,The Blue Plate,7531,US,San Diego,32.724,-117.168,9mud
146028888105,42,The Daily Scoop,70611,IT,Milan,45.46,9.177,u0nd
180388626486,55,The Steak House,7531,GB,London,51.481,-0.007,gcpu
94489280518,7,Cafe Roma,95399,US,Madisonville,35.506,-84.37,dnk1
180388626482,51,The Pizzeria,7531,FR,Paris,48.874,2.32,u09w
103079215161,58,A Tasty Bite,4340,FR,Paris,48.872,2.328,u09w
128849018899,20,The Brasserie,5679,ES,Barcelona,41.379,2.156,sp3e
63,64,Chateau de Cuisine,47732,GB,London,51.514,-0.157,gcpv
94489280560,49,The Olive Tree,95399,FR,Paris,48.879,2.358,u09w
240518168581,6,The Daily Grind,93164,US,Tucson,32.314,-110.977,9t9p
111669149733,38,Cafe Viva,84488,AT,Vienna,48.187,16.344,u2ed
180388626475,44,The French Kitchen,7531,FR,Paris,48.852,2.349,u09t
206158430211,4,The Blue Plate,53370,US,Houston,29.94,-95.362,9vk4
146028888066,3,Spice Bazaar,70611,US,Weslaco,26.172,-97.959,9udk
103079215149,46,The Italian Table,4340,IT,Milan,45.464,9.194,u0nd
94489280567,56,The Waffle House,95399,GB,London,51.512,-0.182,gcpv
197568495685,70,Earth and Vine,24784,FR,Paris,48.88,2.32,u09w
214748364806,7,Cafe Roma,92040,US,Cypress,33.832,-118.024,9qh0
12,13,The Firehouse,47732,US,Athens,39.354,-81.999,dnvx
146028888117,54,The Spice House,70611,AT,Vienna,48.201,16.339,u2ed
120259084337,50,The Pancake House,59829,GB,London,51.494,-0.207,gcpu
266287972355,4,The Blue Plate,11263,US,San Antonio,29.414,-98.71,9v1z
249108103189,22,The Red Pepper,55897,US,Harrisburg,40.278,-76.821,dr1m
137438953526,55,The Steak House,11038,GB,London,51.515,-0.157,gcpv
180388626495,64,Chateau de Cuisine,7531,GB,London,51.518,-0.15,gcpv
34359738385,18,The Harvest Room,50333,ES,Barcelona,41.401,2.21,sp3e
51539607578,27,The Corner Cafe,6934,US,Woodstock,42.04,-74.121,dr7r
188978561032,9,The Grill House,3642,US,Pawleys Island,33.47,-79.098,djzy
249108103186,19,The Tasting Room,55897,US,Springfield,37.957,-122.331,9q9p
17179869205,22,The Red Pepper,10902,US,Jennerstown,40.164,-79.079,dppu
8589934657,66,City Bites,12630,GB,London,51.52,-0.125,gcpv
51539607591,40,Crimson Cafe,6934,AT,Donauinsel,48.232,16.417,u2ed
120259084328,41,The Daily Bread,59829,FR,Paris,48.86,2.323,u09t
171798691849,10,The Golden Spoon,65939,US,Sunnyvale,37.352,-122.003,9q9h
171798691884,45,The Green Bean,65939,FR,Paris,48.852,2.345,u09t
266287972362,11,The Flaming Wok,11263,US,Osage Beach,38.127,-92.665,9yy0
180388626447,16,The Spice Tree,7531,US,Portland,40.439,-84.994,dp5w
120259084346,59,Azalea Cafe,59829,GB,London,51.511,-0.184,gcpv
137438953490,19,The Tasting Room,11038,US,Cedar Rapids,42.03,-91.652,9zqz
25769803846,71,Fire and Spice,72230,NL,Amsterdam,52.372,4.887,u173
128849018918,39,Cinnamon Grill,5679,IT,Milan,45.466,9.191,u0nd
68719476790,55,The Steak House,77517,GB,London,51.513,-0.1,gcpv
34359738437,70,Earth and Vine,50333,GB,London,51.537,-0.192,gcpv
17179869234,51,The Pizzeria,10902,FR,Paris,48.838,2.381,u09t
249108103177,10,The Golden Spoon,55897,US,Boiling Springs,35.011,-81.955,dnjx
8589934600,9,The Grill House,12630,US,Ballentine,36.715,-4.426,eysb
8589934648,57,The Yellow Submarine,12630,GB,London,51.494,-0.245,gcpu
111669149722,27,The Corner Cafe,84488,ES,Barcelona,41.386,2.176,sp3e
197568495703,88,The Royal Cafe,24784,NL,Amsterdam,52.368,4.883,u173
240518168595,20,The Brasserie,93164,US,Kansas City,39.309,-94.683,9yux
266287972383,32,The Orange Peeler,11263,US,Rockford,42.273,-88.967,dp88
85899345954,35,Basilica Bistro,18952,IT,Milan,45.451,9.161,u0nd
111669149742,47,The Juicy Burger,84488,FR,Paris,48.867,2.286,u09t
94489280568,57,The Yellow Submarine,95399,GB,London,51.518,-0.135,gcpv
56,57,The Yellow Submarine,47732,GB,London,51.42,-0.211,gcpu
257698037833,74,Garden of Eatin',26468,NL,Amsterdam,52.37,4.903,u173
128849018911,32,The Orange Peeler,5679,US,Harmony,43.561,-92.011,9zwx
146028888122,59,Azalea Cafe,70611,FR,Paris,48.835,2.326,u09t
51539607584,33,The Blue Elephant,6934,IT,Milan,45.481,9.19,u0nd
223338299438,47,The Juicy Burger,36937,GB,London,51.493,-0.157,gcpu
25769803817,42,The Daily Scoop,72230,IT,Milan,45.467,9.143,u0nd
28,29,The Olive Branch,47732,US,Sioux City,42.508,-96.374,9ze3
17179869231,48,The Local Cafe,10902,AT,Vienna,48.208,16.368,u2ed
68719476771,36,Blue Ocean Grill,77517,IT,Milan,45.512,9.124,u0n6
77309411394,67,Crimson and Clover,78190,GB,London,51.519,-0.132,gcpv
120259084288,1,Savoria,59829,US,Miami,25.764,-80.266,dhwf
128849018916,37,Cafe Crepe,5679,IT,Milan,45.452,9.205,u0nd
137438953507,36,Blue Ocean Grill,11038,AT,Vienna,48.196,16.396,u2ed
171798691886,47,The Juicy Burger,65939,FR,Paris,48.862,2.341,u09t
163208757305,58,A Tasty Bite,96638,FR,Paris,48.87,2.297,u09w
163208757262,15,The Pearl Kitchen,96638,US,Sainte Genevieve,37.968,-90.057,9yxz
163208757256,9,The Grill House,96638,US,Robinsonville,34.819,-90.412,9ypw
197568495697,82,The Palate,24784,GB,London,51.51,-0.191,gcpv
240518168576,1,Savoria,93164,US,Bristol,19.435,-99.147,9g3q
60129542201,58,A Tasty Bite,71555,GB,London,51.509,-0.016,gcpv
51539607596,45,The Green Bean,6934,FR,Paris,48.865,2.305,u09t
257698037777,18,The Harvest Room,26468,US,Garberville,40.102,-123.794,9ppu
111669149745,50,The Pancake House,84488,FR,Paris,48.871,2.361,u09w
42949672975,16,The Spice Tree,89646,US,Fort Bragg,39.426,-123.803,9ppb
77309411397,70,Earth and Vine,78190,US,Juneau,58.3,-134.406,c427
146028888150,87,The Red Hen,70611,US,East Hickory,52.674,13.569,u33e
17179869228,45,The Green Bean,10902,AT,Vienna,48.203,16.367,u2ed
163208757296,49,The Olive Tree,96638,AT,Vienna,48.202,16.379,u2ed
257698037760,1,Savoria,26468,US,Fort Lauderdale,26.174,-80.1,dhxh
223338299448,57,The Yellow Submarine,36937,NL,Amsterdam,52.292,4.944,u179
180388626501,70,Earth and Vine,7531,NL,Amsterdam,52.366,4.899,u173
188978561068,45,The Green Bean,3642,US,Mobridge,45.537,-100.424,cb0e
42949673011,52,The Red Door,89646,FR,Paris,48.869,2.337,u09w
146028888102,39,Cinnamon Grill,70611,US,Shakopee,44.801,-93.509,9zvw
94489280547,36,Blue Ocean Grill,95399,US,Spearfish,44.476,-103.848,9xyj
8589934634,43,The Food House,12630,FR,Paris,48.864,2.369,u09t
180388626448,17,The Rustic Table,7531,ES,El Prat de Llobregat,41.328,2.113,sp3e
188978561082,59,Azalea Cafe,3642,FR,Paris,48.854,2.34,u09t
77309411356,29,The Olive Branch,78190,US,Saginaw,43.484,-83.969,dpsr
77309411348,21,The Lazy Daisy,78190,US,Columbia,38.961,-92.289,9yym
163208757272,25,The Cozy Cafe,96638,US,Wilmington,41.346,-88.196,dp37
94489280522,11,The Flaming Wok,95399,US,Metropolis,37.162,-88.691,dn8g
60129542190,47,The Juicy Burger,71555,FR,Paris,48.863,2.353,u09t
146028888123,60,Big City Grill,70611,FR,Paris,48.845,2.342,u09t
77309411355,28,The Spicy Pickle,78190,ES,Barcelona,41.396,2.161,sp3e
197568495680,65,Chef's Corner,24784,FR,Paris,48.869,2.331,u09w
146028888068,5,The Hungry Hippo,70611,US,Austin,30.416,-97.744,9v6m
146028888132,69,Dragonfly Cafe,70611,FR,Paris,48.873,2.354,u09w
103079215160,57,The Yellow Submarine,4340,FR,Paris,48.867,2.337,u09t
154618822672,17,The Rustic Table,41484,US,Rockaway Beach,36.705,-93.15,9ytb
51539607558,7,Cafe Roma,6934,US,Inglewood,33.97,-118.356,9q5c
8589934592,1,Savoria,12630,US,Marathon,24.712,-81.081,dhqk
188978561090,67,Crimson and Clover,3642,FR,Paris,48.875,2.305,u09w
197568495694,79,The Huckleberry Cafe,24784,GB,London,51.496,-0.145,gcpu
188978561097,74,Garden of Eatin',3642,GB,Paddington,51.521,-0.171,gcpv
180388626442,11,The Flaming Wok,7531,US,Livermore,37.698,-121.774,9q9q
34359738411,44,The French Kitchen,50333,FR,Paris,48.849,2.348,u09t
120259084338,51,The Pizzeria,59829,GB,London,51.498,-0.146,gcpu
257698037789,30,The Wine Cellar,26468,US,Cody,44.517,-109.084,9xfm
197568495633,18,The Harvest Room,24784,US,Castle Rock,39.409,-104.867,9xj2
60129542212,69,Dragonfly Cafe,71555,NL,Amsterdam,52.349,4.884,u173
15,16,The Spice Tree,47732,US,Steamboat Springs,40.46,-106.804,9xhn
25769803806,31,Bistro 42,72230,US,Erie,42.047,-80.08,dprp
266287972372,21,The Lazy Daisy,11263,US,Kankakee,41.093,-87.869,dp39
51539607579,28,The Spicy Pickle,6934,US,Byron Center,42.825,-85.669,dpe5
8589934595,4,The Blue Plate,12630,US,Santa Maria,34.94,-120.436,9q4q
77309411377,50,The Pancake House,78190,FR,Paris,48.865,2.335,u09t
42949673025,66,City Bites,89646,GB,London,51.522,-0.047,gcpv
240518168629,54,The Spice House,93164,AT,Vienna,48.211,16.384,u2ed
154618822660,5,The Hungry Hippo,41484,US,Bunkie,30.953,-92.185,9vw2
85899345956,37,Cafe Crepe,18952,IT,Milan,45.463,9.198,u0nd
51539607587,36,Blue Ocean Grill,6934,US,Woodland,45.907,-122.74,c20t
206158430275,68,Delish Cafe,53370,FR,Paris,48.876,2.357,u09w
197568495669,54,The Spice House,24784,FR,Paris,48.849,2.341,u09t
231928234002,19,The Tasting Room,33573,ES,Barcelona,41.39,2.175,sp3e
94489280566,55,The Steak House,95399,GB,London,51.501,-0.163,gcpu
8589934643,52,The Red Door,12630,FR,Paris,48.887,2.333,u09w
223338299403,12,The Wooden Spoon,36937,US,Norwood,38.159,-108.241,9wg1
103079215164,61,Blue Water Bistro,4340,GB,London,51.492,-0.196,gcpu
257698037761,2,Bella Cucina,26468,US,Pharr,26.218,-98.179,9udj
223338299431,40,Crimson Cafe,36937,FR,Paris,48.871,2.328,u09w
17179869241,58,A Tasty Bite,10902,FR,Paris,48.855,2.325,u09t
188978561051,28,The Spicy Pickle,3642,ES,Barcelona,41.383,2.171,sp3e
111669149711,16,The Spice Tree,84488,US,Sacramento,38.58,-121.494,9qce
214748364805,6,The Daily Grind,92040,US,Palm Springs,33.803,-116.543,9qj0
34359738384,17,The Rustic Table,50333,ES,Barcelona,41.388,2.167,sp3e
223338299449,58,A Tasty Bite,36937,NL,Amsterdam,52.354,4.888,u173
103079215114,11,The Flaming Wok,4340,US,Atlanta,33.843,-84.315,dnh0
25769803836,61,Blue Water Bistro,72230,GB,London,51.512,-0.186,gcpv
94489280564,53,The Red Rooster,95399,GB,London,51.496,-0.181,gcpu
188978561094,71,Fire and Spice,3642,GB,London,51.505,-0.219,gcpv
137438953474,3,Spice Bazaar,11038,US,Buena Park,33.858,-118.029,9qh0
188978561069,46,The Italian Table,3642,AT,Vienna,48.193,16.358,u2ed
231928234019,36,Blue Ocean Grill,33573,AT,Vienna,48.204,16.356,u2ed
17179869222,39,Cinnamon Grill,10902,IT,Milan,45.466,9.178,u0nd
17179869237,54,The Spice House,10902,FR,Paris,48.849,2.342,u09t
85899345942,23,The Hungry Pig,18952,ES,Barcelona,41.383,2.14,sp3e
257698037808,49,The Olive Tree,26468,FR,Paris,48.848,2.302,u09t
163208757259,12,The Wooden Spoon,96638,US,Dublin,37.073,-80.697,dnwd
42949673012,53,The Red Rooster,89646,FR,Paris,48.87,2.311,u09w
25769803839,64,Chateau de Cuisine,72230,GB,London,51.522,-0.086,gcpv
214748364854,55,The Steak House,92040,FR,Paris,48.864,2.331,u09t
240518168634,59,Azalea Cafe,93164,FR,Paris,48.856,2.293,u09t
34359738444,77,Harvest Kitchen,50333,NL,Amsterdam,52.392,4.868,u176
206158430289,82,The Palate,53370,GB,London,51.51,-0.076,gcpv
171798691883,44,The French Kitchen,65939,FR,Paris,48.852,2.278,u09t
17179869259,76,Happy Hour Cafe,10902,GB,London,51.513,-0.117,gcpv
60129542174,31,Bistro 42,71555,ES,Barcelona,41.389,2.121,sp3e
180388626471,40,Crimson Cafe,7531,AT,Vienna,48.205,16.377,u2ed
42949672974,15,The Pearl Kitchen,89646,US,Saint Leonard,38.475,-76.507,dqcd
240518168643,68,Delish Cafe,93164,GB,London,51.513,-0.184,gcpv
231928233996,13,The Firehouse,33573,US,Colorado Springs,38.916,-104.824,9wvm
137438953498,27,The Corner Cafe,11038,IT,Milan,45.468,9.155,u0nd
68719476765,30,The Wine Cellar,77517,IT,Milan,45.441,9.173,u0nd
85899345951,32,The Orange Peeler,18952,US,Milwaukee,43.039,-87.906,dp9k
34359738375,8,The Green Olive,50333,US,Alamosa,37.471,-105.86,9wst
249108103230,63,Cafe Paris,55897,GB,London,51.492,-0.183,gcpu
41,42,The Daily Scoop,47732,AT,Vienna,48.159,16.345,u2e9
