id,franchise_id,franchise_name,restaurant_franchise_id,country,city,lat,lng
85899345940,21,The Lazy Daisy,18952,US,Bowling Green,41.375,-83.619
223338299420,29,The Olive Branch,36937,US,Washington,45.427,9.072
171798691889,50,The Pancake House,65939,FR,Paris,48.882,2.336
103079215121,18,The Harvest Room,4340,US,Mount Airy,36.481,-80.602
154618822678,23,The Hungry Pig,41484,ES,Barcelona,41.383,2.17
8589934624,33,The Blue Elephant,12630,US,Burnsville,44.769,-93.291
206158430283,76,Happy Hour Cafe,53370,GB,London,51.499,-0.192
111669149738,43,The Food House,84488,FR,Paris,48.849,2.296
231928234004,21,The Lazy Daisy,33573,ES,Barcelona,41.405,2.212
34359738379,12,The Wooden Spoon,50333,US,Crystal Bay,39.225,-120.006
171798691904,65,Chef's Corner,65939,GB,London,51.54,-0.146
214748364867,68,Delish Cafe,92040,GB,London,51.496,-0.169
223338299411,20,The Brasserie,36937,ES,Barcelona,41.386,2.129
60129542164,21,The Lazy Daisy,71555,US,Towson,39.407,-76.601
257698037767,8,The Green Olive,26468,US,Douglasville,33.751,-84.716
94489280561,50,The Pancake House,95399,FR,Paris,48.881,2.299
163208757322,75,Greenhouse Cafe,96638,NL,Amsterdam,52.369,4.887
214748364851,52,The Red Door,92040,FR,Paris,48.854,2.336
163208757270,23,The Hungry Pig,96638,US,Bellefonte,40.883,-77.78
17179869194,11,The Flaming Wok,10902,US,Hot Springs National Park,34.498,-93.057
197568495662,47,The Juicy Burger,24784,AT,Vienna,48.202,16.371
154618822656,1,Savoria,41484,US,Key West,24.547,-81.794
137438953514,43,The Food House,11038,FR,Paris,48.855,2.369
85899345939,20,The Brasserie,18952,US,Wapello,41.175,-91.19
103079215144,41,The Daily Bread,4340,US,Random Lake,43.559,-87.94
51539607589,38,Cafe Viva,6934,AT,Vienna,48.191,16.408
120259084312,25,The Cozy Cafe,59829,US,Douglas,42.678,-105.333
85899345947,28,The Spicy Pickle,18952,US,Coralville,41.701,-91.607
240518168617,42,The Daily Scoop,93164,US,Worthington,43.629,-95.581
128849018925,46,The Italian Table,5679,FR,Paris,48.83,2.353
128849018924,45,The Green Bean,5679,AT,Vienna,48.198,16.367
197568495618,3,Spice Bazaar,24784,US,Englewood,26.935,-82.319
8589934646,55,The Steak House,12630,GB,London,51.424,-0.229
25769803834,59,Azalea Cafe,72230,FR,Paris,48.88,2.334
257698037787,28,The Spicy Pickle,26468,US,Interior,43.738,-101.965
257698037770,11,The Flaming Wok,26468,US,Memphis,35.036,-89.799
163208757278,31,Bistro 42,96638,ES,Barcelona,41.39,2.126
240518168608,33,The Blue Elephant,93164,ES,Barcelona,41.405,2.173
214748364832,33,The Blue Elephant,92040,IT,Milan,45.451,9.195
34359738404,37,Cafe Crepe,50333,AT,Vienna,48.21,16.37
120259084298,11,The Flaming Wok,59829,US,Palm Springs,33.841,-116.545
25769803809,34,The Tasty Treat,72230,US,Grand Rapids,42.909,-85.574
8589934621,30,The Wine Cellar,12630,US,Humeston,43.772,11.251
266287972363,12,The Wooden Spoon,11263,US,Brandywine,38.669,-76.876
60129542191,48,The Local Cafe,71555,FR,Paris,48.864,2.332
214748364859,60,Big City Grill,92040,FR,Paris,48.869,2.325
17179869239,56,The Waffle House,10902,FR,Paris,48.854,2.381
25769803826,51,The Pizzeria,72230,FR,Paris,48.856,2.362
94489280541,30,The Wine Cellar,95399,US,Narragansett,41.428,-71.456
8589934602,11,The Flaming Wok,12630,US,Dodge City,37.754,-100.041
44,45,The Green Bean,47732,AT,Vienna,48.198,16.348
34359738390,23,The Hungry Pig,50333,US,Saint Paul,44.971,-93.155
231928234022,39,Cinnamon Grill,33573,US,Whitefish,48.391,-114.336
154618822673,18,The Harvest Room,41484,US,Licking,37.461,-91.988
128849018952,73,Fresh Harvest,5679,GB,London,51.513,-0.18
34359738426,59,Azalea Cafe,50333,GB,London,51.47,-0.178
17179869196,13,The Firehouse,10902,US,Cary,35.733,-78.79
223338299404,13,The Firehouse,36937,US,Lake Ozark,38.206,-92.665
249108103212,45,The Green Bean,55897,IT,Milan,45.477,9.197
60129542194,51,The Pizzeria,71555,FR,Paris,48.871,2.309
206158430278,71,Fire and Spice,53370,GB,London,51.492,-0.195
51539607592,41,The Daily Bread,6934,AT,Vienna,48.251,16.305
111669149737,42,The Daily Scoop,84488,FR,Paris,48.84,2.324
111669149705,10,The Golden Spoon,84488,US,Irmo,34.091,-81.161
34359738369,2,Bella Cucina,50333,US,Pleasanton,28.967,-98.479
42949673015,56,The Waffle House,89646,FR,Paris,48.873,2.319
85899345970,51,The Pizzeria,18952,FR,Paris,48.87,2.335
94489280534,23,The Hungry Pig,95399,ES,Barcelona,41.381,2.127
68719476791,56,The Waffle House,77517,GB,Paddington,51.514,-0.18
214748364852,53,The Red Rooster,92040,FR,Paris,48.859,2.308
249108103220,53,The Red Rooster,55897,FR,Paris,48.833,2.357
206158430259,52,The Red Door,53370,AT,Vienna,48.2,16.377
34359738423,56,The Waffle House,50333,FR,Paris,48.879,2.356
206158430216,9,The Grill House,53370,US,Canton,34.255,-84.464
249108103235,68,Delish Cafe,55897,GB,London,51.514,-0.085
188978561100,77,Harvest Kitchen,3642,GB,London,51.527,-0.136
30,31,Bistro 42,47732,US,Herkimer,43.019,-74.993
171798691902,63,Cafe Paris,65939,GB,London,51.521,-0.157
214748364812,13,The Firehouse,92040,US,Ridgefield Park,39.378,3.237
103079215142,39,Cinnamon Grill,4340,US,Albany,42.718,-73.834
48,49,The Olive Tree,47732,FR,Paris,48.858,2.357
47,48,The Local Cafe,47732,FR,Paris,48.85,2.339
94489280536,25,The Cozy Cafe,95399,ES,Barcelona,41.391,2.167
180388626483,52,The Red Door,7531,FR,Paris,48.874,2.336
60129542179,36,Blue Ocean Grill,71555,IT,Milan,45.481,9.204
257698037800,41,The Daily Bread,26468,AT,Vienna,48.215,16.337
146028888126,63,Cafe Paris,70611,FR,Paris,48.857,2.317
85899345935,16,The Spice Tree,18952,US,Springfield,38.776,-77.179
85899345946,27,The Corner Cafe,18952,US,West Yarmouth,41.655,-70.256
188978561070,47,The Juicy Burger,3642,AT,Vienna,48.203,16.356
206158430226,19,The Tasting Room,53370,US,Ocean City,39.276,-74.576
188978561071,48,The Local Cafe,3642,AT,Vienna,48.206,16.377
231928233998,15,The Pearl Kitchen,33573,US,Coalville,40.911,-111.403
214748364804,5,The Hungry Hippo,92040,US,Summerton,33.592,-80.357
85899345981,62,Cafe Luminoso,18952,GB,London,51.519,-0.183
34359738441,74,Garden of Eatin',50333,NL,Amsterdam,52.356,4.886
214748364824,25,The Cozy Cafe,92040,US,Schenectady,42.764,-73.939
240518168636,61,Blue Water Bistro,93164,FR,Paris,48.868,2.329
25769803814,39,Cinnamon Grill,72230,US,Rangeley,44.966,-70.643
214748364862,63,Cafe Paris,92040,FR,Paris,48.88,2.286
25769803844,69,Dragonfly Cafe,72230,NL,Amsterdam,52.365,4.885
77309411387,60,Big City Grill,78190,GB,London,51.495,-0.177
188978561067,44,The French Kitchen,3642,US,Troutdale,45.537,-122.421
206158430284,77,Harvest Kitchen,53370,GB,London,51.5,-0.162
154618822725,70,Earth and Vine,41484,GB,London,51.506,-0.151
85899345982,63,Cafe Paris,18952,GB,London,51.519,-0.154
266287972388,37,Cafe Crepe,11263,IT,Milan,45.464,9.196
8589934625,34,The Tasty Treat,12630,US,Big Sky,45.286,-111.393
188978561065,42,The Daily Scoop,3642,IT,Milan,45.48,9.213
85899345979,60,Big City Grill,18952,GB,London,51.515,-0.127
171798691854,15,The Pearl Kitchen,65939,US,Redding,40.599,-122.384
249108103183,16,The Spice Tree,55897,US,Durango,37.296,-107.873
266287972405,54,The Spice House,11263,FR,Paris,48.869,2.298
197568495664,49,The Olive Tree,24784,AT,Vienna,48.202,16.376
154618822658,3,Spice Bazaar,41484,US,Alliance,27.722,85.356
240518168621,46,The Italian Table,93164,IT,Milan,45.453,9.179
77309411393,66,City Bites,78190,GB,London,51.517,-0.122
17179869209,26,The Silver Spoon,10902,ES,Barcelona,41.396,2.201
103079215139,36,Blue Ocean Grill,4340,US,Burwell,41.782,-99.126
163208757274,27,The Corner Cafe,96638,ES,Barcelona,41.373,2.172
240518168606,31,Bistro 42,93164,ES,Barcelona,41.39,2.18
240518168619,44,The French Kitchen,93164,US,Rangeley,44.965,-70.643
171798691888,49,The Olive Tree,65939,FR,Paris,48.869,2.361
223338299436,45,The Green Bean,36937,GB,London,51.482,-0.148
240518168632,57,The Yellow Submarine,93164,FR,Paris,48.851,2.275
266287972387,36,Blue Ocean Grill,11263,US,Enterprise,45.423,-117.298
180388626444,13,The Firehouse,7531,US,Corydon,38.233,-86.133
68719476795,60,Big City Grill,77517,GB,London,51.516,-0.16
180388626433,2,Bella Cucina,7531,US,Van Horn,29.672,-95.038
68719476756,21,The Lazy Daisy,77517,ES,Barcelona,41.41,2.17
171798691891,52,The Red Door,65939,FR,Paris,48.884,2.319
240518168623,48,The Local Cafe,93164,IT,Milan,45.479,9.199
223338299413,22,The Red Pepper,36937,ES,Barcelona,41.389,2.165
154618822730,75,Greenhouse Cafe,41484,GB,London,51.513,-0.076
188978561027,4,The Blue Plate,3642,US,Sulphur,30.214,-93.327
180388626496,65,Chef's Corner,7531,GB,London,51.518,-0.128
77309411345,18,The Harvest Room,78190,US,Berea,37.617,-84.346
197568495701,86,The Porch Cafe,24784,GB,London,51.522,-0.108
257698037772,13,The Firehouse,26468,US,Corte Madera,37.93,-122.518
120259084304,17,The Rustic Table,59829,US,Strasburg,39.972,-76.151
51539607559,8,The Green Olive,6934,US,Albuquerque,35.1,-106.668
266287972368,17,The Rustic Table,11263,US,Finleyville,40.252,-80.004
197568495628,13,The Firehouse,24784,US,Springdale,36.17,-94.184
68719476783,48,The Local Cafe,77517,FR,Paris,48.875,2.317
128849018906,27,The Corner Cafe,5679,ES,Barcelona,41.402,2.148
137438953489,18,The Harvest Room,11038,ES,Barcelona,41.403,2.137
266287972413,62,Cafe Luminoso,11263,FR,Paris,48.877,2.343
163208757292,45,The Green Bean,96638,US,Grand Rapids,47.235,-93.518
154618822665,10,The Golden Spoon,41484,US,Santa Barbara,34.429,-119.708
171798691868,29,The Olive Branch,65939,IT,Milan,45.468,9.207
206158430249,42,The Daily Scoop,53370,IT,Milan,45.464,9.195
34359738407,40,Crimson Cafe,50333,AT,Vienna,48.214,16.371
25769803779,4,The Blue Plate,72230,US,Griffin,33.287,-84.292
120259084309,22,The Red Pepper,59829,ES,Barcelona,41.391,2.171
197568495652,37,Cafe Crepe,24784,IT,Milan,45.477,9.184
223338299408,17,The Rustic Table,36937,US,Columbus,40.114,-83.012
240518168649,74,Garden of Eatin',93164,NL,Amsterdam,52.363,4.878
214748364801,2,Bella Cucina,92040,US,Opelousas,30.515,-92.071
111669149721,26,The Silver Spoon,84488,ES,Barcelona,41.385,2.138
111669149709,14,The Gourmet Garden,84488,US,Monterey,36.601,-121.896
137438953484,13,The Firehouse,11038,US,Fort Collins,40.583,-105.008
231928233993,10,The Golden Spoon,33573,US,St. Robert,37.823,-92.141
240518168607,32,The Orange Peeler,93164,ES,Barcelona,41.394,2.168
17179869257,74,Garden of Eatin',10902,GB,London,51.51,-0.155
103079215166,63,Cafe Paris,4340,GB,London,51.499,-0.143
188978561083,60,Big City Grill,3642,FR,Paris,48.862,2.362
137438953508,37,Cafe Crepe,11038,AT,Vienna,48.208,16.353
60129542213,70,Earth and Vine,71555,NL,Amsterdam,52.359,4.926
111669149725,30,The Wine Cellar,84488,ES,Barcelona,41.407,2.144
180388626477,46,The Italian Table,7531,FR,Paris,48.86,2.318
240518168614,39,Cinnamon Grill,93164,US,American Falls,42.776,-112.859
171798691875,36,Blue Ocean Grill,65939,AT,Vienna,48.192,16.399
111669149753,58,A Tasty Bite,84488,GB,London,51.509,-0.142
180388626463,32,The Orange Peeler,7531,IT,Milan,45.447,9.209
188978561076,53,The Red Rooster,3642,AT,Vienna,48.224,16.314
214748364839,40,Crimson Cafe,92040,AT,Vienna,48.185,16.405
94489280527,16,The Spice Tree,95399,US,Reston,38.959,-77.356
154618822659,4,The Blue Plate,41484,US,Floresville,29.143,-98.155
40,41,The Daily Bread,47732,US,Saint Cloud,45.561,-94.156
137438953482,11,The Flaming Wok,11038,US,Lanham,38.961,-76.862
180388626467,36,Blue Ocean Grill,7531,IT,Milan,45.502,9.228
266287972397,46,The Italian Table,11263,US,Columbia Falls,48.364,-114.152
223338299410,19,The Tasting Room,36937,US,North Platte,41.135,-100.757
68719476764,29,The Olive Branch,77517,IT,Milan,45.438,9.231
240518168589,14,The Gourmet Garden,93164,US,Bryson City,35.34,-83.56
266287972400,49,The Olive Tree,11263,FR,Paris,48.85,2.324
128849018888,9,The Grill House,5679,US,Hopkinsville,36.811,-87.495
137438953521,50,The Pancake House,11038,GB,London,51.495,-0.189
120259084319,32,The Orange Peeler,59829,US,Ironwood,46.463,-90.162
223338299393,2,Bella Cucina,36937,US,Kailua Kona,19.63,-155.989
120259084348,61,Blue Water Bistro,59829,GB,London,51.521,-0.131
94489280537,26,The Silver Spoon,95399,ES,Barcelona,41.393,2.165
128849018885,6,The Daily Grind,5679,US,Raleigh,35.95,-78.543
42949672976,17,The Rustic Table,89646,US,New Castle,39.698,-75.551
197568495651,36,Blue Ocean Grill,24784,US,Brookings,44.311,-96.763
52,53,The Red Rooster,47732,FR,Paris,48.871,2.352
171798691897,58,A Tasty Bite,65939,GB,Paddington,51.515,-0.178
154618822666,11,The Flaming Wok,41484,US,Olive Branch,34.964,-89.857
257698037768,9,The Grill House,26468,US,North Myrtle Beach,33.791,-78.735
17179869203,20,The Brasserie,10902,US,College Park,38.996,-76.904
94489280528,17,The Rustic Table,95399,US,Plainfield,39.675,-86.367
146028888149,86,The Porch Cafe,70611,NL,Amsterdam,52.373,4.89
206158430290,83,The Pantry,53370,GB,London,51.511,-0.124
137438953485,14,The Gourmet Garden,11038,US,Walden,40.73,-106.282
188978561077,54,The Spice House,3642,FR,Paris,48.834,2.319
1,2,Bella Cucina,47732,US,Beaumont,30.039,-94.159
68719476770,35,Basilica Bistro,77517,IT,Milan,45.489,9.183
25769803835,60,Big City Grill,72230,GB,London,51.494,-0.136
154618822700,45,The Green Bean,41484,US,Mott,46.375,-102.336
17179869214,31,Bistro 42,10902,US,Wakonda,43.009,-97.108
171798691878,39,Cinnamon Grill,65939,AT,Vienna,48.211,16.368
103079215151,48,The Local Cafe,4340,US,Spokane,47.686,-117.411
146028888099,36,Blue Ocean Grill,70611,US,Oscoda,44.408,-83.328
137438953524,53,The Red Rooster,11038,GB,London,51.511,-0.131
188978561080,57,The Yellow Submarine,3642,FR,Paris,48.85,2.38
49,50,The Pancake House,47732,FR,Paris,48.865,2.289
137438953497,26,The Silver Spoon,11038,IT,Milan,45.464,9.207
231928234034,51,The Pizzeria,33573,GB,London,51.506,-0.145
137438953505,34,The Tasty Treat,11038,AT,Vienna,48.182,16.381
17179869195,12,The Wooden Spoon,10902,US,Dahlonega,34.525,-83.976
8589934622,31,Bistro 42,12630,US,Black River Falls,44.298,-90.82
266287972415,64,Chateau de Cuisine,11263,FR,Paris,48.881,2.338
25769803783,8,The Green Olive,72230,US,Los Olivos,34.665,-120.115
94489280565,54,The Spice House,95399,GB,London,51.497,-0.206
137438953531,60,Big City Grill,11038,NL,Amsterdam,52.349,4.894
25769803815,40,Crimson Cafe,72230,IT,Milan,45.453,9.196
137438953512,41,The Daily Bread,11038,FR,Paris,48.838,2.323
17179869253,70,Earth and Vine,10902,GB,London,51.499,-0.079
197568495632,17,The Rustic Table,24784,US,Ely,39.248,-114.891
60129542182,39,Cinnamon Grill,71555,AT,Vienna,48.21,16.366
231928234013,30,The Wine Cellar,33573,IT,Milan,45.479,9.145
266287972430,79,The Huckleberry Cafe,11263,GB,London,51.536,-0.19
240518168603,28,The Spicy Pickle,93164,ES,Barcelona,41.386,2.195
180388626474,43,The Food House,7531,FR,Paris,48.847,2.322
137438953480,9,The Grill House,11038,US,San Francisco,37.8,-122.436
163208757307,60,Big City Grill,96638,FR,Paris,48.874,2.29
60129542147,4,The Blue Plate,71555,US,Georgetown,33.424,-79.274
60,61,Blue Water Bistro,47732,GB,London,51.508,-0.273
240518168593,18,The Harvest Room,93164,US,Arlington,38.895,-77.072
25769803793,18,The Harvest Room,72230,US,Englewood,41.001,28.803
240518168639,64,Chateau de Cuisine,93164,FR,Paris,48.871,2.319
154618822694,39,Cinnamon Grill,41484,IT,Milan,45.479,9.204
60129542198,55,The Steak House,71555,US,Irving,48.887,2.301
171798691870,31,Bistro 42,65939,IT,Milan,45.483,9.167
25769803792,17,The Rustic Table,72230,US,Elko,40.844,-115.751
197568495656,41,The Daily Bread,24784,IT,Milan,45.486,9.2
120259084347,60,Big City Grill,59829,GB,London,51.513,-0.148
94489280544,33,The Blue Elephant,95399,US,Ogunquit,43.256,-70.6
163208757264,17,The Rustic Table,96638,US,Bowie,38.943,-76.717
146028888097,34,The Tasty Treat,70611,US,Ames,43.802,11.298
17179869246,63,Cafe Paris,10902,FR,Paris,48.873,2.293
85899345927,8,The Green Olive,18952,US,Macon,32.805,-83.723
34359738428,61,Blue Water Bistro,50333,GB,London,51.496,-0.183
128849018882,3,Spice Bazaar,5679,US,Avalon,33.365,-118.382
231928233985,2,Bella Cucina,33573,US,San Marcos,29.825,-97.99
34359738431,64,Chateau de Cuisine,50333,GB,London,51.508,0.025
34359738376,9,The Grill House,50333,US,San Jose,37.523,15.06
249108103218,51,The Pizzeria,55897,AT,Vienna,48.213,16.347
214748364815,16,The Spice Tree,92040,US,Dayton,39.85,-84.189
163208757309,62,Cafe Luminoso,96638,FR,Paris,48.889,2.35
266287972382,31,Bistro 42,11263,US,Chicago,41.88,-87.641
103079215176,73,Fresh Harvest,4340,GB,London,51.531,-0.126
60129542209,66,City Bites,71555,GB,London,51.532,-0.062
77309411391,64,Chateau de Cuisine,78190,GB,London,51.513,-0.085
171798691890,51,The Pizzeria,65939,FR,Paris,48.882,2.341
171798691851,12,The Wooden Spoon,65939,US,O Fallon,38.8,-90.679
257698037820,61,Blue Water Bistro,26468,FR,Paris,48.882,2.337
8589934637,46,The Italian Table,12630,FR,Paris,48.868,2.33
146028888067,4,The Blue Plate,70611,US,Houston,29.837,-95.488
180388626459,28,The Spicy Pickle,7531,US,Cody,44.517,-109.081
197568495698,83,The Pantry,24784,GB,London,51.515,-0.082
25769803819,44,The French Kitchen,72230,IT,Milan,45.5,9.206
111669149732,37,Cafe Crepe,84488,AT,Vienna,48.151,16.406
9,10,The Golden Spoon,47732,US,Springdale,37.197,-112.992
111669149726,31,Bistro 42,84488,US,Manassas,41.697,8.899
42949673020,61,Blue Water Bistro,89646,FR,Paris,48.889,2.395
240518168601,26,The Silver Spoon,93164,ES,Barcelona,41.373,2.154
42949673024,65,Chef's Corner,89646,GB,Paddington,51.515,-0.174
188978561073,50,The Pancake House,3642,AT,Vienna,48.209,16.372
197568495619,4,The Blue Plate,24784,US,San Antonio,29.504,-98.482
266287972354,3,Spice Bazaar,11263,US,Jupiter,26.935,-80.086
163208757287,40,Crimson Cafe,96638,US,Gaylord,45.028,-84.664
163208757284,37,Cafe Crepe,96638,US,Hampton,42.902,-70.815
51539607575,24,The Fisherman's Catch,6934,ES,Barcelona,41.392,2.157
11,12,The Wooden Spoon,47732,US,Kansas City,39.307,-94.684
231928234029,46,The Italian Table,33573,FR,Paris,48.868,2.3
25769803801,26,The Silver Spoon,72230,ES,Barcelona,41.401,2.209
137438953472,1,Savoria,11038,US,Dallas,32.644,-96.857
197568495702,87,The Red Hen,24784,GB,London,51.527,-0.08
42949672999,40,Crimson Cafe,89646,IT,Milan,45.485,9.16
77309411385,58,A Tasty Bite,78190,GB,London,51.494,-0.191
146028888078,15,The Pearl Kitchen,70611,US,Glasgow,36.955,-85.962
188978561063,40,Crimson Cafe,3642,IT,Milan,45.469,9.214
180388626456,25,The Cozy Cafe,7531,US,Alma,43.377,-84.607
128849018951,72,Flamingo Cafe,5679,GB,London,51.513,-0.193
197568495665,50,The Pancake House,24784,FR,Paris,48.838,2.321
266287972353,2,Bella Cucina,11263,US,Honolulu,21.282,-157.831
154618822696,41,The Daily Bread,41484,IT,Milan,45.485,9.183
240518168592,17,The Rustic Table,93164,US,Ocean City,38.432,-75.054
42949673000,41,The Daily Bread,89646,IT,Milan,45.485,9.206
60129542149,6,The Daily Grind,71555,US,Jasper,33.846,-87.259
103079215104,1,Savoria,4340,US,Kapaa,22.043,-159.338
188978561044,21,The Lazy Daisy,3642,US,Mammoth Lakes,37.643,-118.993
266287972402,51,The Pizzeria,11263,FR,Paris,48.854,2.307
188978561092,69,Dragonfly Cafe,3642,GB,London,51.501,-0.217
25769803805,30,The Wine Cellar,72230,US,Mansfield,41.807,-77.078
34359738377,10,The Golden Spoon,50333,US,Owensboro,37.774,-87.108
240518168646,71,Fire and Spice,93164,GB,London,51.524,-0.138
6,7,Cafe Roma,47732,US,Southport,33.953,-78.052
231928233999,16,The Spice Tree,33573,ES,Barcelona,41.378,2.138
60129542155,12,The Wooden Spoon,71555,US,Albuquerque,35.084,-106.693
111669149719,24,The Fisherman's Catch,84488,ES,Barcelona,41.384,2.141
163208757303,56,The Waffle House,96638,FR,Paris,48.86,2.347
249108103214,47,The Juicy Burger,55897,IT,Milan,45.501,9.138
42949672964,5,The Hungry Hippo,89646,US,Lumberton,34.67,-79.003
8589934663,72,Flamingo Cafe,12630,NL,Amsterdam,52.368,4.896
51539607571,20,The Brasserie,6934,ES,Barcelona,41.381,2.174
8589934631,40,Crimson Cafe,12630,FR,Paris,48.833,2.279
10,11,The Flaming Wok,47732,US,Grand Junction,39.107,-108.544
34359738436,69,Dragonfly Cafe,50333,GB,London,51.515,-0.159
36,37,Cafe Crepe,47732,IT,Milan,45.458,9.192
231928234039,56,The Waffle House,33573,NL,Amsterdam,52.342,4.825
266287972391,40,Crimson Cafe,11263,IT,Milan,45.473,9.191
197568495684,69,Dragonfly Cafe,24784,FR,Paris,48.877,2.307
17179869219,36,Blue Ocean Grill,10902,US,Newport,44.674,-124.061
42949672970,11,The Flaming Wok,89646,US,Bella Vista,36.464,-94.252
8589934611,20,The Brasserie,12630,US,Pittsburgh,40.453,-79.932
68719476747,12,The Wooden Spoon,77517,US,Virginia Beach,36.855,-75.976
34359738381,14,The Gourmet Garden,50333,US,Bloomington,40.481,-89.025
128849018927,48,The Local Cafe,5679,FR,Paris,48.839,2.389
188978561052,29,The Olive Branch,3642,ES,Barcelona,41.392,2.173
249108103211,44,The French Kitchen,55897,IT,Milan,45.461,9.154
34359738414,47,The Juicy Burger,50333,FR,Paris,48.855,2.34
257698037776,17,The Rustic Table,26468,US,Vail,39.639,-106.368
103079215138,35,Basilica Bistro,4340,US,Tinley Park,41.557,-87.794
120259084316,29,The Olive Branch,59829,IT,Milan,45.466,9.159
249108103201,34,The Tasty Treat,55897,ES,Barcelona,41.393,2.162
42949673021,62,Cafe Luminoso,89646,GB,London,51.502,-0.185
257698037807,48,The Local Cafe,26468,FR,Paris,48.843,2.331
163208757300,53,The Red Rooster,96638,FR,Vincennes,48.855,2.415
42949672989,30,The Wine Cellar,89646,US,Valentine,42.871,-100.551
146028888082,19,The Tasting Room,70611,US,Mosca,37.654,-105.87
249108103217,50,The Pancake House,55897,AT,Vienna,48.208,16.376
120259084289,2,Bella Cucina,59829,US,Bradenton,27.424,-82.576
60129542161,18,The Harvest Room,71555,US,Fairview Heights,38.602,-89.994
42949673031,72,Flamingo Cafe,89646,NL,Amsterdam,52.376,4.894
0,1,Savoria,47732,US,Indian Rocks Beach,27.85,-82.844
8589934626,35,Basilica Bistro,12630,IT,Milan,45.48,9.149
223338299440,49,The Olive Tree,36937,GB,London,51.502,-0.188
197568495682,67,Crimson and Clover,24784,FR,Paris,48.874,2.35
103079215156,53,The Red Rooster,4340,FR,Paris,48.825,2.357
68719476776,41,The Daily Bread,77517,AT,Vienna,48.214,16.422
214748364828,29,The Olive Branch,92040,US,Pierre,44.376,-100.349
137438953486,15,The Pearl Kitchen,11038,ES,Barcelona,41.385,2.157
128849018890,11,The Flaming Wok,5679,US,Durango,37.304,-107.868
25769803798,23,The Hungry Pig,72230,ES,Barcelona,41.394,2.149
128849018921,42,The Daily Scoop,5679,US,Eagle River,45.915,-89.274
128849018945,66,City Bites,5679,GB,London,51.495,-0.178
154618822737,82,The Palate,41484,NL,Amsterdam,52.385,4.894
231928234000,17,The Rustic Table,33573,ES,Barcelona,41.386,2.151
240518168645,70,Earth and Vine,93164,GB,London,51.521,-0.078
223338299444,53,The Red Rooster,36937,GB,London,51.514,-0.122
120259084349,62,Cafe Luminoso,59829,GB,London,51.532,-0.11
146028888118,55,The Steak House,70611,AT,Vienna,48.208,16.372
60129542204,61,Blue Water Bistro,71555,GB,London,51.516,-0.157
154618822739,84,The Pink Door,41484,NL,Amsterdam,52.387,4.835
34359738432,65,Chef's Corner,50333,GB,London,51.508,0.036
68719476766,31,Bistro 42,77517,IT,Milan,45.45,9.17
240518168610,35,Basilica Bistro,93164,US,Des Moines,41.522,-93.645
206158430288,81,The Oak Room,53370,GB,London,51.509,-0.137
68719476792,57,The Yellow Submarine,77517,GB,London,51.514,-0.156
206158430270,63,Cafe Paris,53370,FR,Paris,48.864,2.336
180388626473,42,The Daily Scoop,7531,FR,Paris,48.844,2.329
188978561042,19,The Tasting Room,3642,US,Lamar,37.487,-94.299
17179869197,14,The Gourmet Garden,10902,US,Alamosa,37.481,-105.906
77309411365,38,Cafe Viva,78190,US,Saint Ignace,45.876,-84.732
34359738408,41,The Daily Bread,50333,AT,Vienna,48.22,16.386
17179869206,23,The Hungry Pig,10902,US,Pittsburgh,40.451,-80.106
197568495700,85,The Plum Cafe,24784,GB,London,51.521,-0.292
128849018886,7,Cafe Roma,5679,US,Seiling,36.144,-98.925
85899345934,15,The Pearl Kitchen,18952,US,Saint Charles,38.771,-90.495
60129542167,24,The Fisherman's Catch,71555,US,Bayside,40.762,-73.761
85899345926,7,Cafe Roma,18952,US,Wellton,32.673,-114.146
120259084330,43,The Food House,59829,FR,Paris,48.87,2.294
42949672978,19,The Tasting Room,89646,US,Fort Wayne,41.132,-85.157
60129542207,64,Chateau de Cuisine,71555,GB,London,51.526,-0.118
146028888091,28,The Spicy Pickle,70611,ES,Barcelona,41.397,2.192
266287972378,27,The Corner Cafe,11263,ES,Barcelona,41.396,2.166
249108103168,1,Savoria,55897,US,Miami Beach,25.774,-80.132
68719476742,7,Cafe Roma,77517,US,San Clemente,33.438,-117.622
60129542158,15,The Pearl Kitchen,71555,US,Oklahoma City,35.463,-97.601
171798691860,21,The Lazy Daisy,65939,ES,Barcelona,41.411,2.187
94489280573,62,Cafe Luminoso,95399,NL,Amsterdam,52.36,4.881
68719476774,39,Cinnamon Grill,77517,AT,Vienna,48.201,16.365
103079215159,56,The Waffle House,4340,FR,Paris,48.866,2.367
180388626498,67,Crimson and Clover,7531,GB,London,51.574,-0.098
163208757282,35,Basilica Bistro,96638,US,Ithaca,42.436,-76.508
154618822689,34,The Tasty Treat,41484,US,Boise,43.569,-116.216
163208757308,61,Blue Water Bistro,96638,FR,Paris,48.879,2.339
240518168622,47,The Juicy Burger,93164,IT,Milan,45.463,9.184
51539607601,50,The Pancake House,6934,FR,Paris,48.874,2.3
206158430276,69,Dragonfly Cafe,53370,FR,Paris,48.882,2.313
13,14,The Gourmet Garden,47732,US,Champaign,40.131,-88.244
34359738396,29,The Olive Branch,50333,IT,Milan,45.471,9.157
53,54,The Spice House,47732,FR,Paris,48.873,2.349
188978561028,5,The Hungry Hippo,3642,US,Enterprise,31.327,-85.836
231928234015,32,The Orange Peeler,33573,IT,Milan,45.516,9.227
206158430279,72,Flamingo Cafe,53370,GB,London,51.493,-0.127
120259084300,13,The Firehouse,59829,US,Branson,36.633,-93.272
17179869184,1,Savoria,10902,US,Arvada,-8.7,115.164
206158430236,29,The Olive Branch,53370,ES,Barcelona,41.396,2.162
180388626455,24,The Fisherman's Catch,7531,US,Hobart,42.99,-78.742
214748364810,11,The Flaming Wok,92040,US,Jellico,36.588,-84.127
214748364818,19,The Tasting Room,92040,US,Bowlinggreen,41.374,-83.608
137438953473,2,Bella Cucina,11038,US,Grand Prairie,32.784,-97.06
103079215157,54,The Spice House,4340,FR,Paris,48.847,2.283
146028888148,85,The Plum Cafe,70611,NL,Amsterdam,52.37,4.861
266287972432,81,The Oak Room,11263,GB,London,51.546,-0.055
249108103209,42,The Daily Scoop,55897,US,Tigerton,44.75,-89.066
60129542206,63,Cafe Paris,71555,GB,London,51.52,-0.158
266287972410,59,Azalea Cafe,11263,FR,Paris,48.872,2.297
257698037817,58,A Tasty Bite,26468,FR,Paris,48.871,2.343
85899345933,14,The Gourmet Garden,18952,US,Rohnert Park,38.364,-122.715
8589934639,48,The Local Cafe,12630,FR,Paris,48.875,2.326
146028888146,83,The Pantry,70611,NL,Amsterdam,52.335,4.889
266287972407,56,The Waffle House,11263,FR,Paris,48.871,2.298
77309411379,52,The Red Door,78190,FR,Paris,48.868,2.321
154618822705,50,The Pancake House,41484,AT,Vienna,48.211,16.374
154618822715,60,Big City Grill,41484,FR,Paris,48.874,2.322
249108103237,70,Earth and Vine,55897,GB,London,51.519,-0.135
197568495620,5,The Hungry Hippo,24784,US,Mobile,30.688,-88.041
85899345974,55,The Steak House,18952,GB,London,51.494,-0.188
17179869190,7,Cafe Roma,10902,US,Duluth,33.951,-84.125
137438953528,57,The Yellow Submarine,11038,GB,London,51.527,-0.132
180388626502,71,Fire and Spice,7531,NL,Amsterdam,52.368,4.868
128849018933,54,The Spice House,5679,FR,Paris,48.866,2.326
42949673014,55,The Steak House,89646,FR,Paris,48.872,2.303
120259084323,36,Blue Ocean Grill,59829,FR,Paris,48.832,2.354
128849018953,74,Garden of Eatin',5679,GB,London,51.524,-0.185
214748364865,66,City Bites,92040,GB,London,51.49,-0.138
137438953530,59,Azalea Cafe,11038,NL,Amsterdam,52.338,4.818
257698037764,5,The Hungry Hippo,26468,US,New Orleans,29.952,-90.071
188978561030,7,Cafe Roma,3642,US,Jacksonville,31.965,-95.255
171798691881,42,The Daily Scoop,65939,FR,Paris,48.846,2.324
103079215167,64,Chateau de Cuisine,4340,GB,London,51.505,-0.126
128849018920,41,The Daily Bread,5679,IT,Milan,45.502,9.222
163208757318,71,Fire and Spice,96638,GB,London,51.522,-0.153
249108103182,15,The Pearl Kitchen,55897,US,Marina,36.699,-121.806
266287972370,19,The Tasting Room,11263,US,Percival,40.69,-95.789
214748364809,10,The Golden Spoon,92040,US,El Reno,35.505,-97.973
180388626460,29,The Olive Branch,7531,US,Gaylord,44.556,-94.224
180388626464,33,The Blue Elephant,7531,IT,Milan,45.478,9.203
163208757267,20,The Brasserie,96638,US,Bellmawr,39.864,-75.078
103079215133,30,The Wine Cellar,4340,US,Drums,41.033,-75.953
171798691869,30,The Wine Cellar,65939,IT,Milan,45.469,9.195
197568495695,80,The Market Cafe,24784,GB,London,51.505,-0.099
29,30,The Wine Cellar,47732,US,Canyonville,42.944,-123.291
128849018932,53,The Red Rooster,5679,FR,Paris,48.858,2.28
197568495661,46,The Italian Table,24784,AT,Vienna,48.195,16.384
137438953483,12,The Wooden Spoon,11038,US,Denver,39.915,-104.993
17179869201,18,The Harvest Room,10902,US,Rehoboth Beach,38.717,-75.082
103079215122,19,The Tasting Room,4340,US,Emporia,36.707,-77.56
128849018912,33,The Blue Elephant,5679,US,Camden,44.202,-69.075
163208757251,4,The Blue Plate,96638,US,Vicksburg,32.314,-90.899
51539607595,44,The French Kitchen,6934,FR,Paris,48.863,2.338
94489280570,59,Azalea Cafe,95399,GB,London,51.52,-0.122
68719476739,4,The Blue Plate,77517,US,Junction,30.494,-99.778
94489280553,42,The Daily Scoop,95399,FR,Paris,48.866,2.283
146028888093,30,The Wine Cellar,70611,US,Albany,42.687,-73.815
146028888141,78,The Hot Spot,70611,GB,London,51.503,-0.152
68719476794,59,Azalea Cafe,77517,GB,London,51.516,-0.18
206158430217,10,The Golden Spoon,53370,US,Barstow,34.891,-117.003
214748364829,30,The Wine Cellar,92040,US,Eau Claire,44.844,-91.596
231928233997,14,The Gourmet Garden,33573,US,Stirling City,39.904,-121.527
206158430228,21,The Lazy Daisy,53370,US,Exton,40.362,-75.626
231928234037,54,The Spice House,33573,GB,London,51.517,-0.07
154618822690,35,Basilica Bistro,41484,US,Clare,43.83,-84.788
77309411374,47,The Juicy Burger,78190,FR,Paris,48.858,2.353
180388626481,50,The Pancake House,7531,FR,Paris,48.871,2.33
231928234003,20,The Brasserie,33573,ES,Barcelona,41.405,2.129
188978561037,14,The Gourmet Garden,3642,US,Chattanooga,34.991,-85.208
163208757286,39,Cinnamon Grill,96638,US,Spearfish,44.48,-103.814
223338299426,35,Basilica Bistro,36937,US,Jamestown,46.882,-98.715
188978561033,10,The Golden Spoon,3642,US,Hope,33.684,-93.612
163208757323,76,Happy Hour Cafe,96638,NL,Amsterdam,52.371,4.894
60129542170,27,The Corner Cafe,71555,ES,Barcelona,41.382,2.184
257698037811,52,The Red Door,26468,FR,Paris,48.864,2.341
146028888127,64,Chateau de Cuisine,70611,FR,Paris,48.861,2.379
68719476773,38,Cafe Viva,77517,US,Kalispell,48.182,-114.305
111669149697,2,Bella Cucina,84488,US,Orlando,28.407,-81.405
8589934607,16,The Spice Tree,12630,US,Burlington,39.299,-102.278
60129542197,54,The Spice House,71555,FR,Paris,48.876,2.359
60129542180,37,Cafe Crepe,71555,AT,Vienna,48.205,16.369
214748364855,56,The Waffle House,92040,FR,Paris,48.865,2.329
42949673017,58,A Tasty Bite,89646,FR,Paris,48.876,2.3
111669149703,8,The Green Olive,84488,US,Birmingham,33.52,-86.809
206158430271,64,Chateau de Cuisine,53370,FR,Paris,48.864,2.366
25769803797,22,The Red Pepper,72230,ES,Barcelona,41.392,2.162
111669149728,33,The Blue Elephant,84488,US,Brockton,42.064,-71.058
154618822683,28,The Spicy Pickle,41484,US,Narragansett,41.432,-71.462
85899345984,65,Chef's Corner,18952,GB,London,51.537,-0.002
249108103185,18,The Harvest Room,55897,US,San Francisco,37.792,-122.401
34359738440,73,Fresh Harvest,50333,NL,Amsterdam,52.354,4.866
206158430265,58,A Tasty Bite,53370,FR,Paris,48.844,2.316
249108103215,48,The Local Cafe,55897,IT,Milan,45.514,9.119
103079215170,67,Crimson and Clover,4340,GB,London,51.51,-0.188
51539607606,55,The Steak House,6934,GB,London,51.513,-0.187
94489280551,40,Crimson Cafe,95399,FR,Paris,48.838,2.306
146028888142,79,The Huckleberry Cafe,70611,GB,London,51.507,-0.129
8589934651,60,Big City Grill,12630,GB,London,51.497,-0.158
25769803816,41,The Daily Bread,72230,IT,Milan,45.466,9.192
163208757297,50,The Pancake House,96638,AT,Vienna,48.234,16.421
266287972376,25,The Cozy Cafe,11263,ES,Barcelona,41.394,2.164
188978561058,35,Basilica Bistro,3642,US,Madison,43.073,-89.44
66,67,Crimson and Clover,47732,NL,Amsterdam,52.35,4.876
146028888096,33,The Blue Elephant,70611,US,Decorah,43.292,-91.797
214748364873,74,Garden of Eatin',92040,GB,London,51.517,-0.137
60129542199,56,The Waffle House,71555,GB,London,51.474,-0.019
94489280559,48,The Local Cafe,95399,FR,Paris,48.873,2.336
188978561102,79,The Huckleberry Cafe,3642,GB,London,51.583,-0.217
180388626440,9,The Grill House,7531,US,Max Meadows,36.941,-80.944
128849018948,69,Dragonfly Cafe,5679,GB,London,51.508,-0.144
51539607577,26,The Silver Spoon,6934,US,Archbald,41.494,-75.592
171798691880,41,The Daily Bread,65939,FR,Paris,48.845,2.352
154618822669,14,The Gourmet Garden,41484,US,Franklin,35.911,-86.823
111669149716,21,The Lazy Daisy,84488,US,Bloomington,40.46,-88.977
231928234044,61,Blue Water Bistro,33573,US,Harleigh,54.153,11.754
180388626492,61,Blue Water Bistro,7531,GB,London,51.508,-0.155
85899345922,3,Spice Bazaar,18952,US,West Palm Beach,26.691,-80.073
103079215158,55,The Steak House,4340,FR,Paris,48.861,2.343
8589934638,47,The Juicy Burger,12630,FR,Paris,48.871,2.326
197568495658,43,The Food House,24784,US,Mohawk,47.415,-88.299
34359738409,42,The Daily Scoop,50333,FR,Paris,48.846,2.345
111669149708,13,The Firehouse,84488,US,Yellville,36.105,-92.611
154618822712,57,The Yellow Submarine,41484,FR,Paris,48.861,2.311
206158430241,34,The Tasty Treat,53370,US,Hampton,42.91,-70.813
42949672980,21,The Lazy Daisy,89646,ES,Barcelona,41.384,2.151
154618822708,53,The Red Rooster,41484,FR,Paris,48.853,2.33
43,44,The French Kitchen,47732,AT,Vienna,48.192,16.355
214748364845,46,The Italian Table,92040,FR,Paris 06,48.845,2.321
197568495644,29,The Olive Branch,24784,ES,Barcelona,41.391,2.159
34359738383,16,The Spice Tree,50333,ES,Barcelona,41.38,2.181
77309411341,14,The Gourmet Garden,78190,US,Bull Shoals,36.382,-92.591
171798691846,7,Cafe Roma,65939,US,Rocky Mount,35.979,-77.847
8589934632,41,The Daily Bread,12630,FR,Paris,48.847,2.326
231928234038,55,The Steak House,33573,NL,Amsterdam,52.331,4.877
266287972425,74,Garden of Eatin',11263,GB,London,51.507,0.039
214748364875,76,Happy Hour Cafe,92040,GB,London,51.524,-0.079
266287972398,47,The Juicy Burger,11263,FR,Paris,48.83,2.284
171798691877,38,Cafe Viva,65939,AT,Vienna,48.197,16.367
206158430277,70,Earth and Vine,53370,US,Raymond,50.94,6.961
188978561057,34,The Tasty Treat,3642,US,Fitchburg,42.546,-71.853
171798691892,53,The Red Rooster,65939,US,Northbrook,50.107,8.761
34359738443,76,Happy Hour Cafe,50333,NL,Amsterdam,52.365,4.884
249108103196,29,The Olive Branch,55897,ES,Barcelona,41.383,2.172
128849018942,63,Cafe Paris,5679,GB,London,51.478,-0.014
25769803827,52,The Red Door,72230,FR,Paris,48.857,2.327
8589934659,68,Delish Cafe,12630,NL,Amsterdam,52.334,4.888
60129542211,68,Delish Cafe,71555,NL,Amsterdam,52.347,4.831
85899345923,4,The Blue Plate,18952,US,Bisbee,31.443,-109.913
60129542175,32,The Orange Peeler,71555,ES,Barcelona,41.394,2.112
240518168578,3,Spice Bazaar,93164,US,Houston,29.751,-95.36
197568495660,45,The Green Bean,24784,AT,Vienna,48.183,16.332
8589934628,37,Cafe Crepe,12630,US,Yakima,46.614,-120.512
103079215150,47,The Juicy Burger,4340,IT,Milan,45.488,9.202
128849018904,25,The Cozy Cafe,5679,ES,Barcelona,41.392,2.177
266287972358,7,Cafe Roma,11263,US,Birmingham,33.529,-86.715
171798691874,35,Basilica Bistro,65939,US,Port Angeles,48.11,-123.439
25769803799,24,The Fisherman's Catch,72230,ES,Barcelona,41.394,2.165
25769803821,46,The Italian Table,72230,US,Sumner,47.202,-122.223
51539607583,32,The Orange Peeler,6934,IT,Milan,45.478,9.2
137438953529,58,A Tasty Bite,11038,GB,Woodford Green,51.607,0.059
25769803818,43,The Food House,72230,IT,Milan,45.474,9.196
128849018903,24,The Fisherman's Catch,5679,ES,Barcelona,41.391,2.168
146028888131,68,Delish Cafe,70611,FR,Paris,48.873,2.302
120259084344,57,The Yellow Submarine,59829,GB,London,51.506,-0.14
25769803807,32,The Orange Peeler,72230,US,Southfield,42.472,-83.242
163208757295,48,The Local Cafe,96638,AT,Vienna,48.167,16.345
128849018931,52,The Red Door,5679,FR,Paris,48.852,2.356
60129542178,35,Basilica Bistro,71555,IT,Milan,45.444,9.116
146028888111,48,The Local Cafe,70611,IT,Milan,45.498,9.19
17179869230,47,The Juicy Burger,10902,AT,Vienna,48.207,16.372
17179869247,64,Chateau de Cuisine,10902,FR,Paris,48.875,2.306
68719476772,37,Cafe Crepe,77517,AT,Vienna,48.179,16.363
111669149723,28,The Spicy Pickle,84488,ES,Barcelona,41.391,2.173
120259084292,5,The Hungry Hippo,59829,US,Houston,29.768,-95.46
103079215146,43,The Food House,4340,US,Pembroke,44.956,-67.169
111669149736,41,The Daily Bread,84488,FR,Paris,48.838,2.319
197568495626,11,The Flaming Wok,24784,US,Albuquerque,35.159,-106.585
231928234017,34,The Tasty Treat,33573,US,Seattle,47.661,-122.314
77309411363,36,Blue Ocean Grill,78190,US,Forest Grove,45.521,-123.078
266287972404,53,The Red Rooster,11263,FR,Paris,48.861,2.301
214748364834,35,Basilica Bistro,92040,IT,Milan,45.462,9.181
8589934653,62,Cafe Luminoso,12630,GB,London,51.505,-0.226
5,6,The Daily Grind,47732,US,Columbus,33.514,-88.426
240518168647,72,Flamingo Cafe,93164,GB,London,51.559,-0.285
85899345963,44,The French Kitchen,18952,AT,Vienna,48.216,16.36
180388626466,35,Basilica Bistro,7531,IT,Milan,45.5,9.143
25769803823,48,The Local Cafe,72230,AT,Vienna,48.206,16.378
77309411372,45,The Green Bean,78190,FR,Paris,48.852,2.374
19,20,The Brasserie,47732,ES,Barcelona,41.378,2.176
249108103221,54,The Spice House,55897,FR,Paris,48.838,2.315
231928234008,25,The Cozy Cafe,33573,US,Effingham,43.741,-71.115
68719476757,22,The Red Pepper,77517,ES,Barcelona,41.434,2.147
163208757280,33,The Blue Elephant,96638,ES,Barcelona,41.399,2.144
188978561039,16,The Spice Tree,3642,US,Gallup,35.5,-108.728
120259084321,34,The Tasty Treat,59829,AT,Vienna,48.197,16.341
266287972416,65,Chef's Corner,11263,FR,Paris,48.883,2.298
42949672992,33,The Blue Elephant,89646,US,Albert Lea,43.65,-93.369
163208757261,14,The Gourmet Garden,96638,US,Ruther Glen,37.933,-77.476
103079215108,5,The Hungry Hippo,4340,US,Gulfport,30.425,-89.093
163208757273,26,The Silver Spoon,96638,ES,Barcelona,41.368,2.19
214748364830,31,Bistro 42,92040,US,Minneapolis,44.852,-93.24
249108103190,23,The Hungry Pig,55897,US,Carnegie,40.406,-80.089
197568495637,22,The Red Pepper,24784,US,Indianapolis,39.888,-86.265
154618822718,63,Cafe Paris,41484,GB,London,51.491,-0.145
249108103226,59,Azalea Cafe,55897,FR,Paris,48.869,2.321
146028888138,75,Greenhouse Cafe,70611,GB,London,51.497,-0.168
25769803788,13,The Firehouse,72230,US,East Saint Louis,38.629,-90.175
214748364850,51,The Pizzeria,92040,FR,Paris,48.852,2.339
163208757294,47,The Juicy Burger,96638,AT,Vienna,48.154,16.283
240518168602,27,The Corner Cafe,93164,ES,Barcelona,41.38,2.143
154618822713,58,A Tasty Bite,41484,FR,Paris,48.872,2.345
249108103176,9,The Grill House,55897,US,Kiowa,34.719,-95.9
2,3,Spice Bazaar,47732,US,Hammond,30.518,-90.501
103079215130,27,The Corner Cafe,4340,US,Eagle,39.66,-106.83
180388626435,4,The Blue Plate,7531,US,San Diego,32.724,-117.168
146028888105,42,The Daily Scoop,70611,IT,Milan,45.46,9.177
180388626486,55,The Steak House,7531,GB,London,51.481,-0.007
94489280518,7,Cafe Roma,95399,US,Madisonville,35.506,-84.37
180388626482,51,The Pizzeria,7531,FR,Paris,48.874,2.32
103079215161,58,A Tasty Bite,4340,FR,Paris,48.872,2.328
128849018899,20,The Brasserie,5679,ES,Barcelona,41.379,2.156
63,64,Chateau de Cuisine,47732,GB,London,51.514,-0.157
94489280560,49,The Olive Tree,95399,FR,Paris,48.879,2.358
240518168581,6,The Daily Grind,93164,US,Tucson,32.314,-110.977
111669149733,38,Cafe Viva,84488,AT,Vienna,48.187,16.344
180388626475,44,The French Kitchen,7531,FR,Paris,48.852,2.349
206158430211,4,The Blue Plate,53370,US,Houston,29.94,-95.362
146028888066,3,Spice Bazaar,70611,US,Weslaco,26.172,-97.959
103079215149,46,The Italian Table,4340,IT,Milan,45.464,9.194
94489280567,56,The Waffle House,95399,GB,London,51.512,-0.182
197568495685,70,Earth and Vine,24784,FR,Paris,48.88,2.32
214748364806,7,Cafe Roma,92040,US,Cypress,33.832,-118.024
12,13,The Firehouse,47732,US,Athens,39.354,-81.999
146028888117,54,The Spice House,70611,AT,Vienna,48.201,16.339
120259084337,50,The Pancake House,59829,GB,London,51.494,-0.207
266287972355,4,The Blue Plate,11263,US,San Antonio,29.414,-98.71
249108103189,22,The Red Pepper,55897,US,Harrisburg,40.278,-76.821
137438953526,55,The Steak House,11038,GB,London,51.515,-0.157
180388626495,64,Chateau de Cuisine,7531,GB,London,51.518,-0.15
34359738385,18,The Harvest Room,50333,ES,Barcelona,41.401,2.21
51539607578,27,The Corner Cafe,6934,US,Woodstock,42.04,-74.121
188978561032,9,The Grill House,3642,US,Pawleys Island,33.47,-79.098
249108103186,19,The Tasting Room,55897,US,Springfield,37.957,-122.331
17179869205,22,The Red Pepper,10902,US,Jennerstown,40.164,-79.079
8589934657,66,City Bites,12630,GB,London,51.52,-0.125
51539607591,40,Crimson Cafe,6934,AT,Donauinsel,48.232,16.417
120259084328,41,The Daily Bread,59829,FR,Paris,48.86,2.323
171798691849,10,The Golden Spoon,65939,US,Sunnyvale,37.352,-122.003
171798691884,45,The Green Bean,65939,FR,Paris,48.852,2.345
266287972362,11,The Flaming Wok,11263,US,Osage Beach,38.127,-92.665
180388626447,16,The Spice Tree,7531,US,Portland,40.439,-84.994
120259084346,59,Azalea Cafe,59829,GB,London,51.511,-0.184
137438953490,19,The Tasting Room,11038,US,Cedar Rapids,42.03,-91.652
25769803846,71,Fire and Spice,72230,NL,Amsterdam,52.372,4.887
128849018918,39,Cinnamon Grill,5679,IT,Milan,45.466,9.191
68719476790,55,The Steak House,77517,GB,London,51.513,-0.1
34359738437,70,Earth and Vine,50333,GB,London,51.537,-0.192
17179869234,51,The Pizzeria,10902,FR,Paris,48.838,2.381
249108103177,10,The Golden Spoon,55897,US,Boiling Springs,35.011,-81.955
8589934600,9,The Grill House,12630,US,Ballentine,36.715,-4.426
8589934648,57,The Yellow Submarine,12630,GB,London,51.494,-0.245
111669149722,27,The Corner Cafe,84488,ES,Barcelona,41.386,2.176
197568495703,88,The Royal Cafe,24784,NL,Amsterdam,52.368,4.883
240518168595,20,The Brasserie,93164,US,Kansas City,39.309,-94.683
266287972383,32,The Orange Peeler,11263,US,Rockford,42.273,-88.967
85899345954,35,Basilica Bistro,18952,IT,Milan,45.451,9.161
111669149742,47,The Juicy Burger,84488,FR,Paris,48.867,2.286
94489280568,57,The Yellow Submarine,95399,GB,London,51.518,-0.135
56,57,The Yellow Submarine,47732,GB,London,51.42,-0.211
257698037833,74,Garden of Eatin',26468,NL,Amsterdam,52.37,4.903
128849018911,32,The Orange Peeler,5679,US,Harmony,43.561,-92.011
146028888122,59,Azalea Cafe,70611,FR,Paris,48.835,2.326
51539607584,33,The Blue Elephant,6934,IT,Milan,45.481,9.19
223338299438,47,The Juicy Burger,36937,GB,London,51.493,-0.157
25769803817,42,The Daily Scoop,72230,IT,Milan,45.467,9.143
28,29,The Olive Branch,47732,US,Sioux City,42.508,-96.374
17179869231,48,The Local Cafe,10902,AT,Vienna,48.208,16.368
68719476771,36,Blue Ocean Grill,77517,IT,Milan,45.512,9.124
77309411394,67,Crimson and Clover,78190,GB,London,51.519,-0.132
120259084288,1,Savoria,59829,US,Miami,25.764,-80.266
128849018916,37,Cafe Crepe,5679,IT,Milan,45.452,9.205
137438953507,36,Blue Ocean Grill,11038,AT,Vienna,48.196,16.396
171798691886,47,The Juicy Burger,65939,FR,Paris,48.862,2.341
163208757305,58,A Tasty Bite,96638,FR,Paris,48.87,2.297
163208757262,15,The Pearl Kitchen,96638,US,Sainte Genevieve,37.968,-90.057
163208757256,9,The Grill House,96638,US,Robinsonville,34.819,-90.412
197568495697,82,The Palate,24784,GB,London,51.51,-0.191
240518168576,1,Savoria,93164,US,Bristol,19.435,-99.147
60129542201,58,A Tasty Bite,71555,GB,London,51.509,-0.016
51539607596,45,The Green Bean,6934,FR,Paris,48.865,2.305
257698037777,18,The Harvest Room,26468,US,Garberville,40.102,-123.794
111669149745,50,The Pancake House,84488,FR,Paris,48.871,2.361
42949672975,16,The Spice Tree,89646,US,Fort Bragg,39.426,-123.803
77309411397,70,Earth and Vine,78190,US,Juneau,58.3,-134.406
146028888150,87,The Red Hen,70611,US,East Hickory,52.674,13.569
17179869228,45,The Green Bean,10902,AT,Vienna,48.203,16.367
163208757296,49,The Olive Tree,96638,AT,Vienna,48.202,16.379
257698037760,1,Savoria,26468,US,Fort Lauderdale,26.174,-80.1
223338299448,57,The Yellow Submarine,36937,NL,Amsterdam,52.292,4.944
180388626501,70,Earth and Vine,7531,NL,Amsterdam,52.366,4.899
188978561068,45,The Green Bean,3642,US,Mobridge,45.537,-100.424
42949673011,52,The Red Door,89646,FR,Paris,48.869,2.337
146028888102,39,Cinnamon Grill,70611,US,Shakopee,44.801,-93.509
94489280547,36,Blue Ocean Grill,95399,US,Spearfish,44.476,-103.848
8589934634,43,The Food House,12630,FR,Paris,48.864,2.369
180388626448,17,The Rustic Table,7531,ES,El Prat de Llobregat,41.328,2.113
188978561082,59,Azalea Cafe,3642,FR,Paris,48.854,2.34
77309411356,29,The Olive Branch,78190,US,Saginaw,43.484,-83.969
77309411348,21,The Lazy Daisy,78190,US,Columbia,38.961,-92.289
163208757272,25,The Cozy Cafe,96638,US,Wilmington,41.346,-88.196
94489280522,11,The Flaming Wok,95399,US,Metropolis,37.162,-88.691
60129542190,47,The Juicy Burger,71555,FR,Paris,48.863,2.353
146028888123,60,Big City Grill,70611,FR,Paris,48.845,2.342
77309411355,28,The Spicy Pickle,78190,ES,Barcelona,41.396,2.161
197568495680,65,Chef's Corner,24784,FR,Paris,48.869,2.331
146028888068,5,The Hungry Hippo,70611,US,Austin,30.416,-97.744
146028888132,69,Dragonfly Cafe,70611,FR,Paris,48.873,2.354
103079215160,57,The Yellow Submarine,4340,FR,Paris,48.867,2.337
154618822672,17,The Rustic Table,41484,US,Rockaway Beach,36.705,-93.15
51539607558,7,Cafe Roma,6934,US,Inglewood,33.97,-118.356
8589934592,1,Savoria,12630,US,Marathon,24.712,-81.081
188978561090,67,Crimson and Clover,3642,FR,Paris,48.875,2.305
197568495694,79,The Huckleberry Cafe,24784,GB,London,51.496,-0.145
188978561097,74,Garden of Eatin',3642,GB,Paddington,51.521,-0.171
180388626442,11,The Flaming Wok,7531,US,Livermore,37.698,-121.774
34359738411,44,The French Kitchen,50333,FR,Paris,48.849,2.348
120259084338,51,The Pizzeria,59829,GB,London,51.498,-0.146
257698037789,30,The Wine Cellar,26468,US,Cody,44.517,-109.084
197568495633,18,The Harvest Room,24784,US,Castle Rock,39.409,-104.867
60129542212,69,Dragonfly Cafe,71555,NL,Amsterdam,52.349,4.884
15,16,The Spice Tree,47732,US,Steamboat Springs,40.46,-106.804
25769803806,31,Bistro 42,72230,US,Erie,42.047,-80.08
266287972372,21,The Lazy Daisy,11263,US,Kankakee,41.093,-87.869
51539607579,28,The Spicy Pickle,6934,US,Byron Center,42.825,-85.669
8589934595,4,The Blue Plate,12630,US,Santa Maria,34.94,-120.436
77309411377,50,The Pancake House,78190,FR,Paris,48.865,2.335
42949673025,66,City Bites,89646,GB,London,51.522,-0.047
240518168629,54,The Spice House,93164,AT,Vienna,48.211,16.384
154618822660,5,The Hungry Hippo,41484,US,Bunkie,30.953,-92.185
85899345956,37,Cafe Crepe,18952,IT,Milan,45.463,9.198
51539607587,36,Blue Ocean Grill,6934,US,Woodland,45.907,-122.74
206158430275,68,Delish Cafe,53370,FR,Paris,48.876,2.357
197568495669,54,The Spice House,24784,FR,Paris,48.849,2.341
231928234002,19,The Tasting Room,33573,ES,Barcelona,41.39,2.175
94489280566,55,The Steak House,95399,GB,London,51.501,-0.163
8589934643,52,The Red Door,12630,FR,Paris,48.887,2.333
223338299403,12,The Wooden Spoon,36937,US,Norwood,38.159,-108.241
103079215164,61,Blue Water Bistro,4340,GB,London,51.492,-0.196
257698037761,2,Bella Cucina,26468,US,Pharr,26.218,-98.179
223338299431,40,Crimson Cafe,36937,FR,Paris,48.871,2.328
17179869241,58,A Tasty Bite,10902,FR,Paris,48.855,2.325
188978561051,28,The Spicy Pickle,3642,ES,Barcelona,41.383,2.171
111669149711,16,The Spice Tree,84488,US,Sacramento,38.58,-121.494
214748364805,6,The Daily Grind,92040,US,Palm Springs,33.803,-116.543
34359738384,17,The Rustic Table,50333,ES,Barcelona,41.388,2.167
223338299449,58,A Tasty Bite,36937,NL,Amsterdam,52.354,4.888
103079215114,11,The Flaming Wok,4340,US,Atlanta,33.843,-84.315
25769803836,61,Blue Water Bistro,72230,GB,London,51.512,-0.186
94489280564,53,The Red Rooster,95399,GB,London,51.496,-0.181
188978561094,71,Fire and Spice,3642,GB,London,51.505,-0.219
137438953474,3,Spice Bazaar,11038,US,Buena Park,33.858,-118.029
188978561069,46,The Italian Table,3642,AT,Vienna,48.193,16.358
231928234019,36,Blue Ocean Grill,33573,AT,Vienna,48.204,16.356
17179869222,39,Cinnamon Grill,10902,IT,Milan,45.466,9.178
17179869237,54,The Spice House,10902,FR,Paris,48.849,2.342
85899345942,23,The Hungry Pig,18952,ES,Barcelona,41.383,2.14
257698037808,49,The Olive Tree,26468,FR,Paris,48.848,2.302
163208757259,12,The Wooden Spoon,96638,US,Dublin,37.073,-80.697
42949673012,53,The Red Rooster,89646,FR,Paris,48.87,2.311
25769803839,64,Chateau de Cuisine,72230,GB,London,51.522,-0.086
214748364854,55,The Steak House,92040,FR,Paris,48.864,2.331
240518168634,59,Azalea Cafe,93164,FR,Paris,48.856,2.293
34359738444,77,Harvest Kitchen,50333,NL,Amsterdam,52.392,4.868
206158430289,82,The Palate,53370,GB,London,51.51,-0.076
171798691883,44,The French Kitchen,65939,FR,Paris,48.852,2.278
17179869259,76,Happy Hour Cafe,10902,GB,London,51.513,-0.117
60129542174,31,Bistro 42,71555,ES,Barcelona,41.389,2.121
180388626471,40,Crimson Cafe,7531,AT,Vienna,48.205,16.377
42949672974,15,The Pearl Kitchen,89646,US,Saint Leonard,38.475,-76.507
240518168643,68,Delish Cafe,93164,GB,London,51.513,-0.184
231928233996,13,The Firehouse,33573,US,Colorado Springs,38.916,-104.824
137438953498,27,The Corner Cafe,11038,IT,Milan,45.468,9.155
68719476765,30,The Wine Cellar,77517,IT,Milan,45.441,9.173
85899345951,32,The Orange Peeler,18952,US,Milwaukee,43.039,-87.906
34359738375,8,The Green Olive,50333,US,Alamosa,37.471,-105.86
249108103230,63,Cafe Paris,55897,GB,London,51.492,-0.183
41,42,The Daily Scoop,47732,AT,Vienna,48.159,16.345
