id,franchise_id,franchise_name,restaurant_franchise_id,country,city,lat,lng
197568495625,10,The Golden Spoon,24784,US,Decatur,34.578,-87.021
17179869242,59,Azalea Cafe,10902,FR,Paris,48.861,2.368
214748364826,27,The Corner Cafe,92040,US,Rapid City,44.08,-103.25
154618822706,51,The Pizzeria,41484,AT,Vienna,48.213,16.413
163208757312,65,Chef's Corner,96638,GB,London,51.495,-0.191
68719476763,28,The Spicy Pickle,77517,US,Grayling,44.657,-84.744
223338299419,28,The Spicy Pickle,36937,US,Oswego,43.452,-76.532
240518168650,75,Greenhouse Cafe,93164,NL,Amsterdam,52.37,4.897
128849018936,57,The Yellow Submarine,5679,FR,Paris,48.872,2.335
197568495635,20,The Brasserie,24784,US,Jeffersonville,39.616,-83.612
68719476768,33,The Blue Elephant,77517,IT,Milan,45.479,9.146
51539607582,31,Bistro 42,6934,IT,Milan,45.444,9.153
94489280554,43,The Food House,95399,FR,Paris,48.867,2.329
206158430215,8,The Green Olive,53370,US,Haltom City,32.789,-97.28
154618822657,2,Bella Cucina,41484,US,Fort Pierce,27.412,-80.391
17179869217,34,The Tasty Treat,10902,US,Green Bay,44.476,-88.077
8589934633,42,The Daily Scoop,12630,FR,Paris,48.854,2.343
240518168596,21,The Lazy Daisy,93164,US,Mendenhall,39.86,-75.646
171798691906,67,Crimson and Clover,65939,NL,Amsterdam,52.361,4.894
42949673022,63,Cafe Paris,89646,GB,London,51.508,-0.107
223338299416,25,The Cozy Cafe,36937,US,Great Barrington,42.238,-73.335
85899345943,24,The Fisherman's Catch,18952,ES,Barcelona,41.385,2.174
55,56,The Waffle House,47732,FR,Paris,48.887,2.3
231928234012,29,The Olive Branch,33573,IT,Milan,45.472,9.078
171798691866,27,The Corner Cafe,65939,IT,Milan,45.452,9.167
266287972381,30,The Wine Cellar,11263,US,Chicago,41.797,-87.723
8589934629,38,Cafe Viva,12630,AT,Vienna,48.204,16.389
34359738401,34,The Tasty Treat,50333,AT,Vienna,48.201,16.359
111669149720,25,The Cozy Cafe,84488,ES,Barcelona,41.384,2.171
42949673016,57,The Yellow Submarine,89646,FR,Paris,48.876,2.294
188978561059,36,Blue Ocean Grill,3642,US,Kennebunkport,43.363,-70.477
25769803787,12,The Wooden Spoon,72230,US,Napa,38.283,-122.289
120259084327,40,Crimson Cafe,59829,FR,Paris,48.857,2.331
249108103222,55,The Steak House,55897,FR,Paris,48.85,2.345
25769803795,20,The Brasserie,72230,ES,Barcelona,41.385,2.179
34359738395,28,The Spicy Pickle,50333,IT,Milan,45.47,9.195
111669149696,1,Savoria,84488,US,Port Aransas,27.831,-97.065
77309411331,4,The Blue Plate,78190,US,San Antonio,29.532,-98.56
240518168626,51,The Pizzeria,93164,AT,Vienna,48.164,16.322
214748364817,18,The Harvest Room,92040,ES,Barcelona,41.37,2.171
249108103199,32,The Orange Peeler,55897,ES,Barcelona,41.389,2.173
42949673007,48,The Local Cafe,89646,AT,Vienna,48.213,16.383
17179869255,72,Flamingo Cafe,10902,GB,London,51.505,-0.148
257698037821,62,Cafe Luminoso,26468,GB,London,51.48,-0.01
154618822735,80,The Market Cafe,41484,NL,Amsterdam,52.363,4.88
94489280558,47,The Juicy Burger,95399,FR,Paris,48.872,2.332
17179869198,15,The Pearl Kitchen,10902,US,Mariposa,37.487,-119.967
266287972411,60,Big City Grill,11263,US,Celina,48.875,2.342
60129542151,8,The Green Olive,71555,US,Colton,34.02,-117.338
231928234016,33,The Blue Elephant,33573,US,Umatilla,45.921,-119.289
85899345986,67,Crimson and Clover,18952,NL,Amsterdam,52.35,4.877
214748364878,79,The Huckleberry Cafe,92040,NL,Amsterdam,52.365,4.88
137438953513,42,The Daily Scoop,11038,FR,Paris,48.843,2.405
249108103180,13,The Firehouse,55897,US,Clinton,36.163,-84.085
120259084322,35,Basilica Bistro,59829,AT,Vienna,48.2,16.355
128849018881,2,Bella Cucina,5679,US,Clanton,32.803,-86.587
146028888075,12,The Wooden Spoon,70611,US,Burlington,36.07,-79.495
103079215117,14,The Gourmet Garden,4340,US,Victorville,34.507,-117.326
214748364807,8,The Green Olive,92040,US,Santa Barbara,34.44,-119.738
111669149700,5,The Hungry Hippo,84488,US,Tucson,32.22,-110.877
257698037804,45,The Green Bean,26468,FR,Paris,48.827,2.291
111669149750,55,The Steak House,84488,GB,London,51.492,-0.278
146028888140,77,Harvest Kitchen,70611,GB,London,51.501,-0.116
146028888101,38,Cafe Viva,70611,US,Bangor,44.791,-68.81
77309411381,54,The Spice House,78190,FR,Paris,48.884,2.333
34359738416,49,The Olive Tree,50333,FR,Paris,48.864,2.352
197568495639,24,The Fisherman's Catch,24784,US,Indiana,40.62,-79.13
146028888145,82,The Palate,70611,GB,London,51.517,-0.136
223338299433,42,The Daily Scoop,36937,FR,Paris,48.875,2.301
214748364864,65,Chef's Corner,92040,FR,Paris,48.897,2.343
188978561074,51,The Pizzeria,3642,AT,Vienna,48.213,16.38
197568495676,61,Blue Water Bistro,24784,FR,Paris,48.866,2.309
85899345983,64,Chateau de Cuisine,18952,GB,London,51.521,-0.092
137438953491,20,The Brasserie,11038,US,Erie,42.071,-80.039
128849018922,43,The Food House,5679,US,Moses Lake,47.104,-119.311
188978561025,2,Bella Cucina,3642,US,Palm Harbor,28.115,-82.74
223338299446,55,The Steak House,36937,GB,London,51.517,-0.118
240518168605,30,The Wine Cellar,93164,ES,Barcelona,41.39,2.136
68719476799,64,Chateau de Cuisine,77517,NL,Amsterdam,52.377,4.898
249108103228,61,Blue Water Bistro,55897,FR,Paris,48.884,2.331
128849018928,49,The Olive Tree,5679,FR,Paris,48.841,2.33
154618822677,22,The Red Pepper,41484,ES,Barcelona,41.381,2.181
146028888130,67,Crimson and Clover,70611,FR,Paris,48.872,2.324
85899345930,11,The Flaming Wok,18952,US,Mount Airy,36.487,-80.746
188978561061,38,Cafe Viva,3642,US,Fryeburg,44.016,-70.981
146028888090,27,The Corner Cafe,70611,ES,Barcelona,41.387,2.167
206158430248,41,The Daily Bread,53370,IT,Milan,45.452,9.176
25769803824,49,The Olive Tree,72230,AT,Vienna,48.209,16.354
197568495686,71,Fire and Spice,24784,FR,Paris,48.88,2.329
111669149702,7,Cafe Roma,84488,US,Montgomery,32.328,-86.338
51539607567,16,The Spice Tree,6934,US,Mount Sterling,39.974,-90.758
257698037818,59,Azalea Cafe,26468,FR,Paris,48.874,2.302
146028888124,61,Blue Water Bistro,70611,FR,Paris,48.848,2.349
8589934661,70,Earth and Vine,12630,NL,Amsterdam,52.351,4.873
171798691899,60,Big City Grill,65939,GB,London,51.517,-0.15
206158430286,79,The Huckleberry Cafe,53370,GB,London,51.506,-0.146
214748364841,42,The Daily Scoop,92040,AT,Vienna,48.222,16.357
249108103171,4,The Blue Plate,55897,US,Abbeville,31.552,-85.284
103079215163,60,Big City Grill,4340,FR,Paris,48.875,2.319
25769803829,54,The Spice House,72230,FR,Paris,48.868,2.331
111669149748,53,The Red Rooster,84488,US,Terre Haute,51.296,6.558
25,26,The Silver Spoon,47732,US,Crescent City,41.748,-124.203
223338299417,26,The Silver Spoon,36937,US,Freeport,42.279,-89.634
8589934650,59,Azalea Cafe,12630,GB,London,51.495,-0.184
214748364844,45,The Green Bean,92040,FR,Paris,48.84,2.303
154618822668,13,The Firehouse,41484,US,Gatlinburg,35.755,-83.457
171798691856,17,The Rustic Table,65939,ES,Barcelona,41.386,2.161
103079215175,72,Flamingo Cafe,4340,GB,London,51.516,-0.12
38,39,Cinnamon Grill,47732,IT,Milan,45.478,9.209
103079215178,75,Greenhouse Cafe,4340,NL,Amsterdam,52.35,4.891
180388626503,72,Flamingo Cafe,7531,NL,Amsterdam,52.37,4.889
51539607560,9,The Grill House,6934,US,Telluride,37.936,-107.813
231928234033,50,The Pancake House,33573,GB,London,51.505,-0.088
85899345932,13,The Firehouse,18952,US,Lebanon,37.659,-92.668
17179869261,78,The Hot Spot,10902,GB,London,51.516,-0.062
249108103231,64,Chateau de Cuisine,55897,GB,London,51.51,-0.13
94489280556,45,The Green Bean,95399,FR,Paris,48.868,2.333
206158430220,13,The Firehouse,53370,US,Glasgow,36.985,-85.934
77309411380,53,The Red Rooster,78190,FR,Paris,48.882,2.282
180388626476,45,The Green Bean,7531,FR,Paris,48.86,2.309
60129542189,46,The Italian Table,71555,FR,Paris,48.857,2.332
257698037826,67,Crimson and Clover,26468,GB,London,51.512,-0.138
206158430280,73,Fresh Harvest,53370,GB,London,51.495,-0.182
94489280538,27,The Corner Cafe,95399,ES,Barcelona,41.394,2.16
154618822733,78,The Hot Spot,41484,GB,London,51.522,-0.143
103079215148,45,The Green Bean,4340,US,Woodburn,45.152,-122.884
146028888084,21,The Lazy Daisy,70611,US,Englewood,39.567,-104.868
51539607561,10,The Golden Spoon,6934,US,Napa,38.315,-122.276
94489280535,24,The Fisherman's Catch,95399,ES,Barcelona,41.39,2.142
266287972385,34,The Tasty Treat,11263,US,Mccall,44.911,-116.098
257698037771,12,The Wooden Spoon,26468,US,Lake Lure,35.452,-82.172
266287972380,29,The Olive Branch,11263,US,Coudersport,41.773,-78.021
223338299422,31,Bistro 42,36937,IT,Milan,45.465,9.19
180388626469,38,Cafe Viva,7531,AT,Vienna,48.195,16.346
111669149729,34,The Tasty Treat,84488,US,Hill City,43.944,-103.535
85899345977,58,A Tasty Bite,18952,GB,London,51.514,-0.183
180388626480,49,The Olive Tree,7531,FR,Paris,48.868,2.337
60129542156,13,The Firehouse,71555,US,Millington,35.367,-89.887
17179869250,67,Crimson and Clover,10902,GB,London,51.495,-0.187
42949672973,14,The Gourmet Garden,89646,US,Stockton,37.956,-121.328
249108103169,2,Bella Cucina,55897,US,Sarasota,27.3,-82.45
197568495659,44,The French Kitchen,24784,AT,Vienna,48.176,16.42
206158430208,1,Savoria,53370,US,Annapolis,15.499,-88.038
60129542144,1,Savoria,71555,US,Mont Belvieu,20.875,-86.868
223338299415,24,The Fisherman's Catch,36937,ES,Barcelona,41.402,2.212
34359738380,13,The Firehouse,50333,US,New Stanton,40.22,-79.606
111669149734,39,Cinnamon Grill,84488,AT,Vienna,48.194,16.367
51539607554,3,Spice Bazaar,6934,US,Gonzales,30.226,-90.921
154618822661,6,The Daily Grind,41484,US,Millbrook,32.46,-86.384
266287972384,33,The Blue Elephant,11263,US,Appleton,44.3,-88.371
120259084345,58,A Tasty Bite,59829,GB,London,51.508,-0.138
34359738429,62,Cafe Luminoso,50333,GB,London,51.499,-0.137
214748364811,12,The Wooden Spoon,92040,US,Milford,39.184,-84.267
60129542205,62,Cafe Luminoso,71555,GB,London,51.518,-0.123
163208757283,36,Blue Ocean Grill,96638,US,Holland,42.786,-86.107
146028888069,6,The Daily Grind,70611,US,Leesville,31.145,-93.263
223338299428,37,Cafe Crepe,36937,AT,Vienna,48.257,16.403
231928234005,22,The Red Pepper,33573,ES,Barcelona,41.413,2.209
197568495674,59,Azalea Cafe,24784,FR,Paris,48.864,2.361
197568495681,66,City Bites,24784,FR,Paris,48.872,2.344
180388626445,14,The Gourmet Garden,7531,US,Mount Vernon,38.311,-88.949
35,36,Blue Ocean Grill,47732,IT,Milan,45.457,9.192
231928234018,35,Basilica Bistro,33573,US,Coeur D Alene,47.664,-116.903
188978561085,62,Cafe Luminoso,3642,FR,Paris,48.87,2.291
266287972435,84,The Pink Door,11263,NL,Amsterdam,52.366,4.893
154618822727,72,Flamingo Cafe,41484,GB,London,51.508,-0.132
249108103179,12,The Wooden Spoon,55897,US,Bryson City,35.42,-83.462
60129542173,30,The Wine Cellar,71555,ES,Barcelona,41.386,2.167
197568495627,12,The Wooden Spoon,24784,US,Southern Pines,35.16,-79.41
214748364876,77,Harvest Kitchen,92040,NL,Amsterdam,52.336,4.874
25769803800,25,The Cozy Cafe,72230,ES,Barcelona,41.395,2.143
103079215162,59,Azalea Cafe,4340,FR,Paris,48.875,2.287
197568495687,72,Flamingo Cafe,24784,FR,Paris,48.885,2.33
42949673008,49,The Olive Tree,89646,AT,Vienna,48.22,16.326
146028888065,2,Bella Cucina,70611,US,Eden,9.486,100.065
17179869193,10,The Golden Spoon,10902,US,Portales,34.181,-103.346
60129542163,20,The Brasserie,71555,US,Elkridge,39.184,-76.756
45,46,The Italian Table,47732,AT,Vienna,48.21,16.372
103079215125,22,The Red Pepper,4340,US,Raton,36.91,-104.442
18,19,The Tasting Room,47732,US,Kearney,40.683,-99.085
42949673004,45,The Green Bean,89646,AT,Vienna,48.194,16.346
103079215127,24,The Fisherman's Catch,4340,US,Alexandria,38.805,-77.045
8589934594,3,Spice Bazaar,12630,US,Los Angeles,33.998,-118.421
206158430264,57,The Yellow Submarine,53370,FR,Paris,48.835,2.321
154618822699,44,The French Kitchen,41484,US,Danforth,45.707,-67.858
188978561040,17,The Rustic Table,3642,US,Hanford,36.32,-119.656
111669149755,60,Big City Grill,84488,GB,London,51.517,-0.129
128849018910,31,Bistro 42,5679,US,Warren,41.836,-79.169
60129542196,53,The Red Rooster,71555,FR,Paris,48.874,2.301
51539607605,54,The Spice House,6934,GB,London,51.505,-0.105
180388626491,60,Big City Grill,7531,GB,London,51.507,-0.152
154618822719,64,Chateau de Cuisine,41484,GB,London,51.494,-0.176
77309411343,16,The Spice Tree,78190,US,Marion,36.868,-81.414
257698037802,43,The Food House,26468,AT,Vienna,48.235,16.422
171798691872,33,The Blue Elephant,65939,IT,Milan,45.499,9.166
103079215153,50,The Pancake House,4340,AT,Vienna,48.197,16.386
111669149717,22,The Red Pepper,84488,US,Bloomington,40.487,-89.035
77309411346,19,The Tasting Room,78190,US,Livermore,37.701,-121.814
214748364872,73,Fresh Harvest,92040,GB,London,51.512,-0.076
214748364860,61,Blue Water Bistro,92040,FR,Paris,48.875,2.341
223338299425,34,The Tasty Treat,36937,IT,Milan,45.486,9.204
163208757315,68,Delish Cafe,96638,GB,London,51.513,-0.181
103079215116,13,The Firehouse,4340,US,Santa Barbara,34.41,-119.693
249108103192,25,The Cozy Cafe,55897,US,New York,40.76,-73.978
206158430295,88,The Royal Cafe,53370,NL,Amsterdam,52.365,4.893
8589934599,8,The Green Olive,12630,US,Nashville,36.079,-86.955
17179869226,43,The Food House,10902,AT,Vienna,48.191,16.317
188978561024,1,Savoria,3642,US,Beaumont,20.454,-87.274
42949673013,54,The Spice House,89646,FR,Paris,48.87,2.329
68719476780,45,The Green Bean,77517,FR,Paris,48.872,2.298
249108103195,28,The Spicy Pickle,55897,ES,Barcelona,41.377,2.146
146028888095,32,The Orange Peeler,70611,US,Gooding,42.945,-114.713
206158430266,59,Azalea Cafe,53370,FR,Paris,48.845,2.375
206158430261,54,The Spice House,53370,AT,Vienna,48.206,16.371
257698037803,44,The French Kitchen,26468,AT,Vienna,48.239,16.429
25769803781,6,The Daily Grind,72230,US,Studio City,34.145,-118.412
214748364820,21,The Lazy Daisy,92040,ES,Barcelona,41.39,2.149
17179869215,32,The Orange Peeler,10902,US,Fairmont,43.676,-94.446
77309411329,2,Bella Cucina,78190,US,Bowling Green,27.598,-81.824
188978561066,43,The Food House,3642,IT,Milan,45.495,9.142
171798691848,9,The Grill House,65939,US,Gustine,37.112,-121.016
68719476738,3,Spice Bazaar,77517,US,Orlando,28.482,-81.456
163208757269,22,The Red Pepper,96638,US,Normal,40.514,-88.953
128849018907,28,The Spicy Pickle,5679,ES,Barcelona,41.404,2.214
25769803833,58,A Tasty Bite,72230,FR,Paris,48.878,2.287
42949673027,68,Delish Cafe,89646,GB,London,51.524,-0.081
77309411371,44,The French Kitchen,78190,FR,Paris,48.85,2.342
231928234009,26,The Silver Spoon,33573,US,Gorham,44.393,-71.125
128849018941,62,Cafe Luminoso,5679,GB,London,51.457,-0.206
77309411335,8,The Green Olive,78190,US,Anaheim,33.797,-117.915
214748364874,75,Greenhouse Cafe,92040,GB,London,51.521,-0.123
206158430293,86,The Porch Cafe,53370,NL,Amsterdam,52.345,4.925
266287972434,83,The Pantry,11263,NL,Amsterdam,52.365,4.897
42949672982,23,The Hungry Pig,89646,ES,Barcelona,41.393,2.193
51539607574,23,The Hungry Pig,6934,ES,Barcelona,41.391,2.166
120259084310,23,The Hungry Pig,59829,ES,Barcelona,41.394,2.156
146028888077,14,The Gourmet Garden,70611,US,Branson,36.651,-93.267
68719476748,13,The Firehouse,77517,US,Santa Cruz,36.965,-122.021
94489280550,39,Cinnamon Grill,95399,US,Lynnwood,47.841,-122.298
17179869243,60,Big City Grill,10902,FR,Paris,48.866,2.33
197568495655,40,Crimson Cafe,24784,IT,Milan,45.482,9.176
146028888109,46,The Italian Table,70611,IT,Milan,45.484,9.208
231928234025,42,The Daily Scoop,33573,FR,Paris,48.85,2.289
257698037814,55,The Steak House,26468,FR,Paris,48.867,2.327
257698037823,64,Chateau de Cuisine,26468,GB,London,51.494,-0.143
120259084318,31,Bistro 42,59829,IT,Milan,45.475,9.206
240518168586,11,The Flaming Wok,93164,US,Marina Del Rey,33.987,-118.454
197568495642,27,The Corner Cafe,24784,ES,Barcelona,41.379,2.17
34359738424,57,The Yellow Submarine,50333,FR,Paris,48.885,2.304
7,8,The Green Olive,47732,US,Batesville,34.309,-89.923
34359738422,55,The Steak House,50333,FR,Paris,48.876,2.325
206158430230,23,The Hungry Pig,53370,US,Somerset,40.551,-74.545
197568495654,39,Cinnamon Grill,24784,IT,Milan,45.481,9.192
94489280557,46,The Italian Table,95399,FR,Paris,48.868,2.353
188978561055,32,The Orange Peeler,3642,US,North Kingstown,41.621,-71.458
85899345969,50,The Pancake House,18952,FR,Paris,48.869,2.297
231928234028,45,The Green Bean,33573,FR,Paris,48.862,2.35
146028888073,10,The Golden Spoon,70611,US,Florence,34.266,-79.731
240518168624,49,The Olive Tree,93164,US,Wheeler,45.69,-123.882
197568495666,51,The Pizzeria,24784,FR,Paris,48.843,2.367
154618822707,52,The Red Door,41484,FR,Paris,48.833,2.288
103079215137,34,The Tasty Treat,4340,ES,Barcelona,41.411,2.212
34359738382,15,The Pearl Kitchen,50333,US,New York,40.768,-73.985
128849018880,1,Savoria,5679,US,New Orleans,29.962,-90.066
77309411388,61,Blue Water Bistro,78190,GB,London,51.495,-0.119
68719476775,40,Crimson Cafe,77517,AT,Vienna,48.204,16.336
120259084301,14,The Gourmet Garden,59829,US,Stockton,38.006,-121.351
257698037822,63,Cafe Paris,26468,GB,London,51.492,-0.22
94489280517,6,The Daily Grind,95399,US,Chattanooga,34.995,-85.226
51539607570,19,The Tasting Room,6934,ES,Barcelona,41.379,2.143
163208757319,72,Flamingo Cafe,96638,GB,London,51.522,-0.132
188978561062,39,Cinnamon Grill,3642,IT,Milan,45.461,9.181
188978561045,22,The Red Pepper,3642,US,Sedalia,38.713,-93.28
17179869189,6,The Daily Grind,10902,US,Ruidoso,33.352,-105.674
25769803842,67,Crimson and Clover,72230,GB,London,51.542,-0.17
197568495653,38,Cafe Viva,24784,IT,Milan,45.479,9.195
51539607593,42,The Daily Scoop,6934,FR,Paris,48.847,2.371
214748364836,37,Cafe Crepe,92040,IT,Milan,45.487,9.202
180388626451,20,The Brasserie,7531,ES,Barcelona,41.389,2.167
249108103207,40,Crimson Cafe,55897,US,Utica,42.629,-83.011
103079215165,62,Cafe Luminoso,4340,GB,London,51.493,-0.178
103079215124,21,The Lazy Daisy,4340,US,Navajo Dam,36.892,-107.603
42949673010,51,The Pizzeria,89646,FR,Paris,48.85,2.34
68719476787,52,The Red Door,77517,GB,London,51.509,-0.136
180388626490,59,Azalea Cafe,7531,GB,London,51.505,-0.095
77309411337,10,The Golden Spoon,78190,US,Calhoun,34.47,-84.914
85899345972,53,The Red Rooster,18952,FR,Paris,48.872,2.322
128849018900,21,The Lazy Daisy,5679,ES,Barcelona,41.381,2.18
34359738433,66,City Bites,50333,GB,London,51.512,-0.105
42949672962,3,Spice Bazaar,89646,US,Ruidoso,33.313,-105.637
223338299421,30,The Wine Cellar,36937,IT,Milan,45.459,9.069
146028888143,80,The Market Cafe,70611,GB,London,51.512,-0.306
25769803808,33,The Blue Elephant,72230,US,Clinton Township,42.623,-82.866
128849018944,65,Chef's Corner,5679,GB,London,51.494,-0.183
60129542208,65,Chef's Corner,71555,GB,London,51.529,-0.123
42949673023,64,Chateau de Cuisine,89646,GB,London,51.514,-0.132
257698037769,10,The Golden Spoon,26468,US,Hesperia,34.428,-117.384
42949672997,38,Cafe Viva,89646,IT,Milan,45.469,9.187
34359738406,39,Cinnamon Grill,50333,AT,Vienna,48.211,16.379
249108103239,72,Flamingo Cafe,55897,GB,London,51.527,-0.283
188978561031,8,The Green Olive,3642,US,Roanoke,32.979,-97.169
214748364813,14,The Gourmet Garden,92040,US,Keyser,39.439,-78.971
154618822729,74,Garden of Eatin',41484,GB,London,51.512,-0.15
17179869262,79,The Huckleberry Cafe,10902,GB,Fitzrovia,51.529,-0.137
51539607563,12,The Wooden Spoon,6934,US,Troy,38.735,-89.914
171798691858,19,The Tasting Room,65939,ES,Barcelona,41.4,2.13
17179869224,41,The Daily Bread,10902,US,Clatskanie,46.102,-123.199
25769803845,70,Earth and Vine,72230,NL,Amsterdam,52.368,4.895
266287972393,42,The Daily Scoop,11263,AT,Vienna,48.202,16.372
206158430262,55,The Steak House,53370,AT,Vienna,48.214,16.38
51539607600,49,The Olive Tree,6934,FR,Paris,48.873,2.344
171798691857,18,The Harvest Room,65939,ES,Barcelona,41.392,2.155
17179869187,4,The Blue Plate,10902,US,El Paso,31.751,-106.343
231928233990,7,Cafe Roma,33573,US,Crossville,35.964,-84.981
171798691901,62,Cafe Luminoso,65939,GB,London,51.52,-0.126
154618822717,62,Cafe Luminoso,41484,FR,Paris,48.887,2.359
266287972396,45,The Green Bean,11263,AT,Vienna,48.226,16.36
68719476797,62,Cafe Luminoso,77517,GB,London,51.526,-0.083
68719476760,25,The Cozy Cafe,77517,US,Laconia,43.526,-71.469
103079215134,31,Bistro 42,4340,US,Stone Creek,41.084,1.154
128849018908,29,The Olive Branch,5679,US,Port Clinton,41.513,-82.934
68719476740,5,The Hungry Hippo,77517,US,Tallulah,32.385,-91.199
231928233984,1,Savoria,33573,US,Edinburg,26.334,-98.248
266287972421,70,Earth and Vine,11263,GB,London,51.498,-0.164
8589934641,50,The Pancake House,12630,FR,Paris,48.881,2.295
214748364823,24,The Fisherman's Catch,92040,ES,Barcelona,41.398,2.189
197568495675,60,Big City Grill,24784,FR,Paris,48.865,2.328
206158430221,14,The Gourmet Garden,53370,US,Richmond,37.566,-77.475
42949673002,43,The Food House,89646,US,Port Angeles,48.105,-123.374
25769803786,11,The Flaming Wok,72230,US,Alamosa,37.475,-105.895
188978561056,33,The Blue Elephant,3642,US,Elkhart,41.735,-85.977
257698037778,19,The Tasting Room,26468,US,Cheyenne,41.119,-104.849
128849018901,22,The Red Pepper,5679,ES,Barcelona,41.383,2.16
249108103178,11,The Flaming Wok,55897,US,Tucumcari,35.172,-103.714
42949672971,12,The Wooden Spoon,89646,US,Silverton,37.81,-107.664
85899345937,18,The Harvest Room,18952,US,Columbia,39.176,-76.847
188978561038,15,The Pearl Kitchen,3642,US,Fayetteville,35.076,-78.961
128849018913,34,The Tasty Treat,5679,US,Saranac Lake,44.305,-74.337
188978561096,73,Fresh Harvest,3642,GB,London,51.508,-0.142
85899345941,22,The Red Pepper,18952,ES,Barcelona,41.38,2.141
188978561075,52,The Red Door,3642,AT,Vienna,48.215,16.376
68719476743,8,The Green Olive,77517,US,Atlanta,33.792,-84.398
51539607569,18,The Harvest Room,6934,US,Palmerton,40.81,-75.651
206158430219,12,The Wooden Spoon,53370,US,Abbeville,36.623,-4.501
34359738403,36,Blue Ocean Grill,50333,AT,Vienna,48.206,16.355
223338299447,56,The Waffle House,36937,GB,Paddington,51.519,-0.166
85899345966,47,The Juicy Burger,18952,FR,Paris,48.846,2.279
146028888108,45,The Green Bean,70611,IT,Milan,45.483,9.203
25769803790,15,The Pearl Kitchen,72230,US,Langhorne,40.189,-74.925
60129542200,57,The Yellow Submarine,71555,GB,London,51.504,-0.086
42949673028,69,Dragonfly Cafe,89646,GB,London,51.529,-0.168
240518168609,34,The Tasty Treat,93164,ES,Barcelona,41.411,2.136
103079215110,7,Cafe Roma,4340,US,Sierra Vista,31.555,-110.282
77309411396,69,Dragonfly Cafe,78190,NL,Amsterdam,52.374,4.875
17179869210,27,The Corner Cafe,10902,ES,Barcelona,41.401,2.179
85899345978,59,Azalea Cafe,18952,GB,London,51.514,-0.091
206158430223,16,The Spice Tree,53370,US,San Francisco,37.784,-122.411
197568495629,14,The Gourmet Garden,24784,US,Perry,36.288,-97.33
197568495617,2,Bella Cucina,24784,US,Fort Lauderdale,26.086,-80.372
17179869212,29,The Olive Branch,10902,US,Kenosha,42.625,-87.829
163208757279,32,The Orange Peeler,96638,ES,Barcelona,41.391,2.142
25769803782,7,Cafe Roma,72230,US,Prescott Valley,34.586,-112.327
197568495643,28,The Spicy Pickle,24784,ES,Barcelona,41.39,2.166
103079215128,25,The Cozy Cafe,4340,US,Chantilly,38.898,-77.432
231928234001,18,The Harvest Room,33573,ES,Barcelona,41.389,2.166
137438953501,30,The Wine Cellar,11038,IT,Milan,45.484,9.199
180388626457,26,The Silver Spoon,7531,US,Fond Du Lac,43.755,-88.476
223338299427,36,Blue Ocean Grill,36937,AT,Vienna,48.208,16.355
257698037765,6,The Daily Grind,26468,US,Coronado,32.687,-117.181
120259084297,10,The Golden Spoon,59829,US,Long Beach,33.789,-118.189
266287972373,22,The Red Pepper,11263,ES,Barcelona,41.386,2.126
111669149727,32,The Orange Peeler,84488,US,Boone,42.035,-93.876
146028888087,24,The Fisherman's Catch,70611,ES,Barcelona,41.379,2.179
77309411366,39,Cinnamon Grill,78190,AT,Vienna,48.195,16.367
68719476744,9,The Grill House,77517,US,Statesville,35.807,-80.881
206158430251,44,The French Kitchen,53370,IT,Milan,45.483,9.204
214748364849,50,The Pancake House,92040,FR,Paris,48.851,2.338
42949672990,31,Bistro 42,89646,US,Riverton,43.045,-108.381
266287972423,72,Flamingo Cafe,11263,GB,London,51.502,-0.154
103079215107,4,The Blue Plate,4340,US,Montgomery,30.404,-95.634
60129542145,2,Bella Cucina,71555,US,Princeville,22.226,-159.481
214748364833,34,The Tasty Treat,92040,IT,Milan,45.459,9.18
120259084294,7,Cafe Roma,59829,US,Meridian,32.35,-88.692
17179869223,40,Crimson Cafe,10902,IT,Milan,45.471,9.197
188978561072,49,The Olive Tree,3642,AT,Vienna,48.207,16.377
180388626454,23,The Hungry Pig,7531,US,Woodstock,42.303,-88.433
154618822710,55,The Steak House,41484,FR,Paris,48.855,2.292
17179869265,82,The Palate,10902,NL,Amsterdam,52.378,4.897
34359738427,60,Big City Grill,50333,GB,London,51.492,-0.162
214748364803,4,The Blue Plate,92040,US,Sandersville,33.007,-82.806
77309411360,33,The Blue Elephant,78190,IT,Milan,45.469,9.191
214748364819,20,The Brasserie,92040,ES,Barcelona,41.389,2.136
214748364847,48,The Local Cafe,92040,FR,Paris,48.849,2.37
34359738370,3,Spice Bazaar,50333,US,New Orleans,30.045,-89.96
240518168611,36,Blue Ocean Grill,93164,US,Manassas,41.679,8.915
42949673006,47,The Juicy Burger,89646,AT,Vienna,48.2,16.364
85899345931,12,The Wooden Spoon,18952,US,Petersburg,37.23,-77.393
85899345980,61,Blue Water Bistro,18952,GB,London,51.518,-0.144
85899345952,33,The Blue Elephant,18952,US,Ontario,44.026,-116.944
206158430209,2,Bella Cucina,53370,US,Mobile,20.683,-101.381
257698037796,37,Cafe Crepe,26468,IT,Milan,45.533,9.171
25769803831,56,The Waffle House,72230,FR,Paris,48.873,2.305
85899345988,69,Dragonfly Cafe,18952,NL,Amsterdam,52.392,4.911
111669149758,63,Cafe Paris,84488,NL,Amsterdam Zuidoost,52.31,4.942
163208757268,21,The Lazy Daisy,96638,US,Columbus,40.115,-83.015
154618822662,7,Cafe Roma,41484,US,Tatum,33.382,-103.395
163208757290,43,The Food House,96638,IT,Milan,45.474,9.224
266287972361,10,The Golden Spoon,11263,US,Marina,36.684,-121.792
171798691894,55,The Steak House,65939,GB,London,51.502,0.0
197568495640,25,The Cozy Cafe,24784,US,Oskaloosa,41.324,-92.646
163208757306,59,Azalea Cafe,96638,FR,Paris,48.871,2.294
42,43,The Food House,47732,AT,Vienna,48.163,16.34
23,24,The Fisherman's Catch,47732,ES,Barcelona,41.396,2.163
51539607572,21,The Lazy Daisy,6934,ES,Barcelona,41.387,2.174
257698037775,16,The Spice Tree,26468,US,Morgantown,39.631,-79.956
188978561036,13,The Firehouse,3642,US,Atlantic Beach,34.701,-76.747
77309411367,40,Crimson Cafe,78190,AT,Vienna,48.213,16.357
128849018902,23,The Hungry Pig,5679,ES,Barcelona,41.389,2.171
223338299392,1,Savoria,36937,US,Washington,13.368,100.987
103079215115,12,The Wooden Spoon,4340,US,Blythewood,34.214,-80.974
77309411392,65,Chef's Corner,78190,GB,Paddington,51.514,-0.177
25769803840,65,Chef's Corner,72230,GB,London,51.525,-0.077
8589934620,29,The Olive Branch,12630,US,Baraboo,43.479,-89.769
154618822685,30,The Wine Cellar,41484,US,Auburn,42.2,-71.841
249108103202,35,Basilica Bistro,55897,ES,Barcelona,41.396,2.182
128849018940,61,Blue Water Bistro,5679,FR,Paris,48.879,2.285
214748364840,41,The Daily Bread,92040,AT,Vienna,48.195,16.383
34359738417,50,The Pancake House,50333,US,Irving,48.869,2.283
257698037779,20,The Brasserie,26468,US,Laramie,41.325,-105.617
120259084320,33,The Blue Elephant,59829,US,Portland,47.939,1.893
111669149715,20,The Brasserie,84488,US,Willows,39.527,-122.212
111669149699,4,The Blue Plate,84488,US,El Paso,31.776,-106.433
60129542195,52,The Red Door,71555,FR,Paris,48.872,2.326
137438953522,51,The Pizzeria,11038,GB,London,51.501,-0.023
214748364856,57,The Yellow Submarine,92040,FR,Paris,48.865,2.347
146028888115,52,The Red Door,70611,AT,Vienna,48.187,16.302
214748364857,58,A Tasty Bite,92040,FR,Paris,48.866,2.332
223338299406,15,The Pearl Kitchen,36937,US,Columbus,40.007,-82.865
68719476798,63,Cafe Paris,77517,NL,Amsterdam,52.358,4.845
34359738419,52,The Red Door,50333,FR,Paris,48.873,2.316
137438953477,6,The Daily Grind,11038,US,Oklahoma City,35.48,-97.526
137438953518,47,The Juicy Burger,11038,FR,Paris,48.875,2.343
266287972367,16,The Spice Tree,11263,US,Bordentown,40.119,-74.752
180388626465,34,The Tasty Treat,7531,IT,Milan,45.491,9.239
51539607598,47,The Juicy Burger,6934,FR,Paris,48.869,2.352
240518168585,10,The Golden Spoon,93164,US,Phoenix,33.625,-112.114
146028888079,16,The Spice Tree,70611,US,Joplin,37.052,-94.478
146028888120,57,The Yellow Submarine,70611,AT,Vienna,48.231,16.355
68719476761,26,The Silver Spoon,77517,US,Eugene,44.05,-123.087
77309411332,5,The Hungry Hippo,78190,US,Laurel,31.694,-89.133
128849018935,56,The Waffle House,5679,FR,Paris,48.869,2.334
266287972399,48,The Local Cafe,11263,FR,Paris,48.845,2.324
103079215140,37,Cafe Crepe,4340,US,West Springfield,42.121,-72.626
223338299429,38,Cafe Viva,36937,FR,Paris,48.856,2.324
266287972426,75,Greenhouse Cafe,11263,GB,Paddington,51.512,-0.18
154618822686,31,Bistro 42,41484,US,Detroit,42.335,-83.041
137438953492,21,The Lazy Daisy,11038,US,Port Sanilac,43.429,-82.542
188978561087,64,Chateau de Cuisine,3642,FR,Paris,48.873,2.307
171798691893,54,The Spice House,65939,GB,London,51.5,-0.18
240518168627,52,The Red Door,93164,AT,Vienna,48.198,16.336
249108103204,37,Cafe Crepe,55897,US,Cambridge,42.373,-71.081
68719476786,51,The Pizzeria,77517,GB,London,51.493,-0.215
85899345925,6,The Daily Grind,18952,US,West Monroe,32.51,-92.169
180388626446,15,The Pearl Kitchen,7531,US,Stevens,40.246,-76.246
197568495645,30,The Wine Cellar,24784,ES,Barcelona,41.396,2.155
214748364837,38,Cafe Viva,92040,US,Portland,45.521,-122.683
171798691895,56,The Waffle House,65939,GB,London,51.507,-0.005
154618822675,20,The Brasserie,41484,US,Mahanoy City,40.814,-76.134
103079215168,65,Chef's Corner,4340,GB,London,51.506,-0.149
188978561049,26,The Silver Spoon,3642,ES,Barcelona,41.378,2.114
17179869192,9,The Grill House,10902,US,Joshua Tree,34.135,-116.326
223338299402,11,The Flaming Wok,36937,US,Metropolis,37.161,-88.703
240518168598,23,The Hungry Pig,93164,US,Elko,40.834,-115.761
249108103194,27,The Corner Cafe,55897,ES,Barcelona,41.371,2.182
8589934605,14,The Gourmet Garden,12630,US,Annapolis,38.976,-76.548
51539607568,17,The Rustic Table,6934,US,Longmont,40.158,-104.982
249108103181,14,The Gourmet Garden,55897,US,Goodlettsville,36.323,-86.713
34359738421,54,The Spice House,50333,FR,Paris,48.875,2.294
21,22,The Red Pepper,47732,ES,Barcelona,41.386,2.168
223338299407,16,The Spice Tree,36937,US,Newark,40.057,-82.41
25769803832,57,The Yellow Submarine,72230,FR,Paris,48.878,2.286
146028888134,71,Fire and Spice,70611,FR,Paris,48.88,2.328
240518168633,58,A Tasty Bite,93164,FR,Paris,48.852,2.384
8589934603,12,The Wooden Spoon,12630,US,Wittman,38.797,-76.305
42949672993,34,The Tasty Treat,89646,US,Austin,43.666,-92.993
206158430240,33,The Blue Elephant,53370,US,Crystal Lake,42.228,-88.297
85899345936,17,The Rustic Table,18952,US,Carson City,39.143,-119.768
180388626500,69,Dragonfly Cafe,7531,NL,Amsterdam,52.362,4.878
8589934614,23,The Hungry Pig,12630,ES,Barcelona,41.381,2.177
42949672986,27,The Corner Cafe,89646,ES,Barcelona,41.408,2.218
197568495641,26,The Silver Spoon,24784,US,Princeton,41.368,-89.457
17179869233,50,The Pancake House,10902,FR,Paris,48.832,2.387
85899345962,43,The Food House,18952,AT,Vienna,48.208,16.37
206158430294,87,The Red Hen,53370,NL,Amsterdam,52.361,4.883
240518168638,63,Cafe Paris,93164,FR,Paris,48.869,2.307
103079215147,44,The French Kitchen,4340,US,Lake Worth,45.055,-0.658
60129542169,26,The Silver Spoon,71555,ES,Barcelona,41.376,2.167
120259084326,39,Cinnamon Grill,59829,FR,Paris,48.85,2.347
42949673001,42,The Daily Scoop,89646,US,Neihart,46.934,-110.736
146028888133,70,Earth and Vine,70611,FR,Paris,48.876,2.304
111669149710,15,The Pearl Kitchen,84488,US,Watsonville,36.917,-121.761
25769803804,29,The Olive Branch,72230,US,Plainville,41.672,-72.837
146028888104,41,The Daily Bread,70611,US,Aberdeen,45.459,-98.428
171798691876,37,Cafe Crepe,65939,AT,Vienna,48.194,16.362
240518168615,40,Crimson Cafe,93164,US,Casper,42.811,-106.399
68719476788,53,The Red Rooster,77517,GB,London,51.513,-0.183
188978561099,76,Happy Hour Cafe,3642,GB,London,51.523,-0.104
249108103172,5,The Hungry Hippo,55897,US,Abilene,32.404,-99.765
249108103229,62,Cafe Luminoso,55897,FR,Paris,48.897,2.385
42949672996,37,Cafe Crepe,89646,IT,Milan,45.441,9.192
34359738398,31,Bistro 42,50333,US,Manistique,45.952,-86.228
249108103198,31,Bistro 42,55897,ES,Barcelona,41.388,2.173
188978561098,75,Greenhouse Cafe,3642,GB,London,51.523,-0.125
257698037766,7,Cafe Roma,26468,US,Glendale,33.621,-112.186
34359738400,33,The Blue Elephant,50333,AT,Vienna,48.198,16.369
257698037781,22,The Red Pepper,26468,ES,Barcelona,41.389,2.156
266287972364,13,The Firehouse,11263,US,Cripple Creek,38.747,-105.174
163208757313,66,City Bites,96638,GB,London,51.502,-0.023
154618822726,71,Fire and Spice,41484,GB,London,51.506,-0.072
240518168604,29,The Olive Branch,93164,ES,Barcelona,41.387,2.16
197568495690,75,Greenhouse Cafe,24784,GB,London,51.491,-0.193
266287972428,77,Harvest Kitchen,11263,GB,London,51.524,-0.161
68719476762,27,The Corner Cafe,77517,US,Twin Mountain,44.267,-71.561
25769803803,28,The Spicy Pickle,72230,ES,Barcelona,41.425,2.121
223338299441,50,The Pancake House,36937,GB,London,51.502,-0.163
257698037774,15,The Pearl Kitchen,26468,US,Caseyville,38.642,-90.02
188978561088,65,Chef's Corner,3642,FR,Paris,48.873,2.345
266287972377,26,The Silver Spoon,11263,ES,Barcelona,41.395,2.163
154618822664,9,The Grill House,41484,US,Payson,34.255,-111.274
17179869185,2,Bella Cucina,10902,US,Carrizo Springs,28.546,-99.845
17179869204,21,The Lazy Daisy,10902,US,Indianapolis,39.701,-86.084
120259084331,44,The French Kitchen,59829,FR,Paris,48.87,2.3
51539607602,51,The Pizzeria,6934,FR,Paris,48.882,2.332
154618822663,8,The Green Olive,41484,US,Irvine,33.68,-117.837
42949672994,35,Basilica Bistro,89646,US,Springfield,44.086,-123.042
68719476778,43,The Food House,77517,US,Carrollton,48.854,2.388
163208757301,54,The Spice House,96638,FR,Paris,48.857,2.381
60129542193,50,The Pancake House,71555,FR,Paris,48.867,2.288
77309411390,63,Cafe Paris,78190,GB,London,51.512,-0.071
77309411328,1,Savoria,78190,US,Virginia Beach,22.875,-109.931
188978561079,56,The Waffle House,3642,FR,Paris,48.842,2.302
197568495683,68,Delish Cafe,24784,FR,Paris,48.876,2.346
171798691852,13,The Firehouse,65939,US,Strasburg,39.987,-76.176
103079215111,8,The Green Olive,4340,US,Tucson,32.125,-110.935
266287972356,5,The Hungry Hippo,11263,US,Bossier City,32.523,-93.702
188978561078,55,The Steak House,3642,FR,Paris,48.841,2.299
180388626452,21,The Lazy Daisy,7531,ES,Barcelona,41.393,2.146
154618822704,49,The Olive Tree,41484,AT,Vienna,48.199,16.353
206158430213,6,The Daily Grind,53370,US,Ferriday,31.616,-91.528
85899345949,30,The Wine Cellar,18952,US,Battle Creek,42.312,-85.192
180388626462,31,Bistro 42,7531,US,Lincoln City,44.985,-124.014
266287972414,63,Cafe Paris,11263,FR,Paris,48.879,2.296
154618822693,38,Cafe Viva,41484,IT,Milan,45.474,9.207
206158430292,85,The Plum Cafe,53370,NL,Amsterdam Zuidoost,52.31,4.947
171798691873,34,The Tasty Treat,65939,IT,Milan,45.501,9.221
60129542148,5,The Hungry Hippo,71555,US,Lake Forest,33.628,-117.716
17179869200,17,The Rustic Table,10902,US,Norcross,37.982,-1.124
34359738410,43,The Food House,50333,FR,Paris,48.849,2.34
206158430227,20,The Brasserie,53370,US,Clifton,39.564,2.626
17179869225,42,The Daily Scoop,10902,US,Vashon,47.383,-122.408
51539607603,52,The Red Door,6934,GB,London,51.505,-0.213
146028888107,44,The French Kitchen,70611,IT,Milan,45.476,9.206
137438953515,44,The French Kitchen,11038,FR,Paris,48.866,2.29
25769803802,27,The Corner Cafe,72230,ES,Barcelona,41.404,2.191
163208757314,67,Crimson and Clover,96638,GB,London,51.508,0.023
137438953503,32,The Orange Peeler,11038,IT,Milan,45.507,9.197
77309411364,37,Cafe Crepe,78190,IT,Milan,45.527,9.213
85899345948,29,The Olive Branch,18952,US,Cedar Rapids,41.946,-91.672
137438953502,31,Bistro 42,11038,IT,Milan,45.487,9.224
128849018889,10,The Golden Spoon,5679,US,Williamsburg,37.288,-76.722
94489280546,35,Basilica Bistro,95399,US,Worthington,43.636,-95.622
163208757275,28,The Spicy Pickle,96638,ES,Barcelona,41.381,2.146
42949673030,71,Fire and Spice,89646,NL,Amsterdam,52.358,4.899
249108103173,6,The Daily Grind,55897,US,Glendale,33.539,-112.183
14,15,The Pearl Kitchen,47732,US,Carlisle,40.187,-77.214
8589934660,69,Dragonfly Cafe,12630,NL,Amsterdam,52.351,4.841
231928234024,41,The Daily Bread,33573,US,Olga,48.603,-122.824
137438953488,17,The Rustic Table,11038,ES,Barcelona,41.394,2.174
60129542210,67,Crimson and Clover,71555,GB,London,51.536,-0.105
137438953487,16,The Spice Tree,11038,ES,Barcelona,41.388,2.16
197568495621,6,The Daily Grind,24784,US,Colorado City,32.388,-100.855
171798691867,28,The Spicy Pickle,65939,IT,Milan,45.467,9.183
231928234030,47,The Juicy Burger,33573,FR,Paris,48.872,2.312
163208757254,7,Cafe Roma,96638,US,Sylacauga,33.218,-86.195
60129542187,44,The French Kitchen,71555,FR,Paris,48.85,2.334
154618822722,67,Crimson and Clover,41484,GB,London,51.502,-0.16
163208757250,3,Spice Bazaar,96638,US,Houston,29.753,-95.361
223338299418,27,The Corner Cafe,36937,US,Genoa City,42.528,-88.306
231928234027,44,The French Kitchen,33573,FR,Paris,48.855,2.307
34359738438,71,Fire and Spice,50333,GB,London,51.558,-0.284
77309411339,12,The Wooden Spoon,78190,US,Huntersville,35.44,-80.873
180388626453,22,The Red Pepper,7531,US,Elk Grove Village,42.008,-87.937
77309411370,43,The Food House,78190,FR,Paris,48.849,2.274
8,9,The Grill House,47732,US,Burnsville,35.77,-82.198
77309411350,23,The Hungry Pig,78190,US,Silverthorne,39.841,-106.235
240518168588,13,The Firehouse,93164,US,Amarillo,35.195,-101.742
240518168594,19,The Tasting Room,93164,US,Lawrence,38.922,-95.261
128849018939,60,Big City Grill,5679,FR,Paris,48.874,2.344
240518168620,45,The Green Bean,93164,IT,Milan,45.444,9.138
240518168628,53,The Red Rooster,93164,AT,Vienna,48.202,16.37
103079215112,9,The Grill House,4340,US,Monroe,32.494,-92.083
206158430263,56,The Waffle House,53370,AT,Vienna,48.219,16.388
46,47,The Juicy Burger,47732,FR,Paris,48.84,2.266
154618822680,25,The Cozy Cafe,41484,ES,Barcelona,41.39,2.121
266287972406,55,The Steak House,11263,FR,Paris,48.87,2.321
171798691845,6,The Daily Grind,65939,US,Sevierville,35.868,-83.551
17179869235,52,The Red Door,10902,FR,Paris,48.843,2.342
154618822688,33,The Blue Elephant,41484,US,Oswego,43.458,-76.509
223338299434,43,The Food House,36937,FR,Paris,48.877,2.297
42949672969,10,The Golden Spoon,89646,US,Owasso,36.265,-95.847
34359738393,26,The Silver Spoon,50333,US,Aberdeen,45.458,-98.441
42949672985,26,The Silver Spoon,89646,ES,Barcelona,41.404,2.19
120259084306,19,The Tasting Room,59829,ES,Barcelona,41.38,2.175
34359738442,75,Greenhouse Cafe,50333,NL,Amsterdam,52.364,4.881
249108103205,38,Cafe Viva,55897,US,Burdett,42.418,-76.867
60129542162,19,The Tasting Room,71555,US,Leesburg,39.094,-77.486
146028888135,72,Flamingo Cafe,70611,GB,London,51.492,-0.191
111669149754,59,Azalea Cafe,84488,GB,London,51.516,-0.088
223338299394,3,Spice Bazaar,36937,US,Pompano Beach,26.231,-80.159
128849018949,70,Earth and Vine,5679,GB,London,51.51,-0.197
171798691859,20,The Brasserie,65939,ES,Barcelona,41.406,2.201
223338299414,23,The Hungry Pig,36937,ES,Barcelona,41.392,2.172
68719476782,47,The Juicy Burger,77517,FR,Paris,48.873,2.31
85899345987,68,Delish Cafe,18952,NL,Amsterdam,52.374,4.904
146028888074,11,The Flaming Wok,70611,US,Kiowa,34.686,-95.922
17179869244,61,Blue Water Bistro,10902,FR,Paris,48.867,2.308
60129542154,11,The Flaming Wok,71555,US,Young Harris,34.959,-83.846
8589934610,19,The Tasting Room,12630,US,Troy,40.024,-84.226
111669149718,23,The Hungry Pig,84488,US,Fort Madison,40.624,-91.37
180388626449,18,The Harvest Room,7531,ES,Barcelona,41.384,2.11
257698037782,23,The Hungry Pig,26468,ES,Barcelona,41.394,2.15
34359738425,58,A Tasty Bite,50333,FR,Paris,48.892,2.302
206158430247,40,Crimson Cafe,53370,US,Lithia Springs,45.434,12.346
85899345944,25,The Cozy Cafe,18952,ES,Barcelona,41.396,2.179
163208757320,73,Fresh Harvest,96638,GB,London,51.528,-0.089
85899345976,57,The Yellow Submarine,18952,GB,London,51.495,-0.186
137438953493,22,The Red Pepper,11038,US,South Portland,43.64,-70.337
257698037806,47,The Juicy Burger,26468,FR,Paris,48.842,2.33
51539607556,5,The Hungry Hippo,6934,US,Conway,33.84,-79.06
111669149744,49,The Olive Tree,84488,FR,Paris,48.871,2.315
257698037816,57,The Yellow Submarine,26468,FR,Paris,48.871,2.325
37,38,Cafe Viva,47732,IT,Milan,45.477,9.205
163208757298,51,The Pizzeria,96638,FR,Paris,48.837,2.372
57,58,A Tasty Bite,47732,GB,London,51.493,-0.184
120259084341,54,The Spice House,59829,GB,London,51.502,-0.119
94489280530,19,The Tasting Room,95399,US,Southport,40.454,32.622
137438953525,54,The Spice House,11038,GB,London,51.514,-0.134
223338299443,52,The Red Door,36937,GB,London,51.508,-0.131
206158430287,80,The Market Cafe,53370,GB,London,51.507,-0.021
188978561095,72,Flamingo Cafe,3642,GB,London,51.507,-0.142
8589934644,53,The Red Rooster,12630,FR,Paris,48.891,2.338
180388626436,5,The Hungry Hippo,7531,US,Lincoln,33.58,-86.06
42949672972,13,The Firehouse,89646,US,El Cerrito,37.915,-122.311
137438953509,38,Cafe Viva,11038,AT,Vienna,48.211,16.378
17179869249,66,City Bites,10902,FR,Paris,48.878,2.293
137438953519,48,The Local Cafe,11038,FR,Paris,48.885,2.3
154618822695,40,Crimson Cafe,41484,IT,Milan,45.484,9.2
111669149704,9,The Grill House,84488,US,Rancho Mirage,33.799,-116.406
128849018954,75,Greenhouse Cafe,5679,NL,Amsterdam,52.359,4.989
197568495649,34,The Tasty Treat,24784,US,Hartford,41.735,-72.66
25769803812,37,Cafe Crepe,72230,US,Deadwood,44.376,-103.73
257698037798,39,Cinnamon Grill,26468,US,Tacoma,47.178,-122.463
25769803820,45,The Green Bean,72230,US,Cloquet,46.714,-92.465
257698037790,31,Bistro 42,26468,IT,Milan,45.463,9.188
77309411349,22,The Red Pepper,78190,US,Manhattan,39.18,-96.557
154618822709,54,The Spice House,41484,FR,Paris,48.853,2.334
25769803810,35,Basilica Bistro,72230,US,Whitehall,43.409,-86.317
34359738392,25,The Cozy Cafe,50333,IT,Milan,45.457,9.194
171798691861,22,The Red Pepper,65939,US,Westmont,41.816,-87.955
257698037763,4,The Blue Plate,26468,US,West Palm Beach,26.698,-80.073
223338299395,4,The Blue Plate,36937,US,Dublin,32.487,-82.939
51539607581,30,The Wine Cellar,6934,US,Bend,44.052,-121.264
94489280540,29,The Olive Branch,95399,ES,Barcelona,41.409,2.148
188978561026,3,Spice Bazaar,3642,US,Houston,29.681,-95.403
94489280542,31,Bistro 42,95399,US,Long Eddy,41.845,-75.114
249108103234,67,Crimson and Clover,55897,GB,London,51.513,-0.152
214748364871,72,Flamingo Cafe,92040,GB,London,51.511,-0.135
60129542160,17,The Rustic Table,71555,US,London,37.145,-84.108
111669149712,17,The Rustic Table,84488,US,Vandalia,38.97,-89.129
8589934604,13,The Firehouse,12630,US,Colorado Springs,38.88,-104.868
17179869216,33,The Blue Elephant,10902,US,Hill City,43.959,-103.737
223338299397,6,The Daily Grind,36937,US,Albuquerque,35.121,-106.653
171798691853,14,The Gourmet Garden,65939,US,Huntingdon,40.484,-78.011
94489280539,28,The Spicy Pickle,95399,ES,Barcelona,41.395,2.147
249108103200,33,The Blue Elephant,55897,ES,Barcelona,41.392,2.159
266287972371,20,The Brasserie,11263,US,Eureka,40.768,-124.192
85899345950,31,Bistro 42,18952,US,Pinedale,42.867,-109.874
137438953481,10,The Golden Spoon,11038,US,Larkspur,37.944,-122.506
214748364808,9,The Grill House,92040,US,Cleveland,35.21,-84.87
137438953496,25,The Cozy Cafe,11038,IT,Milan,45.448,9.257
8589934656,65,Chef's Corner,12630,GB,London,51.519,-0.142
120259084340,53,The Red Rooster,59829,GB,London,51.502,-0.187
249108103224,57,The Yellow Submarine,55897,FR,Paris,48.855,2.331
154618822684,29,The Olive Branch,41484,US,Merrillville,41.469,-87.33
68719476759,24,The Fisherman's Catch,77517,US,South Deerfield,42.424,-72.622
128849018887,8,The Green Olive,5679,US,Chinle,36.151,-109.547
206158430242,35,Basilica Bistro,53370,US,Boise,43.608,-116.192
257698037830,71,Fire and Spice,26468,GB,London,51.518,-0.158
223338299442,51,The Pizzeria,36937,GB,London,51.508,-0.147
8589934655,64,Chateau de Cuisine,12630,GB,London,51.517,-0.081
266287972375,24,The Fisherman's Catch,11263,ES,Barcelona,41.389,2.157
240518168635,60,Big City Grill,93164,FR,Paris,48.868,2.327
231928234021,38,Cafe Viva,33573,AT,Vienna,48.205,16.351
146028888129,66,City Bites,70611,FR,Paris,48.871,2.301
51539607586,35,Basilica Bistro,6934,US,Portland,45.541,-122.48
154618822681,26,The Silver Spoon,41484,ES,Barcelona,41.403,2.123
128849018917,38,Cafe Viva,5679,IT,Milan,45.457,9.168
94489280526,15,The Pearl Kitchen,95399,US,Bowie,38.943,-76.734
51539607594,43,The Food House,6934,FR,Paris,48.855,2.335
25769803825,50,The Pancake House,72230,AT,Vienna,48.212,16.368
206158430268,61,Blue Water Bistro,53370,FR,Paris,48.857,2.285
197568495672,57,The Yellow Submarine,24784,FR,Paris,48.859,2.367
27,28,The Spicy Pickle,47732,US,Pierce,42.199,-97.526
77309411382,55,The Steak House,78190,FR,Paris,48.885,2.334
120259084305,18,The Harvest Room,59829,US,Redding,40.602,-122.385
120259084311,24,The Fisherman's Catch,59829,ES,Barcelona,41.423,2.146
163208757258,11,The Flaming Wok,96638,US,Jellico,36.581,-84.113
128849018898,19,The Tasting Room,5679,ES,Barcelona,41.375,2.168
206158430253,46,The Italian Table,53370,US,Hayward,46.085,-91.217
8589934612,21,The Lazy Daisy,12630,US,Allentown,40.576,-75.531
137438953495,24,The Fisherman's Catch,11038,US,Colchester,44.514,-73.183
223338299424,33,The Blue Elephant,36937,IT,Milan,45.479,9.196
103079215177,74,Garden of Eatin',4340,GB,London,51.561,-0.279
231928233992,9,The Grill House,33573,US,Blackwell,36.812,-97.298
120259084308,21,The Lazy Daisy,59829,ES,Barcelona,41.386,2.171
4,5,The Hungry Hippo,47732,US,Fort Worth,32.735,-97.435
111669149724,29,The Olive Branch,84488,ES,Barcelona,41.392,2.158
188978561050,27,The Corner Cafe,3642,ES,Barcelona,41.378,2.179
223338299423,32,The Orange Peeler,36937,IT,Milan,45.469,9.198
51539607564,13,The Firehouse,6934,US,Olathe,38.848,-94.824
128849018943,64,Chateau de Cuisine,5679,GB,London,51.493,-0.16
214748364822,23,The Hungry Pig,92040,ES,Barcelona,41.394,2.199
266287972366,15,The Pearl Kitchen,11263,US,Springfield,39.895,-83.815
231928233995,12,The Wooden Spoon,33573,US,Saint Louis,38.633,-90.184
128849018893,14,The Gourmet Garden,5679,US,Columbia,38.962,-92.244
180388626450,19,The Tasting Room,7531,ES,Barcelona,41.384,2.185
188978561089,66,City Bites,3642,FR,Paris,48.875,2.291
128849018955,76,Happy Hour Cafe,5679,NL,Amsterdam,52.365,4.873
206158430252,45,The Green Bean,53370,US,Hillsboro,45.533,-122.921
146028888089,26,The Silver Spoon,70611,ES,Barcelona,41.386,2.166
8589934642,51,The Pizzeria,12630,FR,Paris,48.884,2.334
146028888083,20,The Brasserie,70611,US,Effingham,39.141,-88.566
42949673029,70,Earth and Vine,89646,GB,London,51.529,-0.128
146028888136,73,Fresh Harvest,70611,GB,London,51.494,-0.185
42949673003,44,The French Kitchen,89646,AT,Vienna,48.183,16.376
266287972369,18,The Harvest Room,11263,US,Entriken,40.34,-78.201
249108103203,36,Blue Ocean Grill,55897,US,Chicago,41.886,-87.626
266287972403,52,The Red Door,11263,FR,Paris,48.856,2.335
223338299439,48,The Local Cafe,36937,GB,London,51.499,-0.106
85899345924,5,The Hungry Hippo,18952,US,Deming,32.266,-107.791
103079215145,42,The Daily Scoop,4340,US,Gillette,44.294,-105.53
8589934606,15,The Pearl Kitchen,12630,US,Ely,39.251,-114.882
8589934608,17,The Rustic Table,12630,US,Parkville,39.398,-76.563
17179869227,44,The French Kitchen,10902,AT,Vienna,48.194,16.297
103079215136,33,The Blue Elephant,4340,ES,Barcelona,41.392,2.166
8589934597,6,The Daily Grind,12630,US,Manchester,35.461,-86.062
64,65,Chef's Corner,47732,GB,London,51.515,-0.057
206158430238,31,Bistro 42,53370,US,Deerfield,42.153,-87.89
111669149730,35,Basilica Bistro,84488,IT,Milan,45.501,9.145
120259084324,37,Cafe Crepe,59829,FR,Paris 13,48.836,2.36
68719476736,1,Savoria,77517,US,Fort Lauderdale,26.106,-80.137
128849018946,67,Crimson and Clover,5679,GB,London,51.499,-0.113
266287972390,39,Cinnamon Grill,11263,IT,Milan,45.47,9.19
214748364843,44,The French Kitchen,92040,FR,Paris,48.824,2.324
17179869254,71,Fire and Spice,10902,GB,London,51.501,-0.017
240518168618,43,The Food House,93164,US,North Conway,44.049,-71.125
8589934598,7,Cafe Roma,12630,US,Lincolnton,35.471,-81.24
60129542202,59,Azalea Cafe,71555,GB,London,51.511,-0.077
111669149751,56,The Waffle House,84488,GB,London,51.496,-0.17
77309411361,34,The Tasty Treat,78190,IT,Milan,45.473,9.144
137438953523,52,The Red Door,11038,GB,London,51.51,-0.132
214748364863,64,Chateau de Cuisine,92040,FR,Paris,48.881,2.327
206158430214,7,Cafe Roma,53370,US,Prattville,32.486,-86.409
154618822731,76,Happy Hour Cafe,41484,GB,Paddington,51.516,-0.172
77309411334,7,Cafe Roma,78190,US,Lubbock,33.536,-101.846
257698037812,53,The Red Rooster,26468,FR,Paris,48.865,2.282
77309411373,46,The Italian Table,78190,FR,Paris,48.857,2.328
77309411358,31,Bistro 42,78190,US,Wilmington,44.364,-73.824
85899345928,9,The Grill House,18952,US,Eloy,32.806,-111.671
154618822728,73,Fresh Harvest,41484,GB,London,51.511,-0.119
111669149756,61,Blue Water Bistro,84488,GB,London,51.52,-0.124
103079215172,69,Dragonfly Cafe,4340,GB,London,51.51,-0.127
34359738420,53,The Red Rooster,50333,FR,Paris,48.874,2.343
197568495638,23,The Hungry Pig,24784,US,Pittsburgh,40.446,-79.714
85899345961,42,The Daily Scoop,18952,AT,Vienna,48.183,16.378
146028888103,40,Crimson Cafe,70611,US,New York,45.058,7.559
22,23,The Hungry Pig,47732,ES,Barcelona,41.389,2.132
34359738387,20,The Brasserie,50333,US,East Syracuse,43.091,-76.079
111669149740,45,The Green Bean,84488,FR,Paris,48.857,2.33
266287972412,61,Blue Water Bistro,11263,FR,Paris,48.876,2.286
85899345973,54,The Spice House,18952,FR,Paris,48.881,2.324
154618822691,36,Blue Ocean Grill,41484,US,North Conway,44.074,-71.141
34,35,Basilica Bistro,47732,IT,Milan,45.447,9.207
249108103219,52,The Red Door,55897,AT,Donauinsel,48.227,16.4
60129542159,16,The Spice Tree,71555,US,Batesville,35.791,-91.638
8589934640,49,The Olive Tree,12630,FR,Paris,48.88,2.321
249108103197,30,The Wine Cellar,55897,ES,Barcelona,41.387,2.168
26,27,The Corner Cafe,47732,US,Providence,41.844,-71.428
180388626439,8,The Green Olive,7531,US,Piney Creek,36.555,-81.332
77309411352,25,The Cozy Cafe,78190,ES,Barcelona,41.375,2.161
